,Street,City,State,Zip,Census Tract,Census Block,GEOID
0,7739 W HOWARD ST,Chicago,IL,60631,,,170310901004
1,7730 W BIRCHWOOD AVE,Chicago,IL,60631,,,170310901004
2,7726 W BIRCHWOOD AVE,Chicago,IL,60631,,,170310901004
3,7714 W BIRCHWOOD AVE,Chicago,IL,60631,,,170310901004
4,7518 N OVERHILL AVE,Chicago,IL,60631,,,170310901004
5,7506 N OVERHILL AVE,Chicago,IL,60631,,,170310901004
6,7502 N OVERHILL AVE,Chicago,IL,60631,,,170310901004
7,7500 N OVERHILL AVE,Chicago,IL,60631,,,170310901004
8,7509 N OVERHILL AVE,Chicago,IL,60631,,,170310901004
9,7501 N OVERHILL AVE,Chicago,IL,60631,,,170310901004
10,7649 W HOWARD ST,Chicago,IL,60631,,,170310901004
11,7515 N OVERHILL AVE,Chicago,IL,60631,,,170310901004
12,7511 N OVERHILL AVE,Chicago,IL,60631,,,170310901004
13,7516 N ORIOLE AVE,Chicago,IL,60631,,,170310901004
14,7558 N ORIOLE AVE,Chicago,IL,60631,,,170310901004
15,7543 N OTTAWA AVE,Chicago,IL,60631,,,170310901004
16,7535 N OTTAWA AVE,Chicago,IL,60631,,,170310901004
17,7452 N OZARK AVE,Chicago,IL,60631,,,170310901004
18,7715 W BIRCHWOOD AVE,Chicago,IL,60631,,,170310901004
19,7450 N OVERHILL AVE,Chicago,IL,60631,,,170310901004
20,7730 W FARGO AVE,Chicago,IL,60631,,,170310901004
21,7743 W BIRCHWOOD AVE,Chicago,IL,60631,,,170310901004
22,7423 N OZARK AVE,Chicago,IL,60631,,,170310901004
23,7427 N OVERHILL AVE,Chicago,IL,60631,,,170310901004
24,7401 N OVERHILL AVE,Chicago,IL,60631,,,170310901004
25,7452 N OTTAWA AVE,Chicago,IL,60631,,,170310901004
26,7640 W JARVIS AVE,Chicago,IL,60631,,,170310901004
27,7421 N OTTAWA AVE,Chicago,IL,60631,,,170310901004
28,7440 N ORIOLE AVE,Chicago,IL,60631,,,170310901004
29,7412 N ORIOLE AVE,Chicago,IL,60631,,,170310901004
30,7425 N OTTAWA AVE,Chicago,IL,60631,,,170310901004
31,7438 N ORIOLE AVE,Chicago,IL,60631,,,170310901004
32,7721 W SHERWIN AVE,Chicago,IL,60631,,,170310901003
33,7720 W CHASE AVE,Chicago,IL,60631,,,170310901003
34,7324 N OVERHILL AVE,Chicago,IL,60631,,,170310901003
35,7320 N OVERHILL AVE,Chicago,IL,60631,,,170310901003
36,7214 N OVERHILL AVE,Chicago,IL,60631,,,170310901003
37,7348 N OVERHILL AVE,Chicago,IL,60631,,,170310901003
38,7258 N OVERHILL AVE,Chicago,IL,60631,,,170310901003
39,7252 N OVERHILL AVE,Chicago,IL,60631,,,170310901003
40,7244 N OVERHILL AVE,Chicago,IL,60631,,,170310901003
41,7330 N OTTAWA AVE,Chicago,IL,60631,,,170310901003
42,7329 N OTTAWA AVE,Chicago,IL,60631,,,170310901003
43,7319 N OTTAWA AVE,Chicago,IL,60631,,,170310901003
44,7315 N OTTAWA AVE,Chicago,IL,60631,,,170310901003
45,7240 N OTTAWA AVE,Chicago,IL,60631,,,170310901003
46,7237 N OVERHILL AVE,Chicago,IL,60631,,,170310901003
47,7225 N OVERHILL AVE,Chicago,IL,60631,,,170310901003
48,7219 N OVERHILL AVE,Chicago,IL,60631,,,170310901003
49,7232 N ORIOLE AVE,Chicago,IL,60631,,,170310901003
50,7259 N OTTAWA AVE,Chicago,IL,60631,,,170310901003
51,7225 N OTTAWA AVE,Chicago,IL,60631,,,170310901003
52,7534 N OLEANDER AVE,Chicago,IL,60631,,,170310901004
53,7532 N OLCOTT AVE,Chicago,IL,60631,,,170310901004
54,7528 N OLCOTT AVE,Chicago,IL,60631,,,170310901004
55,7508 N OLCOTT AVE,Chicago,IL,60631,,,170310901004
56,7447 W HOWARD ST,Chicago,IL,60631,,,170310901001
57,7425 W HOWARD ST,Chicago,IL,60631,,,170310901001
58,7535 N OSCEOLA AVE,Chicago,IL,60631,,,170310901001
59,7511 N OSCEOLA AVE,Chicago,IL,60631,,,170310901001
60,7540 N OKETO AVE,Chicago,IL,60631,,,170310901001
61,7343 W HOWARD ST,Chicago,IL,60631,,,170310901001
62,7523 N OKETO AVE,Chicago,IL,60631,,,170310901001
63,7528 N ODELL AVE,Chicago,IL,60631,,,170310901001
64,7551 N OKETO AVE,Chicago,IL,60631,,,170310901001
65,7514 N ODELL AVE,Chicago,IL,60631,,,170310901001
66,7506 N OCTAVIA AVE,Chicago,IL,60631,,,170310901001
67,7539 N ODELL AVE,Chicago,IL,60631,,,170310901001
68,7529 N ODELL AVE,Chicago,IL,60631,,,170310901001
69,7245 W HOWARD ST,Chicago,IL,60631,,,170310901001
70,7237 W HOWARD ST,Chicago,IL,60631,,,170310901001
71,7541 N OCTAVIA AVE,Chicago,IL,60631,,,170310901001
72,7524 N OCONTO AVE,Chicago,IL,60631,,,170310901001
73,7521 N OCONTO AVE,Chicago,IL,60631,,,170310901001
74,7501 N OCONTO AVE,Chicago,IL,60631,,,170310901001
75,7505 N OCONTO AVE,Chicago,IL,60631,,,170310901001
76,7421 N ORIOLE AVE,Chicago,IL,60631,,,170310901004
77,7434 N OLEANDER AVE,Chicago,IL,60631,,,170310901004
78,7408 N OLEANDER AVE,Chicago,IL,60631,,,170310901004
79,7401 N ORIOLE AVE,Chicago,IL,60631,,,170310901004
80,7412 N OLEANDER AVE,Chicago,IL,60631,,,170310901004
81,7421 N OLEANDER AVE,Chicago,IL,60631,,,170310901004
82,7428 N OLCOTT AVE,Chicago,IL,60631,,,170310901004
83,7431 N OLEANDER AVE,Chicago,IL,60631,,,170310901004
84,7437 W BIRCHWOOD AVE,Chicago,IL,60631,,,170310901001
85,7437 N OLCOTT AVE,Chicago,IL,60631,,,170310901001
86,7435 N OLCOTT AVE,Chicago,IL,60631,,,170310901001
87,7429 N OLCOTT AVE,Chicago,IL,60631,,,170310901001
88,7427 N OLCOTT AVE,Chicago,IL,60631,,,170310901001
89,7444 N OSCEOLA AVE,Chicago,IL,60631,,,170310901001
90,7447 N OSCEOLA AVE,Chicago,IL,60631,,,170310901001
91,7406 N OKETO AVE,Chicago,IL,60631,,,170310901001
92,7408 N ODELL AVE,Chicago,IL,60631,,,170310901001
93,7404 N ODELL AVE,Chicago,IL,60631,,,170310901001
94,7442 N ODELL AVE,Chicago,IL,60631,,,170310901001
95,7434 N ODELL AVE,Chicago,IL,60631,,,170310901001
96,7401 N ODELL AVE,Chicago,IL,60631,,,170310901001
97,7410 N OCTAVIA AVE,Chicago,IL,60631,,,170310901001
98,7427 N ODELL AVE,Chicago,IL,60631,,,170310901001
99,7415 N ODELL AVE,Chicago,IL,60631,,,170310901001
100,7445 N ODELL AVE,Chicago,IL,60631,,,170310901001
101,7450 N OCTAVIA AVE,Chicago,IL,60631,,,170310901001
102,7438 N OCTAVIA AVE,Chicago,IL,60631,,,170310901001
103,7441 N OCTAVIA AVE,Chicago,IL,60631,,,170310901001
104,7426 N OCONTO AVE,Chicago,IL,60631,,,170310901001
105,7422 N OCONTO AVE,Chicago,IL,60631,,,170310901001
106,7410 N OCONTO AVE,Chicago,IL,60631,,,170310901001
107,7445 N OCONTO AVE,Chicago,IL,60631,,,170310901001
108,7435 N OCONTO AVE,Chicago,IL,60631,,,170310901001
109,7429 N OCONTO AVE,Chicago,IL,60631,,,170310901001
110,NA,Chicago,IL,,,,
111,NA,Chicago,IL,,,,
112,NA,Chicago,IL,,,,
113,NA,Chicago,IL,,,,
114,NA,Chicago,IL,,,,
115,7351 N ORIOLE AVE,Chicago,IL,60631,,,170310901003
116,7315 N ORIOLE AVE,Chicago,IL,60631,,,170310901003
117,7322 N OLEANDER AVE,Chicago,IL,60631,,,170310901003
118,7310 N OLEANDER AVE,Chicago,IL,60631,,,170310901003
119,7309 N OLEANDER AVE,Chicago,IL,60631,,,170310901003
120,7516 W CHASE AVE,Chicago,IL,60631,,,170310901003
121,7352 N OLCOTT AVE,Chicago,IL,60631,,,170310901003
122,7359 N OLEANDER AVE,Chicago,IL,60631,,,170310901003
123,7332 N OSCEOLA AVE,Chicago,IL,60631,,,170310901002
124,7350 N OSCEOLA AVE,Chicago,IL,60631,,,170310901002
125,7343 N OLCOTT AVE,Chicago,IL,60631,,,170310901002
126,7323 N OLCOTT AVE,Chicago,IL,60631,,,170310901002
127,7317 N OLCOTT AVE,Chicago,IL,60631,,,170310901002
128,7307 N OSCEOLA AVE,Chicago,IL,60631,,,170310901002
129,7354 N ODELL AVE,Chicago,IL,60631,,,170310901002
130,7342 N ODELL AVE,Chicago,IL,60631,,,170310901002
131,7351 N OKETO AVE,Chicago,IL,60631,,,170310901002
132,7332 N OCTAVIA AVE,Chicago,IL,60631,,,170310901002
133,7305 N ODELL AVE,Chicago,IL,60631,,,170310901002
134,7353 N ODELL AVE,Chicago,IL,60631,,,170310901002
135,7300 N OCTAVIA AVE,Chicago,IL,60631,,,170310901002
136,7314 N OCONTO AVE,Chicago,IL,60631,,,170310901002
137,7308 N OCONTO AVE,Chicago,IL,60631,,,170310901002
138,7300 N OCONTO AVE,Chicago,IL,60631,,,170310901002
139,7329 N OCONTO AVE,Chicago,IL,60631,,,170310901002
140,7315 N OCONTO AVE,Chicago,IL,60631,,,170310901002
141,7309 N OCONTO AVE,Chicago,IL,60631,,,170310901002
142,7305 N OCONTO AVE,Chicago,IL,60631,,,170310901002
143,7353 N OCONTO AVE,Chicago,IL,60631,,,170310901002
144,7343 N OCONTO AVE,Chicago,IL,60631,,,170310901002
145,7304 N HARLEM AVE,Chicago,IL,60631,,,170310901002
146,7356 N HARLEM AVE,Chicago,IL,60631,,,170310901002
147,NA,Chicago,IL,,,,
148,NA,Chicago,IL,,,,
149,NA,Chicago,IL,,,,
150,NA,Chicago,IL,,,,
151,7258 N OLEANDER AVE,Chicago,IL,60631,,,170310901003
152,7259 N ORIOLE AVE,Chicago,IL,60631,,,170310901003
153,7255 N ORIOLE AVE,Chicago,IL,60631,,,170310901003
154,7560 W TOUHY AVE,Chicago,IL,60631,,,170310901003
155,7220 N OLCOTT AVE,Chicago,IL,60631,,,170310901003
156,7254 N OLCOTT AVE,Chicago,IL,60631,,,170310901003
157,7508 W TOUHY AVE,Chicago,IL,60631,,,170310901003
158,7233 N OLEANDER AVE,Chicago,IL,60631,,,170310901003
159,7518 W TOUHY AVE,Chicago,IL,60631,,,170310901003
160,7214 N OSCEOLA AVE,Chicago,IL,60631,,,170310901002
161,7229 N OLCOTT AVE,Chicago,IL,60631,,,170310901002
162,7253 N OSCEOLA AVE,Chicago,IL,60631,,,170310901002
163,7249 N ODELL AVE,Chicago,IL,60631,,,170310901002
164,7259 N ODELL AVE,Chicago,IL,60631,,,170310901002
165,7251 N OCTAVIA AVE,Chicago,IL,60631,,,170310901002
166,7216 N OCONTO AVE,Chicago,IL,60631,,,170310901002
167,7239 N OCONTO AVE,Chicago,IL,60631,,,170310901002
168,7229 N OCONTO AVE,Chicago,IL,60631,,,170310901002
169,7111 N OZANAM AVE,Chicago,IL,60631,,,170310902004
170,7049 N OZANAM AVE,Chicago,IL,60631,,,170310902004
171,7124 N OZARK AVE,Chicago,IL,60631,,,170310902004
172,7046 N OZARK AVE,Chicago,IL,60631,,,170310902004
173,7166 N OZARK AVE,Chicago,IL,60631,,,170310902004
174,7162 N OZARK AVE,Chicago,IL,60631,,,170310902004
175,7016 N OZARK AVE,Chicago,IL,60631,,,170310902004
176,7056 N OVERHILL AVE,Chicago,IL,60631,,,170310902004
177,7030 N OVERHILL AVE,Chicago,IL,60631,,,170310902004
178,7016 N OVERHILL AVE,Chicago,IL,60631,,,170310902004
179,7131 N OZARK AVE,Chicago,IL,60631,,,170310902004
180,7152 N OVERHILL AVE,Chicago,IL,60631,,,170310902004
181,7027 N OZARK AVE,Chicago,IL,60631,,,170310902004
182,7032 N OVERHILL AVE,Chicago,IL,60631,,,170310902004
183,6963 N OTTAWA AVE,Chicago,IL,60631,,,170310902004
184,6930 N OTTAWA AVE,Chicago,IL,60631,,,170310902004
185,6910 N OTTAWA AVE,Chicago,IL,60631,,,170310902004
186,7024 N ORIOLE AVE,Chicago,IL,60631,,,170310902004
187,7136 N OTTAWA AVE,Chicago,IL,60631,,,170310902004
188,7141 N OTTAWA AVE,Chicago,IL,60631,,,170310902004
189,6935 N OTTAWA AVE,Chicago,IL,60631,,,170310902004
190,6949 N OTTAWA AVE,Chicago,IL,60631,,,170310902004
191,7109 N OTTAWA AVE,Chicago,IL,60631,,,170310902004
192,7009 N OVERHILL AVE,Chicago,IL,60631,,,170310902004
193,6957 N OTTAWA AVE,Chicago,IL,60631,,,170310902004
194,7032 N OTTAWA AVE,Chicago,IL,60631,,,170310902004
195,6954 N ORIOLE AVE,Chicago,IL,60631,,,170310902004
196,6932 N OVERHILL AVE,Chicago,IL,60631,,,170310902004
197,6827 N NORTHWEST HWY,Chicago,IL,60631,,,170310902004
198,6962 N OWEN AVE,Chicago,IL,60631,,,170310902004
199,NA,Chicago,IL,,,,
200,NA,Chicago,IL,,,,
201,NA,Chicago,IL,,,,
202,NA,Chicago,IL,,,,
203,NA,Chicago,IL,,,,
204,NA,Chicago,IL,,,,
205,NA,Chicago,IL,,,,
206,NA,Chicago,IL,,,,
207,NA,Chicago,IL,,,,
208,NA,Chicago,IL,,,,
209,NA,Chicago,IL,,,,
210,NA,Chicago,IL,,,,
211,NA,Chicago,IL,,,,
212,NA,Chicago,IL,,,,
213,NA,Chicago,IL,,,,
214,NA,Chicago,IL,,,,
215,NA,Chicago,IL,,,,
216,NA,Chicago,IL,,,,
217,NA,Chicago,IL,,,,
218,NA,Chicago,IL,,,,
219,NA,Chicago,IL,,,,
220,NA,Chicago,IL,,,,
221,NA,Chicago,IL,,,,
222,NA,Chicago,IL,,,,
223,NA,Chicago,IL,,,,
224,NA,Chicago,IL,,,,
225,NA,Chicago,IL,,,,
226,NA,Chicago,IL,,,,
227,NA,Chicago,IL,,,,
228,NA,Chicago,IL,,,,
229,NA,Chicago,IL,,,,
230,NA,Chicago,IL,,,,
231,NA,Chicago,IL,,,,
232,6834 N OTTAWA AVE,Chicago,IL,60631,,,170310902004
233,NA,Chicago,IL,,,,
234,NA,Chicago,IL,,,,
235,NA,Chicago,IL,,,,
236,6853 N OTTAWA AVE,Chicago,IL,60631,,,170310902004
237,6817 N OTTAWA AVE,Chicago,IL,60631,,,170310902004
238,6818 N ORIOLE AVE,Chicago,IL,60631,,,170310902004
239,6810 N ORIOLE AVE,Chicago,IL,60631,,,170310902004
240,NA,Chicago,IL,,,,
241,NA,Chicago,IL,,,,
242,NA,Chicago,IL,,,,
243,NA,Chicago,IL,,,,
244,NA,Chicago,IL,,,,
245,NA,Chicago,IL,,,,
246,NA,Chicago,IL,,,,
247,NA,Chicago,IL,,,,
248,NA,Chicago,IL,,,,
249,NA,Chicago,IL,,,,
250,NA,Chicago,IL,,,,
251,NA,Chicago,IL,,,,
252,NA,Chicago,IL,,,,
253,NA,Chicago,IL,,,,
254,NA,Chicago,IL,,,,
255,NA,Chicago,IL,,,,
256,NA,Chicago,IL,,,,
257,NA,Chicago,IL,,,,
258,NA,Chicago,IL,,,,
259,NA,Chicago,IL,,,,
260,NA,Chicago,IL,,,,
261,NA,Chicago,IL,,,,
262,NA,Chicago,IL,,,,
263,NA,Chicago,IL,,,,
264,NA,Chicago,IL,,,,
265,NA,Chicago,IL,,,,
266,7113 N ORIOLE AVE,Chicago,IL,60631,,,170310902005
267,7107 N ORIOLE AVE,Chicago,IL,60631,,,170310902005
268,7151 N OLEANDER AVE,Chicago,IL,60631,,,170310902005
269,7107 N OLEANDER AVE,Chicago,IL,60631,,,170310902005
270,7150 N OLCOTT AVE,Chicago,IL,60631,,,170310902005
271,7136 N OSCEOLA AVE,Chicago,IL,60631,,,170310902005
272,7110 N OSCEOLA AVE,Chicago,IL,60631,,,170310902005
273,7125 N OSCEOLA AVE,Chicago,IL,60631,,,170310902001
274,7140 N ODELL AVE,Chicago,IL,60631,,,170310902001
275,7131 N OSCEOLA AVE,Chicago,IL,60631,,,170310902001
276,7122 N ODELL AVE,Chicago,IL,60631,,,170310902001
277,7339 W TOUHY AVE,Chicago,IL,60631,,,170310902001
278,7333 W TOUHY AVE,Chicago,IL,60631,,,170310902001
279,7316 W FITCH AVE,Chicago,IL,60631,,,170310902001
280,7321 W FITCH AVE,Chicago,IL,60631,,,170310902001
281,7010 N OLEANDER AVE,Chicago,IL,60631,,,170310902005
282,7000 N OLEANDER AVE,Chicago,IL,60631,,,170310902005
283,7031 N OLCOTT AVE,Chicago,IL,60631,,,170310902005
284,7021 N OLCOTT AVE,Chicago,IL,60631,,,170310902005
285,7028 N OSCEOLA AVE,Chicago,IL,60631,,,170310902005
286,7024 N OSCEOLA AVE,Chicago,IL,60631,,,170310902005
287,7021 N OSCEOLA AVE,Chicago,IL,60631,,,170310902001
288,7038 N ODELL AVE,Chicago,IL,60631,,,170310902001
289,7000 N ODELL AVE,Chicago,IL,60631,,,170310902001
290,7328 W GREENLEAF AVE,Chicago,IL,60631,,,170310902001
291,7222 W GREENLEAF AVE,Chicago,IL,60631,,,170310902001
292,7339 W GREENLEAF AVE,Chicago,IL,60631,,,170310902001
293,7321 W GREENLEAF AVE,Chicago,IL,60631,,,170310902001
294,7257 W GREENLEAF AVE,Chicago,IL,60631,,,170310902001
295,7227 W GREENLEAF AVE,Chicago,IL,60631,,,170310902001
296,6921 N ORIOLE AVE,Chicago,IL,60631,,,170310902005
297,6919 N ORIOLE AVE,Chicago,IL,60631,,,170310902005
298,6950 N OLEANDER AVE,Chicago,IL,60631,,,170310902005
299,6932 N OLEANDER AVE,Chicago,IL,60631,,,170310902005
300,6947 N OLEANDER AVE,Chicago,IL,60631,,,170310902005
301,6933 N OLEANDER AVE,Chicago,IL,60631,,,170310902005
302,6910 N OLCOTT AVE,Chicago,IL,60631,,,170310902005
303,6937 N OLCOTT AVE,Chicago,IL,60631,,,170310902005
304,6931 N OLCOTT AVE,Chicago,IL,60631,,,170310902005
305,6958 N OSCEOLA AVE,Chicago,IL,60631,,,170310902005
306,6944 N OSCEOLA AVE,Chicago,IL,60631,,,170310902005
307,6915 N OSCEOLA AVE,Chicago,IL,60631,,,170310902001
308,6907 N OSCEOLA AVE,Chicago,IL,60631,,,170310902001
309,6918 N ODELL AVE,Chicago,IL,60631,,,170310902001
310,7309 W LUNT AVE,Chicago,IL,60631,,,170310902001
311,7340 W COYLE AVE,Chicago,IL,60631,,,170310902001
312,7326 W COYLE AVE,Chicago,IL,60631,,,170310902001
313,7320 W COYLE AVE,Chicago,IL,60631,,,170310902001
314,7255 W LUNT AVE,Chicago,IL,60631,,,170310902001
315,6919 N ODELL AVE,Chicago,IL,60631,,,170310902001
316,7315 W COYLE AVE,Chicago,IL,60631,,,170310902001
317,7301 W COYLE AVE,Chicago,IL,60631,,,170310902001
318,7326 W IBSEN ST,Chicago,IL,60631,,,170310902001
319,7243 W COYLE AVE,Chicago,IL,60631,,,170310902001
320,7227 W COYLE AVE,Chicago,IL,60631,,,170310902001
321,7242 W IBSEN ST,Chicago,IL,60631,,,170310902001
322,7232 W IBSEN ST,Chicago,IL,60631,,,170310902001
323,7217 W COYLE AVE,Chicago,IL,60631,,,170310902001
324,6808 N OLEANDER AVE,Chicago,IL,60631,,,170310902005
325,6854 N OLCOTT AVE,Chicago,IL,60631,,,170310902005
326,6816 N OLCOTT AVE,Chicago,IL,60631,,,170310902005
327,6810 N OLCOTT AVE,Chicago,IL,60631,,,170310902005
328,6807 N OLEANDER AVE,Chicago,IL,60631,,,170310902005
329,6845 N OLCOTT AVE,Chicago,IL,60631,,,170310902005
330,6837 N OLCOTT AVE,Chicago,IL,60631,,,170310902005
331,6806 N OSCEOLA AVE,Chicago,IL,60631,,,170310902005
332,6832 N OSCEOLA AVE,Chicago,IL,60631,,,170310902005
333,6851 N OSCEOLA AVE,Chicago,IL,60631,,,170310902002
334,6801 N OSCEOLA AVE,Chicago,IL,60631,,,170310902002
335,7339 W IBSEN ST,Chicago,IL,60631,,,170310902002
336,7301 W IBSEN ST,Chicago,IL,60631,,,170310902002
337,7334 W FARWELL AVE,Chicago,IL,60631,,,170310902002
338,7324 W FARWELL AVE,Chicago,IL,60631,,,170310902002
339,7249 W IBSEN ST,Chicago,IL,60631,,,170310902002
340,7225 W IBSEN ST,Chicago,IL,60631,,,170310902002
341,7217 W IBSEN ST,Chicago,IL,60631,,,170310902002
342,7211 W IBSEN ST,Chicago,IL,60631,,,170310902002
343,NA,Chicago,IL,,,,
344,NA,Chicago,IL,,,,
345,7754 W COLUMBIA AVE,Chicago,IL,60631,,,170310903001
346,6763 N OZANAM AVE,Chicago,IL,60631,,,170310903001
347,6759 N OZANAM AVE,Chicago,IL,60631,,,170310903001
348,7732 W COLUMBIA AVE,Chicago,IL,60631,,,170310903001
349,6751 N OZANAM AVE,Chicago,IL,60631,,,170310903001
350,NA,Chicago,IL,,,,
351,NA,Chicago,IL,,,,
352,7727 W COLUMBIA AVE,Chicago,IL,60631,,,170310903001
353,7707 W COLUMBIA AVE,Chicago,IL,60631,,,170310903001
354,7762 W NORTH SHORE AVE,Chicago,IL,60631,,,170310903001
355,7756 W NORTH SHORE AVE,Chicago,IL,60631,,,170310903001
356,7712 W NORTH SHORE AVE,Chicago,IL,60631,,,170310903001
357,7755 W COLUMBIA AVE,Chicago,IL,60631,,,170310903001
358,7767 W NORTH SHORE AVE,Chicago,IL,60631,,,170310903001
359,6644 N OTTAWA AVE,Chicago,IL,60631,,,170310903001
360,6620 N OTTAWA AVE,Chicago,IL,60631,,,170310903001
361,6649 N OTTAWA AVE,Chicago,IL,60631,,,170310903001
362,6615 N OTTAWA AVE,Chicago,IL,60631,,,170310903001
363,6622 N OSHKOSH AVE,Chicago,IL,60631,,,170310903001
364,6643 N OSHKOSH AVE,Chicago,IL,60631,,,170310903001
365,6605 N OSHKOSH AVE,Chicago,IL,60631,,,170310903001
366,6566 N OLIPHANT AVE,Chicago,IL,60631,,,170310903001
367,6615 N OLIPHANT AVE,Chicago,IL,60631,,,170310903001
368,6522 N OXFORD AVE,Chicago,IL,60631,,,170310903001
369,6506 N OLYMPIA AVE,Chicago,IL,60631,,,170310903001
370,6546 N OSHKOSH AVE,Chicago,IL,60631,,,170310903001
371,6540 N OSHKOSH AVE,Chicago,IL,60631,,,170310903001
372,6533 N OSHKOSH AVE,Chicago,IL,60631,,,170310903001
373,6519 N OSHKOSH AVE,Chicago,IL,60631,,,170310903001
374,6467 N OZANAM AVE,Chicago,IL,60631,,,170310903001
375,6456 N OLIPHANT AVE,Chicago,IL,60631,,,170310903001
376,6532 N OLIPHANT AVE,Chicago,IL,60631,,,170310903001
377,6529 N OLIPHANT AVE,Chicago,IL,60631,,,170310903001
378,6517 N OLIPHANT AVE,Chicago,IL,60631,,,170310903001
379,6501 N OLIPHANT AVE,Chicago,IL,60631,,,170310903001
380,6480 N OXFORD AVE,Chicago,IL,60631,,,170310903001
381,6454 N OLYMPIA AVE,Chicago,IL,60631,,,170310903001
382,6447 N OLIPHANT AVE,Chicago,IL,60631,,,170310903001
383,6434 N OXFORD AVE,Chicago,IL,60631,,,170310903001
384,6416 N OXFORD AVE,Chicago,IL,60631,,,170310903001
385,6404 N OLYMPIA AVE,Chicago,IL,60631,,,170310903001
386,6410 N OLYMPIA AVE,Chicago,IL,60631,,,170310903001
387,7621 W ISHAM AVE,Chicago,IL,60631,,,170310903001
388,6429 N OLYMPIA AVE,Chicago,IL,60631,,,170310903001
389,6437 N OLYMPIA AVE,Chicago,IL,60631,,,170310903001
390,6722 N OLIPHANT AVE,Chicago,IL,60631,,,170310902004
391,NA,Chicago,IL,,,,
392,NA,Chicago,IL,,,,
393,NA,Chicago,IL,,,,
394,NA,Chicago,IL,,,,
395,6755 N OLIPHANT AVE,Chicago,IL,60631,,,170310902003
396,6772 N OXFORD AVE,Chicago,IL,60631,,,170310902003
397,6763 N OXFORD AVE,Chicago,IL,60631,,,170310902003
398,6733 N OLYMPIA AVE,Chicago,IL,60631,,,170310902003
399,6678 N OGALLAH AVE,Chicago,IL,60631,,,170310902003
400,6735 N OKETO AVE,Chicago,IL,60631,,,170310902002
401,6732 N ODELL AVE,Chicago,IL,60631,,,170310902002
402,6728 N ODELL AVE,Chicago,IL,60631,,,170310902002
403,6733 N ODELL AVE,Chicago,IL,60631,,,170310902002
404,6754 N OCTAVIA AVE,Chicago,IL,60631,,,170310902002
405,6744 N OCTAVIA AVE,Chicago,IL,60631,,,170310902002
406,6701 N OCTAVIA AVE,Chicago,IL,60631,,,170310902002
407,6711 N OCTAVIA AVE,Chicago,IL,60631,,,170310902002
408,6736 N OXFORD AVE,Chicago,IL,60631,,,170310902003
409,6718 N OXFORD AVE,Chicago,IL,60631,,,170310902003
410,NA,Chicago,IL,,,,
411,NA,Chicago,IL,,,,
412,NA,Chicago,IL,,,,
413,NA,Chicago,IL,,,,
414,6723 N OLIPHANT AVE,Chicago,IL,60631,,,170310902003
415,6743 N OXFORD AVE,Chicago,IL,60631,,,170310902003
416,6729 N OXFORD AVE,Chicago,IL,60631,,,170310902003
417,6739 N OXFORD AVE,Chicago,IL,60631,,,170310902003
418,6648 N OGALLAH AVE,Chicago,IL,60631,,,170310902003
419,6638 N OGALLAH AVE,Chicago,IL,60631,,,170310902003
420,NA,Chicago,IL,,,,
421,NA,Chicago,IL,,,,
422,6667 N OGALLAH AVE,Chicago,IL,60631,,,170310902003
423,NA,Chicago,IL,,,,
424,NA,Chicago,IL,,,,
425,NA,Chicago,IL,,,,
426,NA,Chicago,IL,,,,
427,6661 N ONARGA AVE,Chicago,IL,60631,,,170310902002
428,6650 N ODELL AVE,Chicago,IL,60631,,,170310902002
429,6645 N ODELL AVE,Chicago,IL,60631,,,170310902002
430,6611 N ONARGA AVE,Chicago,IL,60631,,,170310902002
431,6619 N ONARGA AVE,Chicago,IL,60631,,,170310902002
432,6646 N OCONTO AVE,Chicago,IL,60631,,,170310902002
433,6634 N OCONTO AVE,Chicago,IL,60631,,,170310902002
434,6628 N OCONTO AVE,Chicago,IL,60631,,,170310902002
435,6561 N ONARGA AVE,Chicago,IL,60631,,,170310902002
436,6576 N OCONTO AVE,Chicago,IL,60631,,,170310902002
437,6639 N OCONTO AVE,Chicago,IL,60631,,,170310902002
438,6617 N OCONTO AVE,Chicago,IL,60631,,,170310902002
439,6643 N OCONTO AVE,Chicago,IL,60631,,,170310902002
440,NA,Chicago,IL,,,,
441,NA,Chicago,IL,,,,
442,NA,Chicago,IL,,,,
443,6640 N NORTHWEST HWY,Chicago,IL,60631,,,170310902003
444,6621 N OLMSTED AVE,Chicago,IL,60631,,,170310902003
445,6615 N OLMSTED AVE,Chicago,IL,60631,,,170310902003
446,6556 N NORTHWEST HWY,Chicago,IL,60631,,,170310902003
447,NA,Chicago,IL,,,,
448,6622 N ONARGA AVE,Chicago,IL,60631,,,170310902003
449,6584 N ONARGA AVE,Chicago,IL,60631,,,170310902003
450,6538 N ONARGA AVE,Chicago,IL,60631,,,170310902003
451,6541 N NORTHWEST HWY,Chicago,IL,60631,,,170310902003
452,NA,Chicago,IL,,,,
453,NA,Chicago,IL,,,,
454,NA,Chicago,IL,,,,
455,NA,Chicago,IL,,,,
456,NA,Chicago,IL,,,,
457,NA,Chicago,IL,,,,
458,NA,Chicago,IL,,,,
459,NA,Chicago,IL,,,,
460,NA,Chicago,IL,,,,
461,NA,Chicago,IL,,,,
462,NA,Chicago,IL,,,,
463,NA,Chicago,IL,,,,
464,NA,Chicago,IL,,,,
465,NA,Chicago,IL,,,,
466,NA,Chicago,IL,,,,
467,NA,Chicago,IL,,,,
468,NA,Chicago,IL,,,,
469,NA,Chicago,IL,,,,
470,NA,Chicago,IL,,,,
471,NA,Chicago,IL,,,,
472,NA,Chicago,IL,,,,
473,NA,Chicago,IL,,,,
474,NA,Chicago,IL,,,,
475,NA,Chicago,IL,,,,
476,6533 N ONARGA AVE,Chicago,IL,60631,,,170310902002
477,6557 N OCONTO AVE,Chicago,IL,60631,,,170310902002
478,6548 N HARLEM AVE,Chicago,IL,60631,,,170310902002
479,6544 N HARLEM AVE,Chicago,IL,60631,,,170310902002
480,6532 N HARLEM AVE,Chicago,IL,60631,,,170310902002
481,6562 N HARLEM AVE,Chicago,IL,60631,,,170310902002
482,6457 N OGALLAH AVE,Chicago,IL,60631,,,170310903001
483,6443 N OGALLAH AVE,Chicago,IL,60631,,,170310903001
484,6454 N OKETO AVE,Chicago,IL,60631,,,170310903001
485,6442 N OKETO AVE,Chicago,IL,60631,,,170310903001
486,6455 N OKETO AVE,Chicago,IL,60631,,,170310903001
487,6520 N NORTHWEST HWY,Chicago,IL,60631,,,170310902003
488,6526 N NORTHWEST HWY,Chicago,IL,60631,,,170310902003
489,6518 N NORTHWEST HWY,Chicago,IL,60631,,,170310902003
490,6516 N NORTHWEST HWY,Chicago,IL,60631,,,170310902003
491,6512 N NORTHWEST HWY,Chicago,IL,60631,,,170310902003
492,NA,Chicago,IL,,,,
493,NA,Chicago,IL,,,,
494,NA,Chicago,IL,,,,
495,NA,Chicago,IL,,,,
496,NA,Chicago,IL,,,,
497,NA,Chicago,IL,,,,
498,NA,Chicago,IL,,,,
499,NA,Chicago,IL,,,,
500,NA,Chicago,IL,,,,
501,NA,Chicago,IL,,,,
502,NA,Chicago,IL,,,,
503,NA,Chicago,IL,,,,
504,NA,Chicago,IL,,,,
505,NA,Chicago,IL,,,,
506,NA,Chicago,IL,,,,
507,NA,Chicago,IL,,,,
508,NA,Chicago,IL,,,,
509,NA,Chicago,IL,,,,
510,NA,Chicago,IL,,,,
511,NA,Chicago,IL,,,,
512,NA,Chicago,IL,,,,
513,NA,Chicago,IL,,,,
514,NA,Chicago,IL,,,,
515,NA,Chicago,IL,,,,
516,NA,Chicago,IL,,,,
517,NA,Chicago,IL,,,,
518,NA,Chicago,IL,,,,
519,NA,Chicago,IL,,,,
520,NA,Chicago,IL,,,,
521,NA,Chicago,IL,,,,
522,NA,Chicago,IL,,,,
523,NA,Chicago,IL,,,,
524,7555 W ISHAM AVE,Chicago,IL,60631,,,170310903001
525,7547 W ISHAM AVE,Chicago,IL,60631,,,170310903001
526,7544 W DEVON AVE,Chicago,IL,60631,,,170310903001
527,7540 W DEVON AVE,Chicago,IL,60631,,,170310903001
528,7534 W DEVON AVE,Chicago,IL,60631,,,170310903001
529,7520 W DEVON AVE,Chicago,IL,60631,,,170310903001
530,7514 W DEVON AVE,Chicago,IL,60631,,,170310903001
531,7512 W DEVON AVE,Chicago,IL,60631,,,170310903001
532,7510 W DEVON AVE,Chicago,IL,60631,,,170310903001
533,7441 W ISHAM AVE,Chicago,IL,60631,,,170310903001
534,7437 W ISHAM AVE,Chicago,IL,60631,,,170310903001
535,7422 W DEVON AVE,Chicago,IL,60631,,,170310903001
536,7320 W DEVON AVE,Chicago,IL,60631,,,170310903001
537,7406 W DEVON AVE,Chicago,IL,60631,,,170310903001
538,3116 W JEROME ST,Chicago,IL,60645,,,170310202003
539,3114 W JEROME ST,Chicago,IL,60645,,,170310202003
540,3104 W JEROME ST,Chicago,IL,60645,,,170310202003
541,3117 W HOWARD ST,Chicago,IL,60645,,,170310202003
542,3140 W JEROME ST,Chicago,IL,60645,,,170310202003
543,3034 W JEROME ST,Chicago,IL,60645,,,170310202003
544,3028 W JEROME ST,Chicago,IL,60645,,,170310202003
545,2935 W HOWARD ST,Chicago,IL,60645,,,170310202003
546,2947 W HOWARD ST,Chicago,IL,60645,,,170310202003
547,2917 W HOWARD ST,Chicago,IL,60645,,,170310202003
548,2838 W JEROME ST,Chicago,IL,60645,,,170310202003
549,2832 W JEROME ST,Chicago,IL,60645,,,170310202003
550,2830 W JEROME ST,Chicago,IL,60645,,,170310202003
551,2818 W JEROME ST,Chicago,IL,60645,,,170310202003
552,NA,Chicago,IL,,,,
553,NA,Chicago,IL,,,,
554,3110 W BIRCHWOOD AVE,Chicago,IL,60645,,,170310202003
555,3100 W BIRCHWOOD AVE,Chicago,IL,60645,,,170310202003
556,3047 W JEROME ST,Chicago,IL,60645,,,170310202003
557,3038 W BIRCHWOOD AVE,Chicago,IL,60645,,,170310202003
558,2925 W JEROME ST,Chicago,IL,60645,,,170310202003
559,2937 W JEROME ST,Chicago,IL,60645,,,170310202003
560,2855 W JEROME ST,Chicago,IL,60645,,,170310202003
561,2824 W BIRCHWOOD AVE,Chicago,IL,60645,,,170310202003
562,2818 W BIRCHWOOD AVE,Chicago,IL,60645,,,170310202003
563,3129 W BIRCHWOOD AVE,Chicago,IL,60645,,,170310202003
564,3127 W BIRCHWOOD AVE,Chicago,IL,60645,,,170310202003
565,3117 W BIRCHWOOD AVE,Chicago,IL,60645,,,170310202003
566,3038 W FARGO AVE,Chicago,IL,60645,,,170310202003
567,3010 W FARGO AVE,Chicago,IL,60645,,,170310202003
568,3004 W FARGO AVE,Chicago,IL,60645,,,170310202003
569,2915 W BIRCHWOOD AVE,Chicago,IL,60645,,,170310202003
570,2924 W FARGO AVE,Chicago,IL,60645,,,170310202003
571,2933 W BIRCHWOOD AVE,Chicago,IL,60645,,,170310202003
572,7452 N CALIFORNIA AVE,Chicago,IL,60645,,,170310202003
573,3117 W FARGO AVE,Chicago,IL,60645,,,170310202003
574,3116 W JARVIS AVE,Chicago,IL,60645,,,170310202003
575,3108 W JARVIS AVE,Chicago,IL,60645,,,170310202003
576,3045 W FARGO AVE,Chicago,IL,60645,,,170310202003
577,3017 W FARGO AVE,Chicago,IL,60645,,,170310202003
578,2949 W FARGO AVE,Chicago,IL,60645,,,170310202003
579,2950 W JARVIS AVE,Chicago,IL,60645,,,170310202003
580,2820 W JARVIS AVE,Chicago,IL,60645,,,170310202003
581,3104 W SHERWIN AVE,Chicago,IL,60645,,,170310202001
582,3127 W JARVIS AVE,Chicago,IL,60645,,,170310202001
583,3021 W JARVIS AVE,Chicago,IL,60645,,,170310202001
584,3038 W SHERWIN AVE,Chicago,IL,60645,,,170310202001
585,3010 W SHERWIN AVE,Chicago,IL,60645,,,170310202001
586,2957 W JARVIS AVE,Chicago,IL,60645,,,170310202001
587,2842 W SHERWIN AVE,Chicago,IL,60645,,,170310202001
588,3100 W CHASE AVE,Chicago,IL,60645,,,170310202001
589,3140 W CHASE AVE,Chicago,IL,60645,,,170310202001
590,3005 W SHERWIN AVE,Chicago,IL,60645,,,170310202001
591,2915 W SHERWIN AVE,Chicago,IL,60645,,,170310202001
592,2922 W CHASE AVE,Chicago,IL,60645,,,170310202001
593,2849 W SHERWIN AVE,Chicago,IL,60645,,,170310202001
594,2842 W CHASE AVE,Chicago,IL,60645,,,170310202001
595,2834 W CHASE AVE,Chicago,IL,60645,,,170310202001
596,7324 N CALIFORNIA AVE,Chicago,IL,60645,,,170310202001
597,3123 W CHASE AVE,Chicago,IL,60645,,,170310202001
598,3120 W JARLATH ST,Chicago,IL,60645,,,170310202001
599,3136 W JARLATH ST,Chicago,IL,60645,,,170310202001
600,3045 W CHASE AVE,Chicago,IL,60645,,,170310202001
601,3021 W CHASE AVE,Chicago,IL,60645,,,170310202001
602,3017 W CHASE AVE,Chicago,IL,60645,,,170310202001
603,7234 N SACRAMENTO AVE,Chicago,IL,60645,,,170310202001
604,2953 W CHASE AVE,Chicago,IL,60645,,,170310202001
605,2933 W CHASE AVE,Chicago,IL,60645,,,170310202001
606,2917 W CHASE AVE,Chicago,IL,60645,,,170310202001
607,2924 W JARLATH ST,Chicago,IL,60645,,,170310202001
608,NA,Chicago,IL,,,,
609,NA,Chicago,IL,,,,
610,NA,Chicago,IL,,,,
611,NA,Chicago,IL,,,,
612,NA,Chicago,IL,,,,
613,NA,Chicago,IL,,,,
614,NA,Chicago,IL,,,,
615,NA,Chicago,IL,,,,
616,NA,Chicago,IL,,,,
617,NA,Chicago,IL,,,,
618,NA,Chicago,IL,,,,
619,NA,Chicago,IL,,,,
620,NA,Chicago,IL,,,,
621,2831 W CHASE AVE,Chicago,IL,60645,,,170310202001
622,3027 W JARLATH ST,Chicago,IL,60645,,,170310202001
623,3001 W JARLATH ST,Chicago,IL,60645,,,170310202001
624,2939 W JARLATH ST,Chicago,IL,60645,,,170310202001
625,2922 W TOUHY AVE,Chicago,IL,60645,,,170310202001
626,2748 W JEROME ST,Chicago,IL,60645,,,170310202004
627,2649 W HOWARD ST,Chicago,IL,60645,,,
628,2643 W HOWARD ST,Chicago,IL,60645,,,170310202004
629,2600 W JEROME ST,Chicago,IL,60645,,,170310202004
630,2741 W JEROME ST,Chicago,IL,60645,,,170310202004
631,2730 W BIRCHWOOD AVE,Chicago,IL,60645,,,170310202004
632,7504 N ROCKWELL ST,Chicago,IL,60645,,,170310202004
633,7441 N CALIFORNIA AVE,Chicago,IL,60645,,,170310202004
634,2634 W FARGO AVE,Chicago,IL,60645,,,170310202004
635,2630 W FARGO AVE,Chicago,IL,60645,,,170310202004
636,7442 N ROCKWELL ST,Chicago,IL,60645,,,170310202004
637,7449 N WASHTENAW AVE,Chicago,IL,60645,,,170310202004
638,NA,Chicago,IL,,,,
639,7445 N ROCKWELL ST,Chicago,IL,60645,,,170310202004
640,7440 N CAMPBELL AVE,Chicago,IL,60645,,,170310202004
641,7450 N ARTESIAN AVE,Chicago,IL,60645,,,170310202004
642,7448 N ARTESIAN AVE,Chicago,IL,60645,,,170310202004
643,7401 N CALIFORNIA AVE,Chicago,IL,60645,,,170310202004
644,2720 W JARVIS AVE,Chicago,IL,60645,,,170310202004
645,7408 N WASHTENAW AVE,Chicago,IL,60645,,,170310202004
646,7404 N WASHTENAW AVE,Chicago,IL,60645,,,170310202004
647,7400 N TALMAN AVE,Chicago,IL,60645,,,170310202002
648,7417 N TALMAN AVE,Chicago,IL,60645,,,170310202002
649,NA,Chicago,IL,,,,
650,2549 W FARGO AVE,Chicago,IL,60645,,,170310202002
651,2534 W JARVIS AVE,Chicago,IL,60645,,,170310202002
652,2518 W JARVIS AVE,Chicago,IL,60645,,,170310202002
653,2504 W JARVIS AVE,Chicago,IL,60645,,,170310202002
654,2425 W FARGO AVE,Chicago,IL,60645,,,170310202002
655,2439 W FARGO AVE,Chicago,IL,60645,,,170310202002
656,2418 W JARVIS AVE,Chicago,IL,60645,,,170310202002
657,NA,Chicago,IL,,,,
658,NA,Chicago,IL,,,,
659,7345 N CALIFORNIA AVE,Chicago,IL,60645,,,170310202004
660,7343 N CALIFORNIA AVE,Chicago,IL,60645,,,170310202004
661,2729 W JARVIS AVE,Chicago,IL,60645,,,170310202004
662,2708 W SHERWIN AVE,Chicago,IL,60645,,,170310202004
663,2529 W JARVIS AVE,Chicago,IL,60645,,,170310202002
664,2421 W JARVIS AVE,Chicago,IL,60645,,,170310202002
665,2436 W SHERWIN AVE,Chicago,IL,60645,,,170310202002
666,2428 W SHERWIN AVE,Chicago,IL,60645,,,170310202002
667,2730 W CHASE AVE,Chicago,IL,60645,,,170310202004
668,2700 W CHASE AVE,Chicago,IL,60645,,,170310202004
669,2726 W JARLATH ST,Chicago,IL,60645,,,170310202004
670,2719 W JARLATH ST,Chicago,IL,60645,,,170310202004
671,2726 W TOUHY AVE,Chicago,IL,60645,,,170310202004
672,2709 W JARLATH ST,Chicago,IL,60645,,,170310202004
673,2645 W JARLATH ST,Chicago,IL,60645,,,170310202002
674,2639 W JARLATH ST,Chicago,IL,60645,,,170310202002
675,2635 W JARLATH ST,Chicago,IL,60645,,,170310202002
676,2611 W JARLATH ST,Chicago,IL,60645,,,170310202002
677,7201 N WASHTENAW AVE,Chicago,IL,60645,,,170310202002
678,NA,Chicago,IL,,,,
679,NA,Chicago,IL,,,,
680,NA,Chicago,IL,,,,
681,NA,Chicago,IL,,,,
682,NA,Chicago,IL,,,,
683,NA,Chicago,IL,,,,
684,NA,Chicago,IL,,,,
685,7317 N CAMPBELL AVE,Chicago,IL,60645,,,170310202002
686,7311 N CAMPBELL AVE,Chicago,IL,60645,,,170310202002
687,7247 N CAMPBELL AVE,Chicago,IL,60645,,,170310202002
688,7233 N CAMPBELL AVE,Chicago,IL,60645,,,170310202002
689,7231 N CAMPBELL AVE,Chicago,IL,60645,,,170310202002
690,2551 W HOWARD ST,Chicago,IL,60645,,,170310202004
691,2521 W JEROME ST,Chicago,IL,60645,,,170310202004
692,2508 W BIRCHWOOD AVE,Chicago,IL,60645,,,170310202004
693,7553 N MAPLEWOOD AVE,Chicago,IL,60645,,,170310202004
694,7310 N MEADE AVE,Chicago,IL,60646,,,170311201001
695,7228 N MEADE AVE,Chicago,IL,60646,,,170311201001
696,7224 N MEADE AVE,Chicago,IL,60646,,,170311201001
697,7306 N MCVICKER AVE,Chicago,IL,60646,,,170311201001
698,7274 N MCVICKER AVE,Chicago,IL,60646,,,170311201001
699,6010 W SHERWIN AVE,Chicago,IL,60646,,,170311201001
700,7337 N MCVICKER AVE,Chicago,IL,60646,,,170311201001
701,7307 N MCVICKER AVE,Chicago,IL,60646,,,170311201001
702,7263 N MCVICKER AVE,Chicago,IL,60646,,,170311201001
703,NA,Chicago,IL,,,,
704,NA,Chicago,IL,,,,
705,6519 N NEVA AVE,Chicago,IL,60631,,,170311002006
706,6539 N NEVA AVE,Chicago,IL,60631,,,170311002006
707,6533 N NEVA AVE,Chicago,IL,60631,,,170311002006
708,6543 N NIXON AVE,Chicago,IL,60631,,,170311002006
709,6541 N NIXON AVE,Chicago,IL,60631,,,170311002006
710,6539 N NIXON AVE,Chicago,IL,60631,,,170311002006
711,6527 N NIXON AVE,Chicago,IL,60631,,,170311002006
712,6523 N NIXON AVE,Chicago,IL,60631,,,170311002006
713,6508 N NORDICA AVE,Chicago,IL,60631,,,170311002006
714,6515 N NIXON AVE,Chicago,IL,60631,,,170311002006
715,6518 N SAYRE AVE,Chicago,IL,60631,,,170311002006
716,6545 N NORDICA AVE,Chicago,IL,60631,,,170311002006
717,6508 N SAYRE AVE,Chicago,IL,60631,,,170311002006
718,7100 W ARTHUR AVE,Chicago,IL,60631,,,170311002006
719,6518 N NEVA AVE,Chicago,IL,60631,,,170311002006
720,6508 N NEVA AVE,Chicago,IL,60631,,,170311002006
721,6504 N NEVA AVE,Chicago,IL,60631,,,170311002006
722,6500 N NEVA AVE,Chicago,IL,60631,,,170311002006
723,NA,Chicago,IL,,,,
724,NA,Chicago,IL,,,,
725,NA,Chicago,IL,,,,
726,NA,Chicago,IL,,,,
727,NA,Chicago,IL,,,,
728,NA,Chicago,IL,,,,
729,NA,Chicago,IL,,,,
730,NA,Chicago,IL,,,,
731,NA,Chicago,IL,,,,
732,NA,Chicago,IL,,,,
733,NA,Chicago,IL,,,,
734,NA,Chicago,IL,,,,
735,NA,Chicago,IL,,,,
736,NA,Chicago,IL,,,,
737,6443 N NEVA AVE,Chicago,IL,60631,,,170311002006
738,7038 W DEVON AVE,Chicago,IL,60631,,,170311002006
739,6469 N NORDICA AVE,Chicago,IL,60631,,,170311002006
740,6459 N NORDICA AVE,Chicago,IL,60631,,,170311002006
741,6442 N SAYRE AVE,Chicago,IL,60631,,,170311002006
742,6465 N SAYRE AVE,Chicago,IL,60631,,,170311002006
743,6449 N SAYRE AVE,Chicago,IL,60631,,,170311002006
744,6417 N SAYRE AVE,Chicago,IL,60631,,,170311002006
745,6440 N NEWLAND AVE,Chicago,IL,60631,,,170311002006
746,6491 N NEWLAND AVE,Chicago,IL,60631,,,170311002006
747,6473 N NEWLAND AVE,Chicago,IL,60631,,,170311002006
748,6496 N NEWARK AVE,Chicago,IL,60631,,,170311002006
749,6456 N NEWARK AVE,Chicago,IL,60631,,,170311002006
750,6469 N NEWARK AVE,Chicago,IL,60631,,,170311002007
751,6438 N NEW ENGLAND AVE,Chicago,IL,60631,,,170311002007
752,6428 N NEW ENGLAND AVE,Chicago,IL,60631,,,170311002007
753,6426 N NEW ENGLAND AVE,Chicago,IL,60631,,,170311002007
754,6410 N NEW ENGLAND AVE,Chicago,IL,60631,,,170311002007
755,6435 N NEW ENGLAND AVE,Chicago,IL,60631,,,170311002007
756,6433 N NEW ENGLAND AVE,Chicago,IL,60631,,,170311002007
757,6423 N NEW ENGLAND AVE,Chicago,IL,60631,,,170311002007
758,6417 N NEW ENGLAND AVE,Chicago,IL,60631,,,170311002007
759,6474 N NEWCASTLE AVE,Chicago,IL,60631,,,170311002007
760,7121 W ARTHUR AVE,Chicago,IL,60631,,,170311002006
761,7119 W ARTHUR AVE,Chicago,IL,60631,,,170311002006
762,7116 W SCHREIBER AVE,Chicago,IL,60631,,,170311002006
763,7130 W SCHREIBER AVE,Chicago,IL,60631,,,170311002006
764,7110 W SCHREIBER AVE,Chicago,IL,60631,,,170311002006
765,7119 W SCHREIBER AVE,Chicago,IL,60631,,,170311002006
766,7114 W DEVON AVE,Chicago,IL,60631,,,170311002006
767,7119 W DEVON AVE,Chicago,IL,60631,,,170311002005
768,7109 W DEVON AVE,Chicago,IL,60631,,,170311002005
769,7103 W DEVON AVE,Chicago,IL,60631,,,170311002005
770,6377 N SAYRE AVE,Chicago,IL,60631,,,170311002005
771,6420 N NEWARK AVE,Chicago,IL,60631,,,170311002005
772,6735 W ALBION AVE,Chicago,IL,60631,,,170311002007
773,6522 N OAK PARK AVE,Chicago,IL,60631,,,170311002007
774,6516 N OAK PARK AVE,Chicago,IL,60631,,,170311002007
775,6710 W IMLAY ST,Chicago,IL,60631,,,170311002007
776,6720 W IMLAY ST,Chicago,IL,60631,,,170311002007
777,6660 W HAYES AVE,Chicago,IL,60631,,,170311002001
778,6654 W HAYES AVE,Chicago,IL,60631,,,170311002001
779,6650 W HAYES AVE,Chicago,IL,60631,,,170311002001
780,6669 W HAYES AVE,Chicago,IL,60631,,,170311002001
781,6655 W HAYES AVE,Chicago,IL,60631,,,170311002001
782,6668 W IMLAY ST,Chicago,IL,60631,,,170311002001
783,6664 W IMLAY ST,Chicago,IL,60631,,,170311002001
784,6660 W IMLAY ST,Chicago,IL,60631,,,170311002001
785,6650 W IMLAY ST,Chicago,IL,60631,,,170311002001
786,6621 W ALBION AVE,Chicago,IL,60631,,,170311002001
787,6636 W IMLAY ST,Chicago,IL,60631,,,170311002001
788,6538 N NATOMA AVE,Chicago,IL,60631,,,170311002001
789,6534 N NATOMA AVE,Chicago,IL,60631,,,170311002001
790,6512 N NATOMA AVE,Chicago,IL,60631,,,170311002001
791,6507 N NATOMA AVE,Chicago,IL,60631,,,170311002001
792,6518 N NASHVILLE AVE,Chicago,IL,60631,,,170318106001
793,NA,Chicago,IL,,,,
794,NA,Chicago,IL,,,,
795,NA,Chicago,IL,,,,
796,NA,Chicago,IL,,,,
797,NA,Chicago,IL,,,,
798,NA,Chicago,IL,,,,
799,NA,Chicago,IL,,,,
800,6555 N NATOMA AVE,Chicago,IL,60631,,,170311002001
801,NA,Chicago,IL,,,,
802,NA,Chicago,IL,,,,
803,NA,Chicago,IL,,,,
804,NA,Chicago,IL,,,,
805,NA,Chicago,IL,,,,
806,NA,Chicago,IL,,,,
807,NA,Chicago,IL,,,,
808,NA,Chicago,IL,,,,
809,NA,Chicago,IL,,,,
810,NA,Chicago,IL,,,,
811,6681 W IMLAY ST,Chicago,IL,60631,,,170311002001
812,6671 W IMLAY ST,Chicago,IL,60631,,,170311002001
813,6662 W SCHREIBER AVE,Chicago,IL,60631,,,170311002001
814,6611 W IMLAY ST,Chicago,IL,60631,,,170311002001
815,6605 W IMLAY ST,Chicago,IL,60631,,,170311002001
816,6618 W SCHREIBER AVE,Chicago,IL,60631,,,170311002001
817,6608 W SCHREIBER AVE,Chicago,IL,60631,,,170311002001
818,6631 W IMLAY ST,Chicago,IL,60631,,,170311002001
819,6730 W DEVON AVE,Chicago,IL,60631,,,170311002007
820,6707 W SCHREIBER AVE,Chicago,IL,60631,,,170311002007
821,6669 W SCHREIBER AVE,Chicago,IL,60631,,,170311002001
822,6635 W SCHREIBER AVE,Chicago,IL,60631,,,170311002001
823,6615 W SCHREIBER AVE,Chicago,IL,60631,,,170311002001
824,6609 W SCHREIBER AVE,Chicago,IL,60631,,,170311002001
825,6622 W DEVON AVE,Chicago,IL,60631,,,170311002001
826,6620 W DEVON AVE,Chicago,IL,60631,,,170311002001
827,6616 W DEVON AVE,Chicago,IL,60631,,,170311002001
828,6457 N NATOMA AVE,Chicago,IL,60631,,,170311002001
829,6451 N NATOMA AVE,Chicago,IL,60631,,,170311002001
830,6431 N NATOMA AVE,Chicago,IL,60631,,,170311002001
831,6544 W DEVON AVE,Chicago,IL,60631,,,170311002001
832,6538 W DEVON AVE,Chicago,IL,60631,,,170311002001
833,6452 N MILWAUKEE AVE,Chicago,IL,60631,,,170311002001
834,6518 W DEVON AVE,Chicago,IL,60631,,,170311002001
835,6514 W DEVON AVE,Chicago,IL,60631,,,170311002001
836,NA,Chicago,IL,,,,
837,NA,Chicago,IL,,,,
838,NA,Chicago,IL,,,,
839,NA,Chicago,IL,,,,
840,NA,Chicago,IL,,,,
841,6351 W TOUHY AVE,Chicago,IL,60646,,,170311201004
842,6349 W TOUHY AVE,Chicago,IL,60646,,,170311201004
843,6343 W TOUHY AVE,Chicago,IL,60646,,,170311201004
844,6310 W FITCH AVE,Chicago,IL,60646,,,170311201004
845,6332 W ESTES AVE,Chicago,IL,60646,,,170311201004
846,6324 W ESTES AVE,Chicago,IL,60646,,,170311201004
847,6247 W TOUHY AVE,Chicago,IL,60646,,,170311201004
848,7133 N MOBILE AVE,Chicago,IL,60646,,,170311201004
849,7129 N MOBILE AVE,Chicago,IL,60646,,,170311201004
850,7115 N MOBILE AVE,Chicago,IL,60646,,,170311201004
851,6258 W ESTES AVE,Chicago,IL,60646,,,170311201004
852,7136 N MERRIMAC AVE,Chicago,IL,60646,,,170311201004
853,7114 N MERRIMAC AVE,Chicago,IL,60646,,,170311201004
854,7100 N MERRIMAC AVE,Chicago,IL,60646,,,170311201004
855,7104 N MANKATO AVE,Chicago,IL,60646,,,170311201001
856,7150 N MANKATO AVE,Chicago,IL,60646,,,170311201001
857,7166 N MANKATO AVE,Chicago,IL,60646,,,170311201001
858,7182 N MANKATO AVE,Chicago,IL,60646,,,170311201001
859,6125 W TOUHY AVE,Chicago,IL,60646,,,170311201001
860,6121 W TOUHY AVE,Chicago,IL,60646,,,170311201001
861,7085 N CALDWELL AVE,Chicago,IL,60646,,,170311201004
862,6353 W ESTES AVE,Chicago,IL,60646,,,170311201004
863,6326 W GREENLEAF AVE,Chicago,IL,60646,,,170311201004
864,7055 N MERRIMAC AVE,Chicago,IL,60646,,,170311201004
865,7033 N LEOTI AVE,Chicago,IL,60646,,,170311201004
866,7004 N MCALPIN AVE,Chicago,IL,60646,,,170311201004
867,6904 N MCALPIN AVE,Chicago,IL,60646,,,170311201004
868,7029 N CALDWELL AVE,Chicago,IL,60646,,,170311201004
869,6940 N MCALPIN AVE,Chicago,IL,60646,,,170311201004
870,6950 N MCALPIN AVE,Chicago,IL,60646,,,170311201004
871,7009 N MANKATO AVE,Chicago,IL,60646,,,170311201004
872,6849 N MOSELLE AVE,Chicago,IL,60646,,,170311201004
873,6869 N MOSELLE AVE,Chicago,IL,60646,,,170311201004
874,6805 N MOSELLE AVE,Chicago,IL,60646,,,170311201004
875,6857 N CALDWELL AVE,Chicago,IL,60646,,,170311201004
876,6951 N MCALPIN AVE,Chicago,IL,60646,,,170311201004
877,6940 N MONON AVE,Chicago,IL,60646,,,170311201004
878,7083 N MCALPIN AVE,Chicago,IL,60646,,,170311201001
879,7087 N MCALPIN AVE,Chicago,IL,60646,,,170311201001
880,7029 N HIAWATHA AVE,Chicago,IL,60646,,,170311201001
881,7023 N HIAWATHA AVE,Chicago,IL,60646,,,170311201001
882,7042 N SIOUX AVE,Chicago,IL,60646,,,170311201001
883,7125 N MCALPIN AVE,Chicago,IL,60646,,,170311201001
884,7153 N MCALPIN AVE,Chicago,IL,60646,,,170311201001
885,7060 N MONON AVE,Chicago,IL,60646,,,170311201001
886,6816 N TONTY AVE,Chicago,IL,60646,,,170311201003
887,6827 N MENDOTA AVE,Chicago,IL,60646,,,170311201003
888,6819 N CALDWELL AVE,Chicago,IL,60646,,,170311201003
889,6860 N TONTY AVE,Chicago,IL,60646,,,170311201003
890,6878 N TONTY AVE,Chicago,IL,60646,,,170311201003
891,6886 N TONTY AVE,Chicago,IL,60646,,,170311201003
892,6816 N WILDWOOD AVE,Chicago,IL,60646,,,170311201003
893,7066 N MOSELLE AVE,Chicago,IL,60646,,,170311201001
894,7023 N MONON AVE,Chicago,IL,60646,,,170311201001
895,7041 N MONON AVE,Chicago,IL,60646,,,170311201001
896,7045 N MOSELLE AVE,Chicago,IL,60646,,,170311201001
897,7014 N IONIA AVE,Chicago,IL,60646,,,170311201001
898,7006 N IONIA AVE,Chicago,IL,60646,,,170311201001
899,6918 N MENDOTA AVE,Chicago,IL,60646,,,170311201001
900,6928 N MENDOTA AVE,Chicago,IL,60646,,,170311201001
901,6900 N LEOTI AVE,Chicago,IL,60646,,,170311201004
902,6953 N MONON AVE,Chicago,IL,60646,,,170311201004
903,7030 N HIAWATHA AVE,Chicago,IL,60646,,,170311201004
904,7057 N MANKATO AVE,Chicago,IL,60646,,,170311201004
905,7127 N MELVINA AVE,Chicago,IL,60646,,,170311201004
906,7107 N MELVINA AVE,Chicago,IL,60646,,,170311201004
907,7154 N MOODY AVE,Chicago,IL,60646,,,170311201004
908,7150 N MOODY AVE,Chicago,IL,60646,,,170311201004
909,7143 N MANKATO AVE,Chicago,IL,60646,,,170311201001
910,7132 N MCALPIN AVE,Chicago,IL,60646,,,170311201001
911,7106 N MELVINA AVE,Chicago,IL,60646,,,170311201004
912,7127 N MERRIMAC AVE,Chicago,IL,60646,,,170311201004
913,7142 N MELVINA AVE,Chicago,IL,60646,,,170311201004
914,7130 N MELVINA AVE,Chicago,IL,60646,,,170311201004
915,7126 N MELVINA AVE,Chicago,IL,60646,,,170311201004
916,5918 W FITCH AVE,Chicago,IL,60646,,,170311201001
917,5905 W TOUHY AVE,Chicago,IL,60646,,,170311201001
918,7121 N MASON AVE,Chicago,IL,60646,,,170311201001
919,5816 W GREENLEAF AVE,Chicago,IL,60646,,,170311201001
920,5923 W FITCH AVE,Chicago,IL,60646,,,170311201001
921,7107 N IONIA AVE,Chicago,IL,60646,,,170311201001
922,7062 N MASON AVE,Chicago,IL,60646,,,170311201001
923,7065 N MASON AVE,Chicago,IL,60646,,,170311201001
924,7077 N MASON AVE,Chicago,IL,60646,,,170311201001
925,6984 N TONTY AVE,Chicago,IL,60646,,,170311201001
926,6902 N TONTY AVE,Chicago,IL,60646,,,170311201001
927,6912 N TONTY AVE,Chicago,IL,60646,,,170311201001
928,6944 N TONTY AVE,Chicago,IL,60646,,,170311201001
929,6927 N TONTY AVE,Chicago,IL,60646,,,170311201001
930,6917 N TONTY AVE,Chicago,IL,60646,,,170311201001
931,6860 N WILDWOOD AVE,Chicago,IL,60646,,,170311201001
932,6878 N WILDWOOD AVE,Chicago,IL,60646,,,170311201001
933,6940 N WILDWOOD AVE,Chicago,IL,60646,,,170311201001
934,6930 N WILDWOOD AVE,Chicago,IL,60646,,,170311201001
935,6916 N WILDWOOD AVE,Chicago,IL,60646,,,170311201001
936,6821 N WILDWOOD AVE,Chicago,IL,60646,,,170311201003
937,6869 N WILDWOOD AVE,Chicago,IL,60646,,,170311201001
938,6875 N WILDWOOD AVE,Chicago,IL,60646,,,170311201001
939,6863 N WILDWOOD AVE,Chicago,IL,60646,,,170311201001
940,6800 N JEAN AVE,Chicago,IL,60646,,,170311201001
941,6808 N JEAN AVE,Chicago,IL,60646,,,170311201001
942,6917 N WILDWOOD AVE,Chicago,IL,60646,,,170311201001
943,6872 N LORON AVE,Chicago,IL,60646,,,170311201001
944,6838 N LORON AVE,Chicago,IL,60646,,,170311201001
945,6824 N LOLETA AVE,Chicago,IL,60646,,,170311201002
946,6801 N LORON AVE,Chicago,IL,60646,,,170311201002
947,6833 N TONTY AVE,Chicago,IL,60646,,,170311201003
948,6730 N WILDWOOD AVE,Chicago,IL,60646,,,170311201003
949,6740 N WILDWOOD AVE,Chicago,IL,60646,,,170311201003
950,6704 N WILDWOOD AVE,Chicago,IL,60646,,,170311201003
951,6709 N WILDWOOD AVE,Chicago,IL,60646,,,170311201003
952,6753 N WILDWOOD AVE,Chicago,IL,60646,,,170311201003
953,6767 N WILDWOOD AVE,Chicago,IL,60646,,,170311201003
954,6747 N HIAWATHA AVE,Chicago,IL,60646,,,170311201002
955,6794 N KEOTA AVE,Chicago,IL,60646,,,170311201002
956,6776 N KEOTA AVE,Chicago,IL,60646,,,170311201002
957,6771 N KEOTA AVE,Chicago,IL,60646,,,170311201002
958,6718 N LORON AVE,Chicago,IL,60646,,,170311201002
959,6757 N LOLETA AVE,Chicago,IL,60646,,,170311201002
960,6746 N KEOTA AVE,Chicago,IL,60646,,,170311201002
961,6720 N KEOTA AVE,Chicago,IL,60646,,,170311201002
962,6716 N KEOTA AVE,Chicago,IL,60646,,,170311201002
963,6700 N KEOTA AVE,Chicago,IL,60646,,,170311201002
964,6747 N KEOTA AVE,Chicago,IL,60646,,,170311201002
965,6737 N KEOTA AVE,Chicago,IL,60646,,,170311201002
966,6646 N CHICORA AVE,Chicago,IL,60646,,,170311201002
967,6612 N CHICORA AVE,Chicago,IL,60646,,,170311201002
968,6606 N CHICORA AVE,Chicago,IL,60646,,,170311201002
969,6700 N HIAWATHA AVE,Chicago,IL,60646,,,170311201002
970,6737 N JEAN AVE,Chicago,IL,60646,,,170311201003
971,6618 N LIGHTFOOT AVE,Chicago,IL,60646,,,170311201003
972,6733 N EDGEBROOK TER,Chicago,IL,60646,,,170311201003
973,6701 N EDGEBROOK TER,Chicago,IL,60646,,,170311201003
974,6720 N EDGEBROOK TER,Chicago,IL,60646,,,170311201003
975,6751 N EDGEBROOK TER,Chicago,IL,60646,,,170311201003
976,6615 N LORON AVE,Chicago,IL,60646,,,170311201002
977,6575 N CALDWELL AVE,Chicago,IL,60646,,,170311201002
978,6541 N CALDWELL AVE,Chicago,IL,60646,,,170311201002
979,6500 N CHICORA AVE,Chicago,IL,60646,,,170311201002
980,6535 N CHICORA AVE,Chicago,IL,60646,,,170311201002
981,6507 N CALDWELL AVE,Chicago,IL,60646,,,170311201002
982,6455 N CALDWELL AVE,Chicago,IL,60646,,,170311201002
983,6537 N MINNETONKA AVE,Chicago,IL,60646,,,170311201003
984,6936 N CHICORA AVE,Chicago,IL,60646,,,170311202001
985,6920 N CHICORA AVE,Chicago,IL,60646,,,170311202001
986,6951 N DOWAGIAC AVE,Chicago,IL,60646,,,170311202001
987,6911 N DOWAGIAC AVE,Chicago,IL,60646,,,170311202001
988,6917 N CHICORA AVE,Chicago,IL,60646,,,170311202001
989,6923 N CHICORA AVE,Chicago,IL,60646,,,170311202001
990,6973 N CHICORA AVE,Chicago,IL,60646,,,170311202001
991,6933 N CHICORA AVE,Chicago,IL,60646,,,170311202001
992,6822 N MINNETONKA AVE,Chicago,IL,60646,,,170311202001
993,6821 N WAUKESHA AVE,Chicago,IL,60646,,,170311202001
994,6900 N MINNETONKA AVE,Chicago,IL,60646,,,170311202001
995,6912 N MINNETONKA AVE,Chicago,IL,60646,,,170311202001
996,6939 N WAUKESHA AVE,Chicago,IL,60646,,,170311202001
997,6817 N MINNETONKA AVE,Chicago,IL,60646,,,170311202001
998,6849 N MINNETONKA AVE,Chicago,IL,60646,,,170311202001
999,6907 N MINNETONKA AVE,Chicago,IL,60646,,,170311202001
1000,6923 N MINNETONKA AVE,Chicago,IL,60646,,,170311202001
1001,6912 N ALGONQUIN AVE,Chicago,IL,60646,,,170311202001
1002,6906 N ALGONQUIN AVE,Chicago,IL,60646,,,170311202001
1003,6825 N ALGONQUIN AVE,Chicago,IL,60646,,,170311202001
1004,6838 N CENTRAL AVE,Chicago,IL,60646,,,
1005,6820 N CENTRAL AVE,Chicago,IL,60646,,,
1006,6762 N CENTRAL AVE,Chicago,IL,60646,,,170311202001
1007,6801 N ALGONQUIN AVE,Chicago,IL,60646,,,170311202001
1008,6751 N SAUGANASH AVE,Chicago,IL,60646,,,170311202001
1009,6960 N CENTRAL AVE,Chicago,IL,60646,,,170311202001
1010,6926 N CENTRAL AVE,Chicago,IL,60646,,,170311202001
1011,5538 W LUNT AVE,Chicago,IL,60646,,,170311202001
1012,5462 W LUNT AVE,Chicago,IL,60646,,,170311202001
1013,5454 W LUNT AVE,Chicago,IL,60646,,,170311202001
1014,6966 N DOWAGIAC AVE,Chicago,IL,60646,,,170311202001
1015,6958 N DOWAGIAC AVE,Chicago,IL,60646,,,170311202001
1016,6938 N DOWAGIAC AVE,Chicago,IL,60646,,,170311202001
1017,6922 N DOWAGIAC AVE,Chicago,IL,60646,,,170311202001
1018,6878 N DOWAGIAC AVE,Chicago,IL,60646,,,170311202001
1019,6785 N DOWAGIAC AVE,Chicago,IL,60646,,,170311202001
1020,6753 N DOWAGIAC AVE,Chicago,IL,60646,,,170311202001
1021,6788 N SAUGANASH AVE,Chicago,IL,60646,,,170311202001
1022,6770 N SAUGANASH AVE,Chicago,IL,60646,,,170311202001
1023,6764 N SAUGANASH AVE,Chicago,IL,60646,,,170311202001
1024,6756 N SAUGANASH AVE,Chicago,IL,60646,,,170311202001
1025,6752 N SAUGANASH AVE,Chicago,IL,60646,,,170311202001
1026,6727 N SIOUX AVE,Chicago,IL,60646,,,170311202001
1027,6705 N SIOUX AVE,Chicago,IL,60646,,,170311202001
1028,6772 N DOWAGIAC AVE,Chicago,IL,60646,,,170311202001
1029,6758 N DOWAGIAC AVE,Chicago,IL,60646,,,170311202001
1030,6722 N ALGONQUIN AVE,Chicago,IL,60646,,,170311202001
1031,6711 N IONIA AVE,Chicago,IL,60646,,,170311202001
1032,6715 N DOWAGIAC AVE,Chicago,IL,60646,,,170311202001
1033,6716 N SIOUX AVE,Chicago,IL,60646,,,170311202001
1034,6700 N SIOUX AVE,Chicago,IL,60646,,,170311202001
1035,6748 N IONIA AVE,Chicago,IL,60646,,,170311202001
1036,6714 N IONIA AVE,Chicago,IL,60646,,,170311202001
1037,6691 N SIOUX AVE,Chicago,IL,60646,,,170311202001
1038,6685 N SIOUX AVE,Chicago,IL,60646,,,170311202001
1039,6669 N SIOUX AVE,Chicago,IL,60646,,,170311202001
1040,6636 N ALGONQUIN AVE,Chicago,IL,60646,,,170311202001
1041,6669 N IONIA AVE,Chicago,IL,60646,,,170311202001
1042,6676 N SIOUX AVE,Chicago,IL,60646,,,170311202001
1043,6656 N SIOUX AVE,Chicago,IL,60646,,,170311202001
1044,6633 N HIAWATHA AVE,Chicago,IL,60646,,,170311202001
1045,6621 N HIAWATHA AVE,Chicago,IL,60646,,,170311202001
1046,6603 N HIAWATHA AVE,Chicago,IL,60646,,,170311202001
1047,6615 N SIOUX AVE,Chicago,IL,60646,,,170311202001
1048,6632 N HIAWATHA AVE,Chicago,IL,60646,,,170311202001
1049,6632 N SIOUX AVE,Chicago,IL,60646,,,170311202001
1050,6614 N SIOUX AVE,Chicago,IL,60646,,,170311202001
1051,6586 N HIAWATHA AVE,Chicago,IL,60646,,,170311202001
1052,6553 N TAHOMA AVE,Chicago,IL,60646,,,170311202001
1053,6500 N CENTRAL AVE,Chicago,IL,60646,,,170311202001
1054,6556 N SPOKANE AVE,Chicago,IL,60646,,,170311202002
1055,6552 N SPOKANE AVE,Chicago,IL,60646,,,170311202002
1056,6548 N SPOKANE AVE,Chicago,IL,60646,,,170311202002
1057,6540 N SPOKANE AVE,Chicago,IL,60646,,,170311202002
1058,6467  HIAWATHA,Chicago,IL,60646,,,
1059,6462 N NOKOMIS AVE,Chicago,IL,60646,,,170311202002
1060,6443 N LEOTI AVE,Chicago,IL,60646,,,170311202001
1061,6421 N LEOTI AVE,Chicago,IL,60646,,,170311202001
1062,6417 N LEOTI AVE,Chicago,IL,60646,,,170311202001
1063,6433 N LEOTI AVE,Chicago,IL,60646,,,170311202001
1064,6524 N HIAWATHA AVE,Chicago,IL,60646,,,170311202002
1065,6520 N HIAWATHA AVE,Chicago,IL,60646,,,170311202002
1066,6518 N HIAWATHA AVE,Chicago,IL,60646,,,170311202002
1067,6508 N HIAWATHA AVE,Chicago,IL,60646,,,170311202002
1068,6456 N MINNEHAHA AVE,Chicago,IL,60646,,,170311202002
1069,6429 N TAHOMA AVE,Chicago,IL,60646,,,170311202002
1070,NA,Chicago,IL,,,,
1071,NA,Chicago,IL,,,,
1072,NA,Chicago,IL,,,,
1073,6422 N SPOKANE AVE,Chicago,IL,60646,,,170311202002
1074,6436 N HIAWATHA AVE,Chicago,IL,60646,,,170311202002
1075,6431 N NOKOMIS AVE,Chicago,IL,60646,,,170311202002
1076,6450 N NAVAJO AVE,Chicago,IL,60646,,,170311202002
1077,6804 N DOWAGIAC AVE,Chicago,IL,60646,,,170311202001
1078,6826 N DOWAGIAC AVE,Chicago,IL,60646,,,170311202001
1079,6830 N DOWAGIAC AVE,Chicago,IL,60646,,,170311202001
1080,6428 N LE MAI AVE,Chicago,IL,60646,,,170311202002
1081,6424 N LE MAI AVE,Chicago,IL,60646,,,170311202002
1082,5150 W DEVON AVE,Chicago,IL,60646,,,170311202002
1083,6407 N NAVAJO AVE,Chicago,IL,60646,,,170311202002
1084,6425 N LE MAI AVE,Chicago,IL,60646,,,170311202003
1085,NA,Chicago,IL,,,,
1086,NA,Chicago,IL,,,,
1087,NA,Chicago,IL,,,,
1088,NA,Chicago,IL,,,,
1089,NA,Chicago,IL,,,,
1090,NA,Chicago,IL,,,,
1091,NA,Chicago,IL,,,,
1092,NA,Chicago,IL,,,,
1093,NA,Chicago,IL,,,,
1094,NA,Chicago,IL,,,,
1095,NA,Chicago,IL,,,,
1096,NA,Chicago,IL,,,,
1097,NA,Chicago,IL,,,,
1098,NA,Chicago,IL,,,,
1099,NA,Chicago,IL,,,,
1100,NA,Chicago,IL,,,,
1101,NA,Chicago,IL,,,,
1102,NA,Chicago,IL,,,,
1103,NA,Chicago,IL,,,,
1104,NA,Chicago,IL,,,,
1105,NA,Chicago,IL,,,,
1106,NA,Chicago,IL,,,,
1107,NA,Chicago,IL,,,,
1108,NA,Chicago,IL,,,,
1109,NA,Chicago,IL,,,,
1110,NA,Chicago,IL,,,,
1111,NA,Chicago,IL,,,,
1112,NA,Chicago,IL,,,,
1113,NA,Chicago,IL,,,,
1114,NA,Chicago,IL,,,,
1115,NA,Chicago,IL,,,,
1116,NA,Chicago,IL,,,,
1117,NA,Chicago,IL,,,,
1118,NA,Chicago,IL,,,,
1119,NA,Chicago,IL,,,,
1120,NA,Chicago,IL,,,,
1121,NA,Chicago,IL,,,,
1122,NA,Chicago,IL,,,,
1123,NA,Chicago,IL,,,,
1124,NA,Chicago,IL,,,,
1125,NA,Chicago,IL,,,,
1126,NA,Chicago,IL,,,,
1127,NA,Chicago,IL,,,,
1128,NA,Chicago,IL,,,,
1129,NA,Chicago,IL,,,,
1130,NA,Chicago,IL,,,,
1131,NA,Chicago,IL,,,,
1132,NA,Chicago,IL,,,,
1133,NA,Chicago,IL,,,,
1134,NA,Chicago,IL,,,,
1135,NA,Chicago,IL,,,,
1136,NA,Chicago,IL,,,,
1137,NA,Chicago,IL,,,,
1138,NA,Chicago,IL,,,,
1139,NA,Chicago,IL,,,,
1140,NA,Chicago,IL,,,,
1141,NA,Chicago,IL,,,,
1142,NA,Chicago,IL,,,,
1143,NA,Chicago,IL,,,,
1144,NA,Chicago,IL,,,,
1145,NA,Chicago,IL,,,,
1146,NA,Chicago,IL,,,,
1147,NA,Chicago,IL,,,,
1148,NA,Chicago,IL,,,,
1149,NA,Chicago,IL,,,,
1150,NA,Chicago,IL,,,,
1151,2900 W FITCH AVE,Chicago,IL,60645,,,170310203013
1152,7137 N FRANCISCO AVE,Chicago,IL,60645,,,170310203013
1153,2800 W FITCH AVE,Chicago,IL,60645,,,170310203013
1154,2957 W FITCH AVE,Chicago,IL,60645,,,170310203013
1155,2931 W FITCH AVE,Chicago,IL,60645,,,170310203013
1156,2925 W FITCH AVE,Chicago,IL,60645,,,170310203013
1157,2924 W ESTES AVE,Chicago,IL,60645,,,170310203013
1158,2853 W FITCH AVE,Chicago,IL,60645,,,170310203013
1159,2827 W FITCH AVE,Chicago,IL,60645,,,170310203013
1160,2811 W FITCH AVE,Chicago,IL,60645,,,170310203013
1161,2832 W ESTES AVE,Chicago,IL,60645,,,170310203013
1162,2800 W ESTES AVE,Chicago,IL,60645,,,170310203013
1163,2911 W ESTES AVE,Chicago,IL,60645,,,170310203013
1164,2920 W GREENLEAF AVE,Chicago,IL,60645,,,170310203013
1165,2852 W GREENLEAF AVE,Chicago,IL,60645,,,170310203013
1166,2826 W GREENLEAF AVE,Chicago,IL,60645,,,170310203013
1167,2824 W GREENLEAF AVE,Chicago,IL,60645,,,170310203013
1168,2933 W GREENLEAF AVE,Chicago,IL,60645,,,170310203013
1169,2931 W GREENLEAF AVE,Chicago,IL,60645,,,170310203013
1170,2917 W GREENLEAF AVE,Chicago,IL,60645,,,170310203013
1171,2832 W LUNT AVE,Chicago,IL,60645,,,170310203013
1172,2810 W LUNT AVE,Chicago,IL,60645,,,170310203013
1173,2801 W GREENLEAF AVE,Chicago,IL,60645,,,170310203013
1174,2957 W LUNT AVE,Chicago,IL,60645,,,170310203013
1175,2845 W LUNT AVE,Chicago,IL,60645,,,170310203013
1176,2839 W LUNT AVE,Chicago,IL,60645,,,170310203013
1177,2842 W COYLE AVE,Chicago,IL,60645,,,170310203013
1178,6905 N FRANCISCO AVE,Chicago,IL,60645,,,170310203013
1179,2805 W COYLE AVE,Chicago,IL,60645,,,170310203013
1180,2842 W MORSE AVE,Chicago,IL,60645,,,170310203013
1181,2944 W MORSE AVE,Chicago,IL,60645,,,170310203013
1182,6900 N FRANCISCO AVE,Chicago,IL,60645,,,170310203013
1183,2954 W FARWELL AVE,Chicago,IL,60645,,,170310203013
1184,2921 W FARWELL AVE,Chicago,IL,60645,,,170310203013
1185,2908 W PRATT BLVD,Chicago,IL,60645,,,170310203013
1186,6841 N FRANCISCO AVE,Chicago,IL,60645,,,170310203013
1187,2817 W MORSE AVE,Chicago,IL,60645,,,170310203013
1188,NA,Chicago,IL,,,,
1189,NA,Chicago,IL,,,,
1190,NA,Chicago,IL,,,,
1191,NA,Chicago,IL,,,,
1192,NA,Chicago,IL,,,,
1193,NA,Chicago,IL,,,,
1194,NA,Chicago,IL,,,,
1195,NA,Chicago,IL,,,,
1196,NA,Chicago,IL,,,,
1197,NA,Chicago,IL,,,,
1198,NA,Chicago,IL,,,,
1199,NA,Chicago,IL,,,,
1200,NA,Chicago,IL,,,,
1201,NA,Chicago,IL,,,,
1202,NA,Chicago,IL,,,,
1203,NA,Chicago,IL,,,,
1204,NA,Chicago,IL,,,,
1205,NA,Chicago,IL,,,,
1206,NA,Chicago,IL,,,,
1207,NA,Chicago,IL,,,,
1208,NA,Chicago,IL,,,,
1209,NA,Chicago,IL,,,,
1210,NA,Chicago,IL,,,,
1211,NA,Chicago,IL,,,,
1212,NA,Chicago,IL,,,,
1213,NA,Chicago,IL,,,,
1214,NA,Chicago,IL,,,,
1215,NA,Chicago,IL,,,,
1216,NA,Chicago,IL,,,,
1217,NA,Chicago,IL,,,,
1218,NA,Chicago,IL,,,,
1219,NA,Chicago,IL,,,,
1220,NA,Chicago,IL,,,,
1221,NA,Chicago,IL,,,,
1222,NA,Chicago,IL,,,,
1223,NA,Chicago,IL,,,,
1224,NA,Chicago,IL,,,,
1225,NA,Chicago,IL,,,,
1226,NA,Chicago,IL,,,,
1227,NA,Chicago,IL,,,,
1228,NA,Chicago,IL,,,,
1229,NA,Chicago,IL,,,,
1230,NA,Chicago,IL,,,,
1231,NA,Chicago,IL,,,,
1232,NA,Chicago,IL,,,,
1233,NA,Chicago,IL,,,,
1234,NA,Chicago,IL,,,,
1235,NA,Chicago,IL,,,,
1236,NA,Chicago,IL,,,,
1237,NA,Chicago,IL,,,,
1238,NA,Chicago,IL,,,,
1239,NA,Chicago,IL,,,,
1240,NA,Chicago,IL,,,,
1241,NA,Chicago,IL,,,,
1242,NA,Chicago,IL,,,,
1243,NA,Chicago,IL,,,,
1244,NA,Chicago,IL,,,,
1245,NA,Chicago,IL,,,,
1246,NA,Chicago,IL,,,,
1247,NA,Chicago,IL,,,,
1248,NA,Chicago,IL,,,,
1249,NA,Chicago,IL,,,,
1250,NA,Chicago,IL,,,,
1251,NA,Chicago,IL,,,,
1252,NA,Chicago,IL,,,,
1253,NA,Chicago,IL,,,,
1254,NA,Chicago,IL,,,,
1255,NA,Chicago,IL,,,,
1256,NA,Chicago,IL,,,,
1257,NA,Chicago,IL,,,,
1258,NA,Chicago,IL,,,,
1259,NA,Chicago,IL,,,,
1260,NA,Chicago,IL,,,,
1261,NA,Chicago,IL,,,,
1262,NA,Chicago,IL,,,,
1263,NA,Chicago,IL,,,,
1264,NA,Chicago,IL,,,,
1265,NA,Chicago,IL,,,,
1266,NA,Chicago,IL,,,,
1267,NA,Chicago,IL,,,,
1268,NA,Chicago,IL,,,,
1269,NA,Chicago,IL,,,,
1270,NA,Chicago,IL,,,,
1271,NA,Chicago,IL,,,,
1272,NA,Chicago,IL,,,,
1273,NA,Chicago,IL,,,,
1274,NA,Chicago,IL,,,,
1275,NA,Chicago,IL,,,,
1276,NA,Chicago,IL,,,,
1277,NA,Chicago,IL,,,,
1278,NA,Chicago,IL,,,,
1279,NA,Chicago,IL,,,,
1280,NA,Chicago,IL,,,,
1281,NA,Chicago,IL,,,,
1282,NA,Chicago,IL,,,,
1283,NA,Chicago,IL,,,,
1284,NA,Chicago,IL,,,,
1285,NA,Chicago,IL,,,,
1286,NA,Chicago,IL,,,,
1287,3024 W PRATT BLVD,Chicago,IL,60645,,,170310203012
1288,NA,Chicago,IL,,,,
1289,NA,Chicago,IL,,,,
1290,NA,Chicago,IL,,,,
1291,NA,Chicago,IL,,,,
1292,NA,Chicago,IL,,,,
1293,NA,Chicago,IL,,,,
1294,NA,Chicago,IL,,,,
1295,2512 W FITCH AVE,Chicago,IL,60645,,,170310203023
1296,2458 W FITCH AVE,Chicago,IL,60645,,,170310203023
1297,NA,Chicago,IL,,,,
1298,NA,Chicago,IL,,,,
1299,NA,Chicago,IL,,,,
1300,NA,Chicago,IL,,,,
1301,NA,Chicago,IL,,,,
1302,NA,Chicago,IL,,,,
1303,2420 W FITCH AVE,Chicago,IL,60645,,,170310203023
1304,2755 W FITCH AVE,Chicago,IL,60645,,,170310203021
1305,2714 W ESTES AVE,Chicago,IL,60645,,,170310203021
1306,2711 W FITCH AVE,Chicago,IL,60645,,,170310203021
1307,2750 W ESTES AVE,Chicago,IL,60645,,,170310203021
1308,NA,Chicago,IL,,,,
1309,NA,Chicago,IL,,,,
1310,NA,Chicago,IL,,,,
1311,NA,Chicago,IL,,,,
1312,NA,Chicago,IL,,,,
1313,NA,Chicago,IL,,,,
1314,NA,Chicago,IL,,,,
1315,NA,Chicago,IL,,,,
1316,NA,Chicago,IL,,,,
1317,NA,Chicago,IL,,,,
1318,NA,Chicago,IL,,,,
1319,NA,Chicago,IL,,,,
1320,NA,Chicago,IL,,,,
1321,NA,Chicago,IL,,,,
1322,NA,Chicago,IL,,,,
1323,2735 W ESTES AVE,Chicago,IL,60645,,,170310203021
1324,2734 W GREENLEAF AVE,Chicago,IL,60645,,,170310203021
1325,NA,Chicago,IL,,,,
1326,NA,Chicago,IL,,,,
1327,NA,Chicago,IL,,,,
1328,NA,Chicago,IL,,,,
1329,NA,Chicago,IL,,,,
1330,NA,Chicago,IL,,,,
1331,NA,Chicago,IL,,,,
1332,2652 W GREENLEAF AVE,Chicago,IL,60645,,,170310203021
1333,7040 N ROCKWELL ST,Chicago,IL,60645,,,170310203021
1334,7036 N ROCKWELL ST,Chicago,IL,60645,,,170310203021
1335,7034 N ROCKWELL ST,Chicago,IL,60645,,,170310203021
1336,NA,Chicago,IL,,,,
1337,2741 W GREENLEAF AVE,Chicago,IL,60645,,,170310203022
1338,NA,Chicago,IL,,,,
1339,NA,Chicago,IL,,,,
1340,NA,Chicago,IL,,,,
1341,NA,Chicago,IL,,,,
1342,2642 W LUNT AVE,Chicago,IL,60645,,,170310203022
1343,NA,Chicago,IL,,,,
1344,NA,Chicago,IL,,,,
1345,NA,Chicago,IL,,,,
1346,NA,Chicago,IL,,,,
1347,NA,Chicago,IL,,,,
1348,NA,Chicago,IL,,,,
1349,NA,Chicago,IL,,,,
1350,NA,Chicago,IL,,,,
1351,NA,Chicago,IL,,,,
1352,NA,Chicago,IL,,,,
1353,NA,Chicago,IL,,,,
1354,NA,Chicago,IL,,,,
1355,NA,Chicago,IL,,,,
1356,NA,Chicago,IL,,,,
1357,NA,Chicago,IL,,,,
1358,NA,Chicago,IL,,,,
1359,NA,Chicago,IL,,,,
1360,2734 W COYLE AVE,Chicago,IL,60645,,,170310203022
1361,2706 W COYLE AVE,Chicago,IL,60645,,,170310203022
1362,2656 W COYLE AVE,Chicago,IL,60645,,,170310203022
1363,2646 W COYLE AVE,Chicago,IL,60645,,,170310203022
1364,2612 W COYLE AVE,Chicago,IL,60645,,,170310203022
1365,2517 W LUNT AVE,Chicago,IL,60645,,,170310203023
1366,2501 W LUNT AVE,Chicago,IL,60645,,,170310203023
1367,2524 W COYLE AVE,Chicago,IL,60645,,,170310203023
1368,2455 W LUNT AVE,Chicago,IL,60645,,,170310203023
1369,2424 W COYLE AVE,Chicago,IL,60645,,,170310203023
1370,NA,Chicago,IL,,,,
1371,NA,Chicago,IL,,,,
1372,NA,Chicago,IL,,,,
1373,NA,Chicago,IL,,,,
1374,NA,Chicago,IL,,,,
1375,NA,Chicago,IL,,,,
1376,2743 W COYLE AVE,Chicago,IL,60645,,,170310203022
1377,2657 W COYLE AVE,Chicago,IL,60645,,,170310203023
1378,2648 W MORSE AVE,Chicago,IL,60645,,,170310203023
1379,2614 W MORSE AVE,Chicago,IL,60645,,,170310203023
1380,2545 W COYLE AVE,Chicago,IL,60645,,,170310203023
1381,2541 W COYLE AVE,Chicago,IL,60645,,,170310203023
1382,2511 W COYLE AVE,Chicago,IL,60645,,,170310203023
1383,2449 W COYLE AVE,Chicago,IL,60645,,,170310203023
1384,2725 W MORSE AVE,Chicago,IL,60645,,,170310203022
1385,2750 W FARWELL AVE,Chicago,IL,60645,,,170310203022
1386,2745 W MORSE AVE,Chicago,IL,60645,,,170310203022
1387,2717 W MORSE AVE,Chicago,IL,60645,,,170310203022
1388,2633 W MORSE AVE,Chicago,IL,60645,,,170310203023
1389,2512 W FARWELL AVE,Chicago,IL,60645,,,170310203023
1390,2455 W MORSE AVE,Chicago,IL,60645,,,170310203023
1391,2443 W MORSE AVE,Chicago,IL,60645,,,170310203023
1392,2417 W MORSE AVE,Chicago,IL,60645,,,170310203023
1393,2415 W MORSE AVE,Chicago,IL,60645,,,170310203023
1394,2454 W FARWELL AVE,Chicago,IL,60645,,,170310203023
1395,2442 W FARWELL AVE,Chicago,IL,60645,,,170310203023
1396,2725 W FARWELL AVE,Chicago,IL,60645,,,170310203022
1397,2625 W FARWELL AVE,Chicago,IL,60645,,,170310203023
1398,2640 W PRATT BLVD,Chicago,IL,60645,,,170310203023
1399,6802 N ROCKWELL ST,Chicago,IL,60645,,,170310203023
1400,2654 W PRATT BLVD,Chicago,IL,60645,,,170310203023
1401,2645 W FARWELL AVE,Chicago,IL,60645,,,170310203023
1402,NA,Chicago,IL,,,,
1403,2551 W FARWELL AVE,Chicago,IL,60645,,,170310203023
1404,2547 W FARWELL AVE,Chicago,IL,60645,,,170310203023
1405,2545 W FARWELL AVE,Chicago,IL,60645,,,170310203023
1406,2518 W PRATT BLVD,Chicago,IL,60645,,,170310203023
1407,2447 W FARWELL AVE,Chicago,IL,60645,,,170310203023
1408,2439 W FARWELL AVE,Chicago,IL,60645,,,170310203023
1409,3130 W WALLEN AVE,Chicago,IL,60645,,,170310203012
1410,3154 W WALLEN AVE,Chicago,IL,60645,,,170310203012
1411,2939 W PRATT BLVD,Chicago,IL,60645,,,170310206011
1412,6707 N SACRAMENTO AVE,Chicago,IL,60645,,,170310206011
1413,6742 N RICHMOND ST,Chicago,IL,60645,,,170310206011
1414,6754 N FRANCISCO AVE,Chicago,IL,60645,,,170310206011
1415,6731 N RICHMOND ST,Chicago,IL,60645,,,170310206011
1416,6730 N FRANCISCO AVE,Chicago,IL,60645,,,170310206011
1417,6720 N MOZART ST,Chicago,IL,60645,,,170310206011
1418,2825 W PRATT BLVD,Chicago,IL,60645,,,170310206011
1419,6725 N MOZART ST,Chicago,IL,60645,,,170310206011
1420,6723 N MOZART ST,Chicago,IL,60645,,,170310206011
1421,6641 N WHIPPLE ST,Chicago,IL,60645,,,170310206011
1422,6617 N WHIPPLE ST,Chicago,IL,60645,,,170310206011
1423,6616 N SACRAMENTO AVE,Chicago,IL,60645,,,170310206011
1424,6653 N WHIPPLE ST,Chicago,IL,60645,,,170310206011
1425,6619 N SACRAMENTO AVE,Chicago,IL,60645,,,170310206011
1426,6648 N RICHMOND ST,Chicago,IL,60645,,,170310206011
1427,6605 N SACRAMENTO AVE,Chicago,IL,60645,,,170310206011
1428,6612 N RICHMOND ST,Chicago,IL,60645,,,170310206011
1429,6639 N RICHMOND ST,Chicago,IL,60645,,,170310206011
1430,6633 N RICHMOND ST,Chicago,IL,60645,,,170310206011
1431,6623 N RICHMOND ST,Chicago,IL,60645,,,170310206011
1432,6617 N FRANCISCO AVE,Chicago,IL,60645,,,170310206011
1433,6622 N MOZART ST,Chicago,IL,60645,,,170310206011
1434,6612 N MOZART ST,Chicago,IL,60645,,,170310206011
1435,6635 N MOZART ST,Chicago,IL,60645,,,170310206011
1436,NA,Chicago,IL,,,,
1437,NA,Chicago,IL,,,,
1438,NA,Chicago,IL,,,,
1439,6534 N TROY ST,Chicago,IL,60645,,,170310203012
1440,6547 N KEDZIE AVE,Chicago,IL,60645,,,170310203012
1441,6541 N KEDZIE AVE,Chicago,IL,60645,,,170310203012
1442,6521 N KEDZIE AVE,Chicago,IL,60645,,,170310203012
1443,6534 N ALBANY AVE,Chicago,IL,60645,,,170310203012
1444,6528 N ALBANY AVE,Chicago,IL,60645,,,170310203012
1445,6553 N TROY ST,Chicago,IL,60645,,,170310203012
1446,6537 N TROY ST,Chicago,IL,60645,,,170310203012
1447,3122 W ARTHUR AVE,Chicago,IL,60645,,,170310203012
1448,6544 N ALBANY AVE,Chicago,IL,60645,,,170310203012
1449,6557 N TROY ST,Chicago,IL,60645,,,170310203012
1450,6531 N ALBANY AVE,Chicago,IL,60645,,,170310203012
1451,6522 N SACRAMENTO AVE,Chicago,IL,60645,,,170310206012
1452,6534 N RICHMOND ST,Chicago,IL,60645,,,170310206012
1453,NA,Chicago,IL,,,,
1454,NA,Chicago,IL,,,,
1455,6538 N MOZART ST,Chicago,IL,60645,,,170310206012
1456,6520 N MOZART ST,Chicago,IL,60645,,,170310206012
1457,6559 N FRANCISCO AVE,Chicago,IL,60645,,,170310206012
1458,NA,Chicago,IL,,,,
1459,6549 N MOZART ST,Chicago,IL,60645,,,170310206013
1460,6515 N MOZART ST,Chicago,IL,60645,,,170310206013
1461,NA,Chicago,IL,,,,
1462,NA,Chicago,IL,,,,
1463,NA,Chicago,IL,,,,
1464,NA,Chicago,IL,,,,
1465,NA,Chicago,IL,,,,
1466,6536 N CALIFORNIA AVE,Chicago,IL,60645,,,170310206013
1467,NA,Chicago,IL,,,,
1468,6420 N TROY ST,Chicago,IL,60645,,,170310207021
1469,6416 N TROY ST,Chicago,IL,60645,,,170310207021
1470,6414 N TROY ST,Chicago,IL,60645,,,170310207021
1471,NA,Chicago,IL,,,,
1472,NA,Chicago,IL,,,,
1473,NA,Chicago,IL,,,,
1474,6440 N ALBANY AVE,Chicago,IL,60645,,,170310206012
1475,6445 N TROY ST,Chicago,IL,60645,,,170310206012
1476,NA,Chicago,IL,,,,
1477,NA,Chicago,IL,,,,
1478,NA,Chicago,IL,,,,
1479,6427 N ALBANY AVE,Chicago,IL,60645,,,170310206012
1480,6444 N WHIPPLE ST,Chicago,IL,60645,,,170310206012
1481,6455 N WHIPPLE ST,Chicago,IL,60645,,,170310206012
1482,6419 N WHIPPLE ST,Chicago,IL,60645,,,170310206012
1483,6415 N WHIPPLE ST,Chicago,IL,60645,,,170310206012
1484,6437 N WHIPPLE ST,Chicago,IL,60645,,,170310206012
1485,6435 N WHIPPLE ST,Chicago,IL,60645,,,170310206012
1486,NA,Chicago,IL,,,,
1487,NA,Chicago,IL,,,,
1488,NA,Chicago,IL,,,,
1489,NA,Chicago,IL,,,,
1490,NA,Chicago,IL,,,,
1491,6435 N RICHMOND ST,Chicago,IL,60645,,,170310206012
1492,6438 N FRANCISCO AVE,Chicago,IL,60645,,,170310206012
1493,6424 N FRANCISCO AVE,Chicago,IL,60645,,,170310206012
1494,NA,Chicago,IL,,,,
1495,NA,Chicago,IL,,,,
1496,NA,Chicago,IL,,,,
1497,6431 N FRANCISCO AVE,Chicago,IL,60645,,,170310206012
1498,6428 N MOZART ST,Chicago,IL,60645,,,170310206012
1499,NA,Chicago,IL,,,,
1500,NA,Chicago,IL,,,,
1501,NA,Chicago,IL,,,,
1502,NA,Chicago,IL,,,,
1503,6451 N MOZART ST,Chicago,IL,60645,,,170310206013
1504,6443 N MOZART ST,Chicago,IL,60645,,,170310206013
1505,3124 W COLUMBIA AVE,Chicago,IL,60645,,,170310205003
1506,3124 W NORTH SHORE AVE,Chicago,IL,60645,,,
1507,3100 W NORTH SHORE AVE,Chicago,IL,60645,,,
1508,3129 W NORTH SHORE AVE,Chicago,IL,60645,,,
1509,2735 W PRATT BLVD,Chicago,IL,60645,,,170310206011
1510,6730 N FAIRFIELD AVE,Chicago,IL,60645,,,170310206011
1511,6712 N FAIRFIELD AVE,Chicago,IL,60645,,,170310206011
1512,6755 N WASHTENAW AVE,Chicago,IL,60645,,,170310206024
1513,6739 N WASHTENAW AVE,Chicago,IL,60645,,,170310206024
1514,6738 N TALMAN AVE,Chicago,IL,60645,,,170310206024
1515,2647 W PRATT BLVD,Chicago,IL,60645,,,170310206024
1516,6712 N ROCKWELL ST,Chicago,IL,60645,,,170310206024
1517,2600 W NORTH SHORE AVE,Chicago,IL,60645,,,170310206024
1518,6712 N MAPLEWOOD AVE,Chicago,IL,60645,,,170310206024
1519,6748 N MAPLEWOOD AVE,Chicago,IL,60645,,,170310206024
1520,6730 N CAMPBELL AVE,Chicago,IL,60645,,,170310206021
1521,6759 N MAPLEWOOD AVE,Chicago,IL,60645,,,170310206021
1522,6754 N CAMPBELL AVE,Chicago,IL,60645,,,170310206021
1523,6709 N CAMPBELL AVE,Chicago,IL,60645,,,170310206021
1524,6705 N CAMPBELL AVE,Chicago,IL,60645,,,170310206021
1525,6726 N ARTESIAN AVE,Chicago,IL,60645,,,170310206021
1526,NA,Chicago,IL,,,,
1527,NA,Chicago,IL,,,,
1528,NA,Chicago,IL,,,,
1529,NA,Chicago,IL,,,,
1530,NA,Chicago,IL,,,,
1531,6648 N FAIRFIELD AVE,Chicago,IL,60645,,,170310206011
1532,6628 N FAIRFIELD AVE,Chicago,IL,60645,,,170310206011
1533,6620 N FAIRFIELD AVE,Chicago,IL,60645,,,170310206011
1534,2734 W ALBION AVE,Chicago,IL,60645,,,170310206011
1535,6654 N FAIRFIELD AVE,Chicago,IL,60645,,,170310206011
1536,6625 N FAIRFIELD AVE,Chicago,IL,60645,,,170310206011
1537,6621 N FAIRFIELD AVE,Chicago,IL,60645,,,170310206011
1538,6647 N WASHTENAW AVE,Chicago,IL,60645,,,170310206024
1539,6629 N WASHTENAW AVE,Chicago,IL,60645,,,170310206024
1540,6640 N TALMAN AVE,Chicago,IL,60645,,,170310206024
1541,6625 N TALMAN AVE,Chicago,IL,60645,,,170310206024
1542,6611 N TALMAN AVE,Chicago,IL,60645,,,170310206024
1543,6634 N ROCKWELL ST,Chicago,IL,60645,,,170310206024
1544,6604 N ROCKWELL ST,Chicago,IL,60645,,,170310206024
1545,6649 N ROCKWELL ST,Chicago,IL,60645,,,170310206024
1546,6650 N MAPLEWOOD AVE,Chicago,IL,60645,,,170310206024
1547,6648 N MAPLEWOOD AVE,Chicago,IL,60645,,,170310206024
1548,6640 N MAPLEWOOD AVE,Chicago,IL,60645,,,170310206024
1549,6628 N MAPLEWOOD AVE,Chicago,IL,60645,,,170310206024
1550,NA,Chicago,IL,,,,
1551,6625 N MAPLEWOOD AVE,Chicago,IL,60645,,,170310206021
1552,2503 W NORTH SHORE AVE,Chicago,IL,60645,,,170310206021
1553,6644 N CAMPBELL AVE,Chicago,IL,60645,,,170310206021
1554,6608 N CAMPBELL AVE,Chicago,IL,60645,,,170310206021
1555,6651 N CAMPBELL AVE,Chicago,IL,60645,,,170310206021
1556,6637 N ARTESIAN AVE,Chicago,IL,60645,,,170310206021
1557,6609 N ARTESIAN AVE,Chicago,IL,60645,,,170310206021
1558,6550 N FAIRFIELD AVE,Chicago,IL,60645,,,170310206013
1559,NA,Chicago,IL,,,,
1560,NA,Chicago,IL,,,,
1561,NA,Chicago,IL,,,,
1562,NA,Chicago,IL,,,,
1563,NA,Chicago,IL,,,,
1564,NA,Chicago,IL,,,,
1565,NA,Chicago,IL,,,,
1566,NA,Chicago,IL,,,,
1567,6543 N FAIRFIELD AVE,Chicago,IL,60645,,,170310206013
1568,6511 N FAIRFIELD AVE,Chicago,IL,60645,,,170310206013
1569,6540 N WASHTENAW AVE,Chicago,IL,60645,,,170310206013
1570,6518 N WASHTENAW AVE,Chicago,IL,60645,,,170310206013
1571,2719 W ALBION AVE,Chicago,IL,60645,,,170310206013
1572,NA,Chicago,IL,,,,
1573,NA,Chicago,IL,,,,
1574,6513 N WASHTENAW AVE,Chicago,IL,60645,,,170310206023
1575,6555 N TALMAN AVE,Chicago,IL,60645,,,170310206023
1576,6501 N TALMAN AVE,Chicago,IL,60645,,,170310206023
1577,6544 N ROCKWELL ST,Chicago,IL,60645,,,170310206023
1578,6535 N ROCKWELL ST,Chicago,IL,60645,,,170310206023
1579,6538 N MAPLEWOOD AVE,Chicago,IL,60645,,,170310206023
1580,6537 N MAPLEWOOD AVE,Chicago,IL,60645,,,170310206022
1581,6536 N CAMPBELL AVE,Chicago,IL,60645,,,170310206022
1582,6512 N CAMPBELL AVE,Chicago,IL,60645,,,170310206022
1583,6549 N CAMPBELL AVE,Chicago,IL,60645,,,170310206022
1584,6543 N CAMPBELL AVE,Chicago,IL,60645,,,170310206022
1585,6509 N CAMPBELL AVE,Chicago,IL,60645,,,170310206022
1586,NA,Chicago,IL,,,,
1587,NA,Chicago,IL,,,,
1588,NA,Chicago,IL,,,,
1589,NA,Chicago,IL,,,,
1590,NA,Chicago,IL,,,,
1591,NA,Chicago,IL,,,,
1592,6449 N FAIRFIELD AVE,Chicago,IL,60645,,,170310206013
1593,6443 N FAIRFIELD AVE,Chicago,IL,60645,,,170310206013
1594,6429 N FAIRFIELD AVE,Chicago,IL,60645,,,170310206013
1595,6452 N WASHTENAW AVE,Chicago,IL,60645,,,170310206013
1596,6448 N WASHTENAW AVE,Chicago,IL,60645,,,170310206013
1597,6444 N WASHTENAW AVE,Chicago,IL,60645,,,170310206013
1598,6436 N WASHTENAW AVE,Chicago,IL,60645,,,170310206013
1599,6432 N TALMAN AVE,Chicago,IL,60645,,,170310206023
1600,6423 N TALMAN AVE,Chicago,IL,60645,,,170310206023
1601,6436 N ROCKWELL ST,Chicago,IL,60645,,,170310206023
1602,6432 N ROCKWELL ST,Chicago,IL,60645,,,170310206023
1603,6428 N ROCKWELL ST,Chicago,IL,60645,,,170310206023
1604,6455 N TALMAN AVE,Chicago,IL,60645,,,170310206023
1605,NA,Chicago,IL,,,,
1606,NA,Chicago,IL,,,,
1607,NA,Chicago,IL,,,,
1608,NA,Chicago,IL,,,,
1609,6449 N ROCKWELL ST,Chicago,IL,60645,,,170310206023
1610,6446 N MAPLEWOOD AVE,Chicago,IL,60645,,,170310206023
1611,6438 N MAPLEWOOD AVE,Chicago,IL,60645,,,170310206023
1612,6422 N MAPLEWOOD AVE,Chicago,IL,60645,,,170310206023
1613,NA,Chicago,IL,,,,
1614,NA,Chicago,IL,,,,
1615,NA,Chicago,IL,,,,
1616,NA,Chicago,IL,,,,
1617,6429 N MAPLEWOOD AVE,Chicago,IL,60645,,,170310206022
1618,6438 N CAMPBELL AVE,Chicago,IL,60645,,,170310206022
1619,6426 N CAMPBELL AVE,Chicago,IL,60645,,,170310206022
1620,6420 N CAMPBELL AVE,Chicago,IL,60645,,,170310206022
1621,2453 W ARTHUR AVE,Chicago,IL,60645,,,170310206022
1622,6440 N ARTESIAN AVE,Chicago,IL,60645,,,170310206022
1623,6426 N ARTESIAN AVE,Chicago,IL,60645,,,170310206022
1624,6435 N ARTESIAN AVE,Chicago,IL,60645,,,170310206022
1625,6431 N ARTESIAN AVE,Chicago,IL,60645,,,170310206022
1626,6426 N WESTERN AVE,Chicago,IL,60645,,,170310206022
1627,1432 W JUNEWAY TER,Chicago,IL,60626,,,170310101001
1628,NA,Chicago,IL,,,,
1629,NA,Chicago,IL,,,,
1630,NA,Chicago,IL,,,,
1631,1547 W JUNEWAY TER,Chicago,IL,60626,,,170310101001
1632,1502 W JONQUIL TER,Chicago,IL,60626,,,170310101001
1633,NA,Chicago,IL,,,,
1634,NA,Chicago,IL,,,,
1635,NA,Chicago,IL,,,,
1636,NA,Chicago,IL,,,,
1637,NA,Chicago,IL,,,,
1638,7656 N BOSWORTH AVE,Chicago,IL,60626,,,170310101002
1639,NA,Chicago,IL,,,,
1640,NA,Chicago,IL,,,,
1641,NA,Chicago,IL,,,,
1642,NA,Chicago,IL,,,,
1643,NA,Chicago,IL,,,,
1644,NA,Chicago,IL,,,,
1645,NA,Chicago,IL,,,,
1646,NA,Chicago,IL,,,,
1647,NA,Chicago,IL,,,,
1648,NA,Chicago,IL,,,,
1649,NA,Chicago,IL,,,,
1650,NA,Chicago,IL,,,,
1651,NA,Chicago,IL,,,,
1652,NA,Chicago,IL,,,,
1653,NA,Chicago,IL,,,,
1654,NA,Chicago,IL,,,,
1655,NA,Chicago,IL,,,,
1656,NA,Chicago,IL,,,,
1657,NA,Chicago,IL,,,,
1658,7628 N ROGERS AVE,Chicago,IL,60626,,,170310101003
1659,7622 N ROGERS AVE,Chicago,IL,60626,,,170310101003
1660,NA,Chicago,IL,,,,
1661,NA,Chicago,IL,,,,
1662,NA,Chicago,IL,,,,
1663,NA,Chicago,IL,,,,
1664,NA,Chicago,IL,,,,
1665,NA,Chicago,IL,,,,
1666,NA,Chicago,IL,,,,
1667,NA,Chicago,IL,,,,
1668,NA,Chicago,IL,,,,
1669,NA,Chicago,IL,,,,
1670,NA,Chicago,IL,,,,
1671,NA,Chicago,IL,,,,
1672,NA,Chicago,IL,,,,
1673,NA,Chicago,IL,,,,
1674,NA,Chicago,IL,,,,
1675,NA,Chicago,IL,,,,
1676,NA,Chicago,IL,,,,
1677,NA,Chicago,IL,,,,
1678,NA,Chicago,IL,,,,
1679,NA,Chicago,IL,,,,
1680,NA,Chicago,IL,,,,
1681,NA,Chicago,IL,,,,
1682,NA,Chicago,IL,,,,
1683,1424 W HOWARD ST,Chicago,IL,60626,,,170310101003
1684,NA,Chicago,IL,,,,
1685,7619 N EASTLAKE TER,Chicago,IL,60626,,,170310101003
1686,7617 N EASTLAKE TER,Chicago,IL,60626,,,170310101003
1687,7609 N EASTLAKE TER,Chicago,IL,60626,,,170310101003
1688,NA,Chicago,IL,,,,
1689,NA,Chicago,IL,,,,
1690,NA,Chicago,IL,,,,
1691,NA,Chicago,IL,,,,
1692,NA,Chicago,IL,,,,
1693,NA,Chicago,IL,,,,
1694,NA,Chicago,IL,,,,
1695,NA,Chicago,IL,,,,
1696,NA,Chicago,IL,,,,
1697,NA,Chicago,IL,,,,
1698,NA,Chicago,IL,,,,
1699,NA,Chicago,IL,,,,
1700,7555 N ROGERS AVE,Chicago,IL,60626,,,170310103002
1701,7559 N ROGERS AVE,Chicago,IL,60626,,,170310103002
1702,NA,Chicago,IL,,,,
1703,NA,Chicago,IL,,,,
1704,NA,Chicago,IL,,,,
1705,NA,Chicago,IL,,,,
1706,NA,Chicago,IL,,,,
1707,NA,Chicago,IL,,,,
1708,1437 W HOWARD ST,Chicago,IL,60626,,,170310103002
1709,1444 W BIRCHWOOD AVE,Chicago,IL,60626,,,170310103002
1710,7505 N SHERIDAN RD,Chicago,IL,60626,,,170310103002
1711,7505 N SHERIDAN RD,Chicago,IL,60626,,,170310103002
1712,NA,Chicago,IL,,,,
1713,NA,Chicago,IL,,,,
1714,NA,Chicago,IL,,,,
1715,NA,Chicago,IL,,,,
1716,NA,Chicago,IL,,,,
1717,1304 W BIRCHWOOD AVE,Chicago,IL,60626,,,170310103002
1718,1521 W BIRCHWOOD AVE,Chicago,IL,60626,,,170310103002
1719,NA,Chicago,IL,,,,
1720,NA,Chicago,IL,,,,
1721,NA,Chicago,IL,,,,
1722,NA,Chicago,IL,,,,
1723,NA,Chicago,IL,,,,
1724,NA,Chicago,IL,,,,
1725,NA,Chicago,IL,,,,
1726,NA,Chicago,IL,,,,
1727,NA,Chicago,IL,,,,
1728,NA,Chicago,IL,,,,
1729,NA,Chicago,IL,,,,
1730,NA,Chicago,IL,,,,
1731,NA,Chicago,IL,,,,
1732,NA,Chicago,IL,,,,
1733,NA,Chicago,IL,,,,
1734,NA,Chicago,IL,,,,
1735,NA,Chicago,IL,,,,
1736,NA,Chicago,IL,,,,
1737,NA,Chicago,IL,,,,
1738,NA,Chicago,IL,,,,
1739,NA,Chicago,IL,,,,
1740,NA,Chicago,IL,,,,
1741,1439 W BIRCHWOOD AVE,Chicago,IL,60626,,,170310103002
1742,1419 W BIRCHWOOD AVE,Chicago,IL,60626,,,170310103002
1743,1452 W FARGO AVE,Chicago,IL,60626,,,170310103002
1744,1436 W FARGO AVE,Chicago,IL,60626,,,170310103002
1745,7400 N SHERIDAN RD,Chicago,IL,60626,,,170310103001
1746,NA,Chicago,IL,,,,
1747,NA,Chicago,IL,,,,
1748,NA,Chicago,IL,,,,
1749,NA,Chicago,IL,,,,
1750,NA,Chicago,IL,,,,
1751,NA,Chicago,IL,,,,
1752,NA,Chicago,IL,,,,
1753,NA,Chicago,IL,,,,
1754,NA,Chicago,IL,,,,
1755,NA,Chicago,IL,,,,
1756,NA,Chicago,IL,,,,
1757,NA,Chicago,IL,,,,
1758,7463 N SHERIDAN RD,Chicago,IL,60626,,,170310103002
1759,NA,Chicago,IL,,,,
1760,NA,Chicago,IL,,,,
1761,NA,Chicago,IL,,,,
1762,NA,Chicago,IL,,,,
1763,NA,Chicago,IL,,,,
1764,NA,Chicago,IL,,,,
1765,NA,Chicago,IL,,,,
1766,NA,Chicago,IL,,,,
1767,NA,Chicago,IL,,,,
1768,NA,Chicago,IL,,,,
1769,NA,Chicago,IL,,,,
1770,NA,Chicago,IL,,,,
1771,NA,Chicago,IL,,,,
1772,NA,Chicago,IL,,,,
1773,NA,Chicago,IL,,,,
1774,NA,Chicago,IL,,,,
1775,NA,Chicago,IL,,,,
1776,NA,Chicago,IL,,,,
1777,NA,Chicago,IL,,,,
1778,NA,Chicago,IL,,,,
1779,NA,Chicago,IL,,,,
1780,NA,Chicago,IL,,,,
1781,NA,Chicago,IL,,,,
1782,NA,Chicago,IL,,,,
1783,NA,Chicago,IL,,,,
1784,NA,Chicago,IL,,,,
1785,NA,Chicago,IL,,,,
1786,NA,Chicago,IL,,,,
1787,1449 W FARGO AVE,Chicago,IL,60626,,,170310103004
1788,1419 W FARGO AVE,Chicago,IL,60626,,,170310103004
1789,1404 W JARVIS AVE,Chicago,IL,60626,,,170310103004
1790,7430 N SHERIDAN RD,Chicago,IL,60626,,,170310103001
1791,7418 N SHERIDAN RD,Chicago,IL,60626,,,170310103001
1792,7406 N SHERIDAN RD,Chicago,IL,60626,,,170310103001
1793,NA,Chicago,IL,,,,
1794,NA,Chicago,IL,,,,
1795,NA,Chicago,IL,,,,
1796,NA,Chicago,IL,,,,
1797,NA,Chicago,IL,,,,
1798,NA,Chicago,IL,,,,
1799,NA,Chicago,IL,,,,
1800,NA,Chicago,IL,,,,
1801,NA,Chicago,IL,,,,
1802,NA,Chicago,IL,,,,
1803,NA,Chicago,IL,,,,
1804,NA,Chicago,IL,,,,
1805,NA,Chicago,IL,,,,
1806,NA,Chicago,IL,,,,
1807,NA,Chicago,IL,,,,
1808,NA,Chicago,IL,,,,
1809,NA,Chicago,IL,,,,
1810,NA,Chicago,IL,,,,
1811,NA,Chicago,IL,,,,
1812,NA,Chicago,IL,,,,
1813,NA,Chicago,IL,,,,
1814,NA,Chicago,IL,,,,
1815,NA,Chicago,IL,,,,
1816,NA,Chicago,IL,,,,
1817,NA,Chicago,IL,,,,
1818,NA,Chicago,IL,,,,
1819,NA,Chicago,IL,,,,
1820,NA,Chicago,IL,,,,
1821,NA,Chicago,IL,,,,
1822,NA,Chicago,IL,,,,
1823,NA,Chicago,IL,,,,
1824,NA,Chicago,IL,,,,
1825,NA,Chicago,IL,,,,
1826,NA,Chicago,IL,,,,
1827,NA,Chicago,IL,,,,
1828,NA,Chicago,IL,,,,
1829,NA,Chicago,IL,,,,
1830,NA,Chicago,IL,,,,
1831,NA,Chicago,IL,,,,
1832,NA,Chicago,IL,,,,
1833,NA,Chicago,IL,,,,
1834,NA,Chicago,IL,,,,
1835,NA,Chicago,IL,,,,
1836,NA,Chicago,IL,,,,
1837,NA,Chicago,IL,,,,
1838,1431 W JARVIS AVE,Chicago,IL,60626,,,170310103001
1839,1436 W SHERWIN AVE,Chicago,IL,60626,,,170310103001
1840,NA,Chicago,IL,,,,
1841,NA,Chicago,IL,,,,
1842,NA,Chicago,IL,,,,
1843,NA,Chicago,IL,,,,
1844,NA,Chicago,IL,,,,
1845,NA,Chicago,IL,,,,
1846,NA,Chicago,IL,,,,
1847,1522 W CHASE AVE,Chicago,IL,60626,,,170310103004
1848,NA,Chicago,IL,,,,
1849,NA,Chicago,IL,,,,
1850,NA,Chicago,IL,,,,
1851,NA,Chicago,IL,,,,
1852,NA,Chicago,IL,,,,
1853,NA,Chicago,IL,,,,
1854,NA,Chicago,IL,,,,
1855,NA,Chicago,IL,,,,
1856,NA,Chicago,IL,,,,
1857,NA,Chicago,IL,,,,
1858,NA,Chicago,IL,,,,
1859,NA,Chicago,IL,,,,
1860,NA,Chicago,IL,,,,
1861,NA,Chicago,IL,,,,
1862,NA,Chicago,IL,,,,
1863,NA,Chicago,IL,,,,
1864,NA,Chicago,IL,,,,
1865,NA,Chicago,IL,,,,
1866,NA,Chicago,IL,,,,
1867,NA,Chicago,IL,,,,
1868,NA,Chicago,IL,,,,
1869,1406 W CHASE AVE,Chicago,IL,60626,,,170310103003
1870,1340 W CHASE AVE,Chicago,IL,60626,,,170310103003
1871,NA,Chicago,IL,,,,
1872,NA,Chicago,IL,,,,
1873,NA,Chicago,IL,,,,
1874,NA,Chicago,IL,,,,
1875,NA,Chicago,IL,,,,
1876,NA,Chicago,IL,,,,
1877,NA,Chicago,IL,,,,
1878,NA,Chicago,IL,,,,
1879,NA,Chicago,IL,,,,
1880,NA,Chicago,IL,,,,
1881,NA,Chicago,IL,,,,
1882,NA,Chicago,IL,,,,
1883,NA,Chicago,IL,,,,
1884,NA,Chicago,IL,,,,
1885,NA,Chicago,IL,,,,
1886,NA,Chicago,IL,,,,
1887,NA,Chicago,IL,,,,
1888,NA,Chicago,IL,,,,
1889,NA,Chicago,IL,,,,
1890,NA,Chicago,IL,,,,
1891,NA,Chicago,IL,,,,
1892,NA,Chicago,IL,,,,
1893,NA,Chicago,IL,,,,
1894,NA,Chicago,IL,,,,
1895,NA,Chicago,IL,,,,
1896,NA,Chicago,IL,,,,
1897,NA,Chicago,IL,,,,
1898,NA,Chicago,IL,,,,
1899,NA,Chicago,IL,,,,
1900,NA,Chicago,IL,,,,
1901,NA,Chicago,IL,,,,
1902,NA,Chicago,IL,,,,
1903,NA,Chicago,IL,,,,
1904,NA,Chicago,IL,,,,
1905,NA,Chicago,IL,,,,
1906,NA,Chicago,IL,,,,
1907,NA,Chicago,IL,,,,
1908,NA,Chicago,IL,,,,
1909,NA,Chicago,IL,,,,
1910,NA,Chicago,IL,,,,
1911,NA,Chicago,IL,,,,
1912,NA,Chicago,IL,,,,
1913,NA,Chicago,IL,,,,
1914,1422 W TOUHY AVE,Chicago,IL,60626,,,170310103004
1915,NA,Chicago,IL,,,,
1916,NA,Chicago,IL,,,,
1917,NA,Chicago,IL,,,,
1918,1318 W TOUHY AVE,Chicago,IL,60626,,,170310103003
1919,NA,Chicago,IL,,,,
1920,NA,Chicago,IL,,,,
1921,NA,Chicago,IL,,,,
1922,NA,Chicago,IL,,,,
1923,NA,Chicago,IL,,,,
1924,NA,Chicago,IL,,,,
1925,NA,Chicago,IL,,,,
1926,NA,Chicago,IL,,,,
1927,NA,Chicago,IL,,,,
1928,NA,Chicago,IL,,,,
1929,NA,Chicago,IL,,,,
1930,NA,Chicago,IL,,,,
1931,NA,Chicago,IL,,,,
1932,NA,Chicago,IL,,,,
1933,NA,Chicago,IL,,,,
1934,NA,Chicago,IL,,,,
1935,NA,Chicago,IL,,,,
1936,NA,Chicago,IL,,,,
1937,NA,Chicago,IL,,,,
1938,NA,Chicago,IL,,,,
1939,7732 N MARSHFIELD AVE,Chicago,IL,60626,,,170310101002
1940,NA,Chicago,IL,,,,
1941,7716 N ASHLAND AVE,Chicago,IL,60626,,,170310101002
1942,7708 N ASHLAND AVE,Chicago,IL,60626,,,170310101002
1943,NA,Chicago,IL,,,,
1944,NA,Chicago,IL,,,,
1945,NA,Chicago,IL,,,,
1946,7549 N CLAREMONT AVE,Chicago,IL,60645,,,170310201002
1947,7535 N CLAREMONT AVE,Chicago,IL,60645,,,170310201002
1948,7515 N CLAREMONT AVE,Chicago,IL,60645,,,170310201002
1949,7530 N OAKLEY AVE,Chicago,IL,60645,,,170310201002
1950,7432 N CLAREMONT AVE,Chicago,IL,60645,,,170310201001
1951,NA,Chicago,IL,,,,
1952,7429 N CLAREMONT AVE,Chicago,IL,60645,,,170310201001
1953,NA,Chicago,IL,,,,
1954,NA,Chicago,IL,,,,
1955,NA,Chicago,IL,,,,
1956,NA,Chicago,IL,,,,
1957,NA,Chicago,IL,,,,
1958,NA,Chicago,IL,,,,
1959,NA,Chicago,IL,,,,
1960,7319 N BELL AVE,Chicago,IL,60645,,,170310201001
1961,7521 N BELL AVE,Chicago,IL,60645,,,170310201002
1962,7506 N RIDGE BLVD,Chicago,IL,60645,,,170310201002
1963,7504 N RIDGE BLVD,Chicago,IL,60645,,,170310201002
1964,7502 N RIDGE BLVD,Chicago,IL,60645,,,170310201002
1965,7307 N HAMILTON AVE,Chicago,IL,60645,,,170310201001
1966,NA,Chicago,IL,,,,
1967,NA,Chicago,IL,,,,
1968,NA,Chicago,IL,,,,
1969,NA,Chicago,IL,,,,
1970,NA,Chicago,IL,,,,
1971,NA,Chicago,IL,,,,
1972,NA,Chicago,IL,,,,
1973,NA,Chicago,IL,,,,
1974,NA,Chicago,IL,,,,
1975,NA,Chicago,IL,,,,
1976,NA,Chicago,IL,,,,
1977,NA,Chicago,IL,,,,
1978,NA,Chicago,IL,,,,
1979,NA,Chicago,IL,,,,
1980,NA,Chicago,IL,,,,
1981,NA,Chicago,IL,,,,
1982,NA,Chicago,IL,,,,
1983,NA,Chicago,IL,,,,
1984,NA,Chicago,IL,,,,
1985,NA,Chicago,IL,,,,
1986,NA,Chicago,IL,,,,
1987,NA,Chicago,IL,,,,
1988,NA,Chicago,IL,,,,
1989,NA,Chicago,IL,,,,
1990,NA,Chicago,IL,,,,
1991,NA,Chicago,IL,,,,
1992,NA,Chicago,IL,,,,
1993,NA,Chicago,IL,,,,
1994,NA,Chicago,IL,,,,
1995,NA,Chicago,IL,,,,
1996,NA,Chicago,IL,,,,
1997,NA,Chicago,IL,,,,
1998,NA,Chicago,IL,,,,
1999,2056 W BIRCHWOOD AVE,Chicago,IL,60645,,,170310102013
2000,2044 W BIRCHWOOD AVE,Chicago,IL,60645,,,170310102013
2001,2042 W BIRCHWOOD AVE,Chicago,IL,60645,,,170310102013
2002,2032 W BIRCHWOOD AVE,Chicago,IL,60645,,,170310102013
2003,7527 N SEELEY AVE,Chicago,IL,60645,,,170310102013
2004,7530 N DAMEN AVE,Chicago,IL,60645,,,170310102013
2005,2006 W BIRCHWOOD AVE,Chicago,IL,60645,,,170310102013
2006,NA,Chicago,IL,,,,
2007,7467 N RIDGE BLVD,Chicago,IL,60645,,,170310102013
2008,2111 W BIRCHWOOD AVE,Chicago,IL,60645,,,170310102013
2009,2105 W BIRCHWOOD AVE,Chicago,IL,60645,,,170310102013
2010,NA,Chicago,IL,,,,
2011,NA,Chicago,IL,,,,
2012,NA,Chicago,IL,,,,
2013,NA,Chicago,IL,,,,
2014,NA,Chicago,IL,,,,
2015,NA,Chicago,IL,,,,
2016,NA,Chicago,IL,,,,
2017,NA,Chicago,IL,,,,
2018,NA,Chicago,IL,,,,
2019,NA,Chicago,IL,,,,
2020,NA,Chicago,IL,,,,
2021,NA,Chicago,IL,,,,
2022,NA,Chicago,IL,,,,
2023,NA,Chicago,IL,,,,
2024,NA,Chicago,IL,,,,
2025,NA,Chicago,IL,,,,
2026,NA,Chicago,IL,,,,
2027,NA,Chicago,IL,,,,
2028,NA,Chicago,IL,,,,
2029,NA,Chicago,IL,,,,
2030,NA,Chicago,IL,,,,
2031,NA,Chicago,IL,,,,
2032,NA,Chicago,IL,,,,
2033,NA,Chicago,IL,,,,
2034,NA,Chicago,IL,,,,
2035,NA,Chicago,IL,,,,
2036,NA,Chicago,IL,,,,
2037,NA,Chicago,IL,,,,
2038,NA,Chicago,IL,,,,
2039,NA,Chicago,IL,,,,
2040,NA,Chicago,IL,,,,
2041,NA,Chicago,IL,,,,
2042,NA,Chicago,IL,,,,
2043,NA,Chicago,IL,,,,
2044,NA,Chicago,IL,,,,
2045,NA,Chicago,IL,,,,
2046,NA,Chicago,IL,,,,
2047,NA,Chicago,IL,,,,
2048,NA,Chicago,IL,,,,
2049,NA,Chicago,IL,,,,
2050,NA,Chicago,IL,,,,
2051,NA,Chicago,IL,,,,
2052,NA,Chicago,IL,,,,
2053,7355 N SEELEY AVE,Chicago,IL,60645,,,170310102011
2054,NA,Chicago,IL,,,,
2055,NA,Chicago,IL,,,,
2056,NA,Chicago,IL,,,,
2057,NA,Chicago,IL,,,,
2058,NA,Chicago,IL,,,,
2059,NA,Chicago,IL,,,,
2060,2067 W JARVIS AVE,Chicago,IL,60645,,,170310102011
2061,2061 W JARVIS AVE,Chicago,IL,60645,,,170310102011
2062,2022 W CHASE AVE,Chicago,IL,60645,,,170310102011
2063,NA,Chicago,IL,,,,
2064,NA,Chicago,IL,,,,
2065,NA,Chicago,IL,,,,
2066,7248 N CLAREMONT AVE,Chicago,IL,60645,,,170310201001
2067,NA,Chicago,IL,,,,
2068,NA,Chicago,IL,,,,
2069,NA,Chicago,IL,,,,
2070,NA,Chicago,IL,,,,
2071,NA,Chicago,IL,,,,
2072,NA,Chicago,IL,,,,
2073,NA,Chicago,IL,,,,
2074,NA,Chicago,IL,,,,
2075,NA,Chicago,IL,,,,
2076,7220 N OAKLEY AVE,Chicago,IL,60645,,,170310201001
2077,NA,Chicago,IL,,,,
2078,NA,Chicago,IL,,,,
2079,NA,Chicago,IL,,,,
2080,NA,Chicago,IL,,,,
2081,7242 N BELL AVE,Chicago,IL,60645,,,170310201001
2082,2212 W TOUHY AVE,Chicago,IL,60645,,,170310201001
2083,7214 N BELL AVE,Chicago,IL,60645,,,170310201001
2084,NA,Chicago,IL,,,,
2085,NA,Chicago,IL,,,,
2086,NA,Chicago,IL,,,,
2087,7227 N BELL AVE,Chicago,IL,60645,,,170310201001
2088,NA,Chicago,IL,,,,
2089,7244 N RIDGE BLVD,Chicago,IL,60645,,,170310201001
2090,NA,Chicago,IL,,,,
2091,NA,Chicago,IL,,,,
2092,NA,Chicago,IL,,,,
2093,NA,Chicago,IL,,,,
2094,NA,Chicago,IL,,,,
2095,NA,Chicago,IL,,,,
2096,NA,Chicago,IL,,,,
2097,NA,Chicago,IL,,,,
2098,NA,Chicago,IL,,,,
2099,NA,Chicago,IL,,,,
2100,NA,Chicago,IL,,,,
2101,NA,Chicago,IL,,,,
2102,NA,Chicago,IL,,,,
2103,NA,Chicago,IL,,,,
2104,NA,Chicago,IL,,,,
2105,2055 W CHASE AVE,Chicago,IL,60645,,,170310102011
2106,2041 W CHASE AVE,Chicago,IL,60645,,,170310102011
2107,2025 W CHASE AVE,Chicago,IL,60645,,,170310102011
2108,2023 W CHASE AVE,Chicago,IL,60645,,,170310102011
2109,NA,Chicago,IL,,,,
2110,NA,Chicago,IL,,,,
2111,NA,Chicago,IL,,,,
2112,NA,Chicago,IL,,,,
2113,NA,Chicago,IL,,,,
2114,NA,Chicago,IL,,,,
2115,NA,Chicago,IL,,,,
2116,7206 N ROGERS AVE,Chicago,IL,60645,,,170310102011
2117,2011 W CHASE AVE,Chicago,IL,60645,,,170310102011
2118,7248 N DAMEN AVE,Chicago,IL,60645,,,170310102011
2119,7272 N ROGERS AVE,Chicago,IL,60645,,,170310102011
2120,NA,Chicago,IL,,,,
2121,2032 W TOUHY AVE,Chicago,IL,60645,,,170310102011
2122,2030 W TOUHY AVE,Chicago,IL,60645,,,170310102011
2123,1958 W BIRCHWOOD AVE,Chicago,IL,60626,,,170310102014
2124,7532 N WINCHESTER AVE,Chicago,IL,60626,,,170310102014
2125,NA,Chicago,IL,,,,
2126,NA,Chicago,IL,,,,
2127,NA,Chicago,IL,,,,
2128,NA,Chicago,IL,,,,
2129,NA,Chicago,IL,,,,
2130,NA,Chicago,IL,,,,
2131,NA,Chicago,IL,,,,
2132,NA,Chicago,IL,,,,
2133,NA,Chicago,IL,,,,
2134,7535 N WINCHESTER AVE,Chicago,IL,60626,,,170310102014
2135,NA,Chicago,IL,,,,
2136,NA,Chicago,IL,,,,
2137,NA,Chicago,IL,,,,
2138,1942 W FARGO AVE,Chicago,IL,60626,,,170310102014
2139,1938 W FARGO AVE,Chicago,IL,60626,,,170310102014
2140,NA,Chicago,IL,,,,
2141,NA,Chicago,IL,,,,
2142,NA,Chicago,IL,,,,
2143,7333 N DAMEN AVE,Chicago,IL,60645,,,170310102014
2144,7342 N WINCHESTER AVE,Chicago,IL,60626,,,170310102014
2145,7327 N DAMEN AVE,Chicago,IL,60645,,,170310102014
2146,NA,Chicago,IL,,,,
2147,NA,Chicago,IL,,,,
2148,NA,Chicago,IL,,,,
2149,NA,Chicago,IL,,,,
2150,NA,Chicago,IL,,,,
2151,NA,Chicago,IL,,,,
2152,NA,Chicago,IL,,,,
2153,NA,Chicago,IL,,,,
2154,NA,Chicago,IL,,,,
2155,NA,Chicago,IL,,,,
2156,NA,Chicago,IL,,,,
2157,NA,Chicago,IL,,,,
2158,NA,Chicago,IL,,,,
2159,7355 N WINCHESTER AVE,Chicago,IL,60626,,,170310102012
2160,NA,Chicago,IL,,,,
2161,NA,Chicago,IL,,,,
2162,NA,Chicago,IL,,,,
2163,NA,Chicago,IL,,,,
2164,NA,Chicago,IL,,,,
2165,NA,Chicago,IL,,,,
2166,7424 N PAULINA ST,Chicago,IL,60626,,,170310102021
2167,NA,Chicago,IL,,,,
2168,1648 W JARVIS AVE,Chicago,IL,60626,,,170310102021
2169,NA,Chicago,IL,,,,
2170,NA,Chicago,IL,,,,
2171,NA,Chicago,IL,,,,
2172,NA,Chicago,IL,,,,
2173,NA,Chicago,IL,,,,
2174,NA,Chicago,IL,,,,
2175,NA,Chicago,IL,,,,
2176,NA,Chicago,IL,,,,
2177,NA,Chicago,IL,,,,
2178,NA,Chicago,IL,,,,
2179,1753 W JARVIS AVE,Chicago,IL,60626,,,170310102022
2180,1645 W JARVIS AVE,Chicago,IL,60626,,,170310102022
2181,1614 W SHERWIN AVE,Chicago,IL,60626,,,170310102022
2182,NA,Chicago,IL,,,,
2183,NA,Chicago,IL,,,,
2184,NA,Chicago,IL,,,,
2185,NA,Chicago,IL,,,,
2186,1917 W CHASE AVE,Chicago,IL,60626,,,170310102012
2187,7215 N DAMEN AVE,Chicago,IL,60645,,,170310102012
2188,1934 W TOUHY AVE,Chicago,IL,60626,,,170310102012
2189,7212 N WOLCOTT AVE,Chicago,IL,60626,,,170310102012
2190,7210 N WOLCOTT AVE,Chicago,IL,60626,,,170310102012
2191,NA,Chicago,IL,,,,
2192,NA,Chicago,IL,,,,
2193,NA,Chicago,IL,,,,
2194,NA,Chicago,IL,,,,
2195,NA,Chicago,IL,,,,
2196,NA,Chicago,IL,,,,
2197,NA,Chicago,IL,,,,
2198,NA,Chicago,IL,,,,
2199,NA,Chicago,IL,,,,
2200,NA,Chicago,IL,,,,
2201,1828 W CHASE AVE,Chicago,IL,60626,,,170310102012
2202,7342 N HONORE ST,Chicago,IL,60626,,,170310102012
2203,NA,Chicago,IL,,,,
2204,NA,Chicago,IL,,,,
2205,NA,Chicago,IL,,,,
2206,NA,Chicago,IL,,,,
2207,NA,Chicago,IL,,,,
2208,NA,Chicago,IL,,,,
2209,NA,Chicago,IL,,,,
2210,NA,Chicago,IL,,,,
2211,NA,Chicago,IL,,,,
2212,NA,Chicago,IL,,,,
2213,NA,Chicago,IL,,,,
2214,NA,Chicago,IL,,,,
2215,1815 W CHASE AVE,Chicago,IL,60626,,,170310102012
2216,1811 W CHASE AVE,Chicago,IL,60626,,,170310102012
2217,1830 W TOUHY AVE,Chicago,IL,60626,,,170310102012
2218,1816 W TOUHY AVE,Chicago,IL,60626,,,170310102012
2219,1812 W TOUHY AVE,Chicago,IL,60626,,,170310102012
2220,NA,Chicago,IL,,,,
2221,NA,Chicago,IL,,,,
2222,NA,Chicago,IL,,,,
2223,NA,Chicago,IL,,,,
2224,NA,Chicago,IL,,,,
2225,NA,Chicago,IL,,,,
2226,NA,Chicago,IL,,,,
2227,NA,Chicago,IL,,,,
2228,NA,Chicago,IL,,,,
2229,NA,Chicago,IL,,,,
2230,1716 W CHASE AVE,Chicago,IL,60626,,,170310102022
2231,NA,Chicago,IL,,,,
2232,NA,Chicago,IL,,,,
2233,NA,Chicago,IL,,,,
2234,NA,Chicago,IL,,,,
2235,NA,Chicago,IL,,,,
2236,NA,Chicago,IL,,,,
2237,NA,Chicago,IL,,,,
2238,NA,Chicago,IL,,,,
2239,NA,Chicago,IL,,,,
2240,NA,Chicago,IL,,,,
2241,NA,Chicago,IL,,,,
2242,1745 W CHASE AVE,Chicago,IL,60626,,,170310102022
2243,NA,Chicago,IL,,,,
2244,NA,Chicago,IL,,,,
2245,NA,Chicago,IL,,,,
2246,NA,Chicago,IL,,,,
2247,1642 W TOUHY AVE,Chicago,IL,60626,,,170310102022
2248,1608 W TOUHY AVE,Chicago,IL,60626,,,170310102022
2249,NA,Chicago,IL,,,,
2250,2304 W ESTES AVE,Chicago,IL,60645,,,170310204001
2251,2232 W ESTES AVE,Chicago,IL,60645,,,170310204001
2252,2222 W ESTES AVE,Chicago,IL,60645,,,170310204001
2253,NA,Chicago,IL,,,,
2254,2131 W TOUHY AVE,Chicago,IL,60645,,,170310204001
2255,2119 W TOUHY AVE,Chicago,IL,60645,,,170310204001
2256,2138 W ESTES AVE,Chicago,IL,60645,,,170310204001
2257,2130 W ESTES AVE,Chicago,IL,60645,,,170310204001
2258,7105 N RIDGE BLVD,Chicago,IL,60645,,,170310107012
2259,2025 W TOUHY AVE,Chicago,IL,60645,,,170310107012
2260,2021 W TOUHY AVE,Chicago,IL,60645,,,170310107012
2261,2013 W TOUHY AVE,Chicago,IL,60645,,,170310107012
2262,2012 W ESTES AVE,Chicago,IL,60645,,,170310107012
2263,NA,Chicago,IL,,,,
2264,NA,Chicago,IL,,,,
2265,NA,Chicago,IL,,,,
2266,NA,Chicago,IL,,,,
2267,NA,Chicago,IL,,,,
2268,2311 W ESTES AVE,Chicago,IL,60645,,,170310204001
2269,2245 W ESTES AVE,Chicago,IL,60645,,,170310204001
2270,2211 W ESTES AVE,Chicago,IL,60645,,,170310204001
2271,2201 W ESTES AVE,Chicago,IL,60645,,,170310204001
2272,2206 W GREENLEAF AVE,Chicago,IL,60645,,,170310204001
2273,2208 W GREENLEAF AVE,Chicago,IL,60645,,,170310204001
2274,2086 W GREENLEAF AVE,Chicago,IL,60645,,,170310204001
2275,2037 W ESTES AVE,Chicago,IL,60645,,,170310107012
2276,NA,Chicago,IL,,,,
2277,NA,Chicago,IL,,,,
2278,NA,Chicago,IL,,,,
2279,NA,Chicago,IL,,,,
2280,NA,Chicago,IL,,,,
2281,NA,Chicago,IL,,,,
2282,NA,Chicago,IL,,,,
2283,NA,Chicago,IL,,,,
2284,NA,Chicago,IL,,,,
2285,NA,Chicago,IL,,,,
2286,2226 W LUNT AVE,Chicago,IL,60645,,,170310204002
2287,2145 W GREENLEAF AVE,Chicago,IL,60645,,,170310204002
2288,2141 W GREENLEAF AVE,Chicago,IL,60645,,,170310204002
2289,2125 W GREENLEAF AVE,Chicago,IL,60645,,,170310204002
2290,7027 N RIDGE BLVD,Chicago,IL,60645,,,170310107012
2291,2001 W GREENLEAF AVE,Chicago,IL,60645,,,170310107012
2292,2000 W LUNT AVE,Chicago,IL,60645,,,170310107012
2293,NA,Chicago,IL,,,,
2294,NA,Chicago,IL,,,,
2295,NA,Chicago,IL,,,,
2296,NA,Chicago,IL,,,,
2297,NA,Chicago,IL,,,,
2298,NA,Chicago,IL,,,,
2299,6957 N WESTERN AVE,Chicago,IL,60645,,,170310204002
2300,6957 N WESTERN AVE,Chicago,IL,60645,,,170310204002
2301,6951 N WESTERN AVE,Chicago,IL,60645,,,170310204002
2302,6951 N WESTERN AVE,Chicago,IL,60645,,,170310204002
2303,2334 W MORSE AVE,Chicago,IL,60645,,,170310204002
2304,2249 W LUNT AVE,Chicago,IL,60645,,,170310204002
2305,NA,Chicago,IL,,,,
2306,NA,Chicago,IL,,,,
2307,NA,Chicago,IL,,,,
2308,NA,Chicago,IL,,,,
2309,NA,Chicago,IL,,,,
2310,NA,Chicago,IL,,,,
2311,NA,Chicago,IL,,,,
2312,NA,Chicago,IL,,,,
2313,NA,Chicago,IL,,,,
2314,NA,Chicago,IL,,,,
2315,2133 W LUNT AVE,Chicago,IL,60645,,,170310204002
2316,2128 W MORSE AVE,Chicago,IL,60645,,,170310204002
2317,6966 N HAMILTON AVE,Chicago,IL,60645,,,170310204002
2318,6966 N HAMILTON AVE,Chicago,IL,60645,,,170310204002
2319,NA,Chicago,IL,,,,
2320,6947 N HAMILTON AVE,Chicago,IL,60645,,,170310204002
2321,2036 W MORSE AVE,Chicago,IL,60645,,,170310204002
2322,NA,Chicago,IL,,,,
2323,NA,Chicago,IL,,,,
2324,NA,Chicago,IL,,,,
2325,NA,Chicago,IL,,,,
2326,NA,Chicago,IL,,,,
2327,NA,Chicago,IL,,,,
2328,NA,Chicago,IL,,,,
2329,NA,Chicago,IL,,,,
2330,NA,Chicago,IL,,,,
2331,NA,Chicago,IL,,,,
2332,NA,Chicago,IL,,,,
2333,NA,Chicago,IL,,,,
2334,NA,Chicago,IL,,,,
2335,NA,Chicago,IL,,,,
2336,NA,Chicago,IL,,,,
2337,NA,Chicago,IL,,,,
2338,NA,Chicago,IL,,,,
2339,NA,Chicago,IL,,,,
2340,NA,Chicago,IL,,,,
2341,NA,Chicago,IL,,,,
2342,2149 W MORSE AVE,Chicago,IL,60645,,,170310204003
2343,2107 W MORSE AVE,Chicago,IL,60645,,,170310204003
2344,NA,Chicago,IL,,,,
2345,NA,Chicago,IL,,,,
2346,6900 N RIDGE BLVD,Chicago,IL,60645,,,170310204003
2347,2004 W FARWELL AVE,Chicago,IL,60645,,,170310204003
2348,2006 W FARWELL AVE,Chicago,IL,60645,,,170310204003
2349,NA,Chicago,IL,,,,
2350,NA,Chicago,IL,,,,
2351,2328 W PRATT BLVD,Chicago,IL,60645,,,170310204003
2352,NA,Chicago,IL,,,,
2353,NA,Chicago,IL,,,,
2354,NA,Chicago,IL,,,,
2355,NA,Chicago,IL,,,,
2356,NA,Chicago,IL,,,,
2357,NA,Chicago,IL,,,,
2358,NA,Chicago,IL,,,,
2359,2208 W PRATT BLVD,Chicago,IL,60645,,,170310204003
2360,NA,Chicago,IL,,,,
2361,NA,Chicago,IL,,,,
2362,NA,Chicago,IL,,,,
2363,NA,Chicago,IL,,,,
2364,NA,Chicago,IL,,,,
2365,NA,Chicago,IL,,,,
2366,NA,Chicago,IL,,,,
2367,NA,Chicago,IL,,,,
2368,NA,Chicago,IL,,,,
2369,NA,Chicago,IL,,,,
2370,NA,Chicago,IL,,,,
2371,NA,Chicago,IL,,,,
2372,2201 W FARWELL AVE,Chicago,IL,60645,,,170310204003
2373,2130 W PRATT BLVD,Chicago,IL,60645,,,170310204003
2374,2048 W PRATT BLVD,Chicago,IL,60645,,,170310204003
2375,NA,Chicago,IL,,,,
2376,NA,Chicago,IL,,,,
2377,NA,Chicago,IL,,,,
2378,NA,Chicago,IL,,,,
2379,NA,Chicago,IL,,,,
2380,NA,Chicago,IL,,,,
2381,NA,Chicago,IL,,,,
2382,6801 N SEELEY AVE,Chicago,IL,60645,,,170310204003
2383,NA,Chicago,IL,,,,
2384,NA,Chicago,IL,,,,
2385,NA,Chicago,IL,,,,
2386,NA,Chicago,IL,,,,
2387,NA,Chicago,IL,,,,
2388,NA,Chicago,IL,,,,
2389,NA,Chicago,IL,,,,
2390,NA,Chicago,IL,,,,
2391,NA,Chicago,IL,,,,
2392,NA,Chicago,IL,,,,
2393,1929 W TOUHY AVE,Chicago,IL,60626,,,170310107012
2394,1921 W TOUHY AVE,Chicago,IL,60626,,,170310107012
2395,NA,Chicago,IL,,,,
2396,NA,Chicago,IL,,,,
2397,NA,Chicago,IL,,,,
2398,NA,Chicago,IL,,,,
2399,NA,Chicago,IL,,,,
2400,NA,Chicago,IL,,,,
2401,NA,Chicago,IL,,,,
2402,NA,Chicago,IL,,,,
2403,NA,Chicago,IL,,,,
2404,NA,Chicago,IL,,,,
2405,NA,Chicago,IL,,,,
2406,NA,Chicago,IL,,,,
2407,NA,Chicago,IL,,,,
2408,NA,Chicago,IL,,,,
2409,NA,Chicago,IL,,,,
2410,NA,Chicago,IL,,,,
2411,NA,Chicago,IL,,,,
2412,NA,Chicago,IL,,,,
2413,NA,Chicago,IL,,,,
2414,NA,Chicago,IL,,,,
2415,1611 W TOUHY AVE,Chicago,IL,60626,,,170310107024
2416,1607 W TOUHY AVE,Chicago,IL,60626,,,170310107024
2417,7124 N ASHLAND AVE,Chicago,IL,0,,,170310107024
2418,NA,Chicago,IL,,,,
2419,NA,Chicago,IL,,,,
2420,NA,Chicago,IL,,,,
2421,NA,Chicago,IL,,,,
2422,NA,Chicago,IL,,,,
2423,NA,Chicago,IL,,,,
2424,NA,Chicago,IL,,,,
2425,1937 W ESTES AVE,Chicago,IL,60626,,,170310107012
2426,1909 W ESTES AVE,Chicago,IL,60626,,,170310107012
2427,1910 W GREENLEAF AVE,Chicago,IL,60626,,,170310107012
2428,NA,Chicago,IL,,,,
2429,NA,Chicago,IL,,,,
2430,NA,Chicago,IL,,,,
2431,NA,Chicago,IL,,,,
2432,NA,Chicago,IL,,,,
2433,NA,Chicago,IL,,,,
2434,NA,Chicago,IL,,,,
2435,NA,Chicago,IL,,,,
2436,NA,Chicago,IL,,,,
2437,NA,Chicago,IL,,,,
2438,NA,Chicago,IL,,,,
2439,NA,Chicago,IL,,,,
2440,NA,Chicago,IL,,,,
2441,1839 W ESTES AVE,Chicago,IL,60626,,,170310107012
2442,1811 W ESTES AVE,Chicago,IL,60626,,,170310107012
2443,7046 N CLARK ST,Chicago,IL,60626,,,170310107021
2444,7044 N CLARK ST,Chicago,IL,60626,,,170310107021
2445,1733 W ESTES AVE,Chicago,IL,60626,,,170310107021
2446,NA,Chicago,IL,,,,
2447,7075 N PAULINA ST,Chicago,IL,60626,,,170310107021
2448,1623 W ESTES AVE,Chicago,IL,60626,,,170310107021
2449,NA,Chicago,IL,,,,
2450,NA,Chicago,IL,,,,
2451,NA,Chicago,IL,,,,
2452,NA,Chicago,IL,,,,
2453,NA,Chicago,IL,,,,
2454,NA,Chicago,IL,,,,
2455,NA,Chicago,IL,,,,
2456,NA,Chicago,IL,,,,
2457,NA,Chicago,IL,,,,
2458,NA,Chicago,IL,,,,
2459,NA,Chicago,IL,,,,
2460,NA,Chicago,IL,,,,
2461,NA,Chicago,IL,,,,
2462,NA,Chicago,IL,,,,
2463,NA,Chicago,IL,,,,
2464,NA,Chicago,IL,,,,
2465,NA,Chicago,IL,,,,
2466,NA,Chicago,IL,,,,
2467,NA,Chicago,IL,,,,
2468,NA,Chicago,IL,,,,
2469,NA,Chicago,IL,,,,
2470,NA,Chicago,IL,,,,
2471,NA,Chicago,IL,,,,
2472,NA,Chicago,IL,,,,
2473,NA,Chicago,IL,,,,
2474,1845 W GREENLEAF AVE,Chicago,IL,60626,,,170310107012
2475,1835 W GREENLEAF AVE,Chicago,IL,60626,,,170310107012
2476,1833 W GREENLEAF AVE,Chicago,IL,60626,,,170310107012
2477,1813 W GREENLEAF AVE,Chicago,IL,60626,,,170310107012
2478,1791 W GREENLEAF AVE,Chicago,IL,60626,,,170310107012
2479,NA,Chicago,IL,,,,
2480,NA,Chicago,IL,,,,
2481,NA,Chicago,IL,,,,
2482,NA,Chicago,IL,,,,
2483,NA,Chicago,IL,,,,
2484,NA,Chicago,IL,,,,
2485,NA,Chicago,IL,,,,
2486,NA,Chicago,IL,,,,
2487,NA,Chicago,IL,,,,
2488,NA,Chicago,IL,,,,
2489,NA,Chicago,IL,,,,
2490,NA,Chicago,IL,,,,
2491,NA,Chicago,IL,,,,
2492,NA,Chicago,IL,,,,
2493,NA,Chicago,IL,,,,
2494,NA,Chicago,IL,,,,
2495,NA,Chicago,IL,,,,
2496,NA,Chicago,IL,,,,
2497,NA,Chicago,IL,,,,
2498,1624 W LUNT AVE,Chicago,IL,60626,,,170310107021
2499,1620 W LUNT AVE,Chicago,IL,60626,,,170310107021
2500,1615 W GREENLEAF AVE,Chicago,IL,60626,,,170310107021
2501,NA,Chicago,IL,,,,
2502,NA,Chicago,IL,,,,
2503,NA,Chicago,IL,,,,
2504,NA,Chicago,IL,,,,
2505,NA,Chicago,IL,,,,
2506,NA,Chicago,IL,,,,
2507,NA,Chicago,IL,,,,
2508,NA,Chicago,IL,,,,
2509,NA,Chicago,IL,,,,
2510,NA,Chicago,IL,,,,
2511,NA,Chicago,IL,,,,
2512,6975 N RIDGE BLVD,Chicago,IL,60645,,,170310107011
2513,2011 W LUNT AVE,Chicago,IL,60645,,,170310107011
2514,6951 N RIDGE BLVD,Chicago,IL,60645,,,170310107011
2515,NA,Chicago,IL,,,,
2516,NA,Chicago,IL,,,,
2517,NA,Chicago,IL,,,,
2518,NA,Chicago,IL,,,,
2519,NA,Chicago,IL,,,,
2520,1848 W MORSE AVE,Chicago,IL,60626,,,170310107011
2521,NA,Chicago,IL,,,,
2522,NA,Chicago,IL,,,,
2523,NA,Chicago,IL,,,,
2524,NA,Chicago,IL,,,,
2525,NA,Chicago,IL,,,,
2526,NA,Chicago,IL,,,,
2527,NA,Chicago,IL,,,,
2528,NA,Chicago,IL,,,,
2529,6950 N ASHLAND AVE,Chicago,IL,0,,,170310107022
2530,NA,Chicago,IL,,,,
2531,NA,Chicago,IL,,,,
2532,NA,Chicago,IL,,,,
2533,NA,Chicago,IL,,,,
2534,NA,Chicago,IL,,,,
2535,NA,Chicago,IL,,,,
2536,NA,Chicago,IL,,,,
2537,NA,Chicago,IL,,,,
2538,NA,Chicago,IL,,,,
2539,NA,Chicago,IL,,,,
2540,1927 W MORSE AVE,Chicago,IL,60626,,,170310107011
2541,1946 W FARWELL AVE,Chicago,IL,60626,,,170310107011
2542,1940 W FARWELL AVE,Chicago,IL,60626,,,170310107011
2543,1847 W MORSE AVE,Chicago,IL,60626,,,170310107011
2544,1773 W MORSE AVE,Chicago,IL,60626,,,170310107022
2545,1744 W FARWELL AVE,Chicago,IL,60626,,,170310107023
2546,NA,Chicago,IL,,,,
2547,NA,Chicago,IL,,,,
2548,NA,Chicago,IL,,,,
2549,NA,Chicago,IL,,,,
2550,NA,Chicago,IL,,,,
2551,NA,Chicago,IL,,,,
2552,1625 W MORSE AVE,Chicago,IL,60626,,,170310107022
2553,NA,Chicago,IL,,,,
2554,NA,Chicago,IL,,,,
2555,NA,Chicago,IL,,,,
2556,NA,Chicago,IL,,,,
2557,NA,Chicago,IL,,,,
2558,NA,Chicago,IL,,,,
2559,NA,Chicago,IL,,,,
2560,NA,Chicago,IL,,,,
2561,NA,Chicago,IL,,,,
2562,NA,Chicago,IL,,,,
2563,NA,Chicago,IL,,,,
2564,1911 W FARWELL AVE,Chicago,IL,60626,,,170310107011
2565,NA,Chicago,IL,,,,
2566,NA,Chicago,IL,,,,
2567,1846 W PRATT BLVD,Chicago,IL,60626,,,170310107011
2568,1838 W PRATT BLVD,Chicago,IL,60626,,,170310107011
2569,6815 N WOLCOTT AVE,Chicago,IL,60626,,,170310107011
2570,1743 W FARWELL AVE,Chicago,IL,60626,,,170310107023
2571,6821 N RAVENSWOOD AVE,Chicago,IL,60626,,,170310107023
2572,1750 W PRATT BLVD,Chicago,IL,60626,,,170310107023
2573,1739 W FARWELL AVE,Chicago,IL,60626,,,170310107023
2574,1733 W FARWELL AVE,Chicago,IL,60626,,,170310107023
2575,NA,Chicago,IL,,,,
2576,NA,Chicago,IL,,,,
2577,NA,Chicago,IL,,,,
2578,NA,Chicago,IL,,,,
2579,NA,Chicago,IL,,,,
2580,NA,Chicago,IL,,,,
2581,NA,Chicago,IL,,,,
2582,NA,Chicago,IL,,,,
2583,NA,Chicago,IL,,,,
2584,NA,Chicago,IL,,,,
2585,NA,Chicago,IL,,,,
2586,NA,Chicago,IL,,,,
2587,NA,Chicago,IL,,,,
2588,NA,Chicago,IL,,,,
2589,NA,Chicago,IL,,,,
2590,NA,Chicago,IL,,,,
2591,NA,Chicago,IL,,,,
2592,NA,Chicago,IL,,,,
2593,NA,Chicago,IL,,,,
2594,NA,Chicago,IL,,,,
2595,NA,Chicago,IL,,,,
2596,NA,Chicago,IL,,,,
2597,NA,Chicago,IL,,,,
2598,NA,Chicago,IL,,,,
2599,NA,Chicago,IL,,,,
2600,NA,Chicago,IL,,,,
2601,NA,Chicago,IL,,,,
2602,NA,Chicago,IL,,,,
2603,NA,Chicago,IL,,,,
2604,NA,Chicago,IL,,,,
2605,NA,Chicago,IL,,,,
2606,NA,Chicago,IL,,,,
2607,NA,Chicago,IL,,,,
2608,NA,Chicago,IL,,,,
2609,NA,Chicago,IL,,,,
2610,NA,Chicago,IL,,,,
2611,NA,Chicago,IL,,,,
2612,NA,Chicago,IL,,,,
2613,NA,Chicago,IL,,,,
2614,NA,Chicago,IL,,,,
2615,NA,Chicago,IL,,,,
2616,NA,Chicago,IL,,,,
2617,NA,Chicago,IL,,,,
2618,NA,Chicago,IL,,,,
2619,NA,Chicago,IL,,,,
2620,NA,Chicago,IL,,,,
2621,NA,Chicago,IL,,,,
2622,6547 N SEELEY AVE,Chicago,IL,60645,,,170310205003
2623,NA,Chicago,IL,,,,
2624,NA,Chicago,IL,,,,
2625,NA,Chicago,IL,,,,
2626,NA,Chicago,IL,,,,
2627,NA,Chicago,IL,,,,
2628,NA,Chicago,IL,,,,
2629,NA,Chicago,IL,,,,
2630,NA,Chicago,IL,,,,
2631,NA,Chicago,IL,,,,
2632,NA,Chicago,IL,,,,
2633,NA,Chicago,IL,,,,
2634,2316 W ARTHUR AVE,Chicago,IL,60645,,,170310205002
2635,2310 W ARTHUR AVE,Chicago,IL,60645,,,170310205002
2636,NA,Chicago,IL,,,,
2637,NA,Chicago,IL,,,,
2638,NA,Chicago,IL,,,,
2639,NA,Chicago,IL,,,,
2640,NA,Chicago,IL,,,,
2641,NA,Chicago,IL,,,,
2642,NA,Chicago,IL,,,,
2643,NA,Chicago,IL,,,,
2644,NA,Chicago,IL,,,,
2645,NA,Chicago,IL,,,,
2646,NA,Chicago,IL,,,,
2647,NA,Chicago,IL,,,,
2648,6430 N CLAREMONT AVE,Chicago,IL,60645,,,170310205002
2649,NA,Chicago,IL,,,,
2650,NA,Chicago,IL,,,,
2651,NA,Chicago,IL,,,,
2652,NA,Chicago,IL,,,,
2653,NA,Chicago,IL,,,,
2654,NA,Chicago,IL,,,,
2655,NA,Chicago,IL,,,,
2656,NA,Chicago,IL,,,,
2657,NA,Chicago,IL,,,,
2658,NA,Chicago,IL,,,,
2659,6425 N CLAREMONT AVE,Chicago,IL,60645,,,170310205002
2660,6421 N CLAREMONT AVE,Chicago,IL,60645,,,170310205002
2661,6424 N OAKLEY AVE,Chicago,IL,60645,,,170310205002
2662,6412 N OAKLEY AVE,Chicago,IL,60645,,,170310205002
2663,NA,Chicago,IL,,,,
2664,NA,Chicago,IL,,,,
2665,NA,Chicago,IL,,,,
2666,NA,Chicago,IL,,,,
2667,NA,Chicago,IL,,,,
2668,NA,Chicago,IL,,,,
2669,NA,Chicago,IL,,,,
2670,NA,Chicago,IL,,,,
2671,NA,Chicago,IL,,,,
2672,2219 W ARTHUR AVE,Chicago,IL,60645,,,170310205004
2673,6419 N BELL AVE,Chicago,IL,60645,,,170310205004
2674,6454 N LEAVITT ST,Chicago,IL,60645,,,170310205004
2675,NA,Chicago,IL,,,,
2676,NA,Chicago,IL,,,,
2677,NA,Chicago,IL,,,,
2678,NA,Chicago,IL,,,,
2679,NA,Chicago,IL,,,,
2680,6423 N LEAVITT ST,Chicago,IL,60645,,,170310205004
2681,NA,Chicago,IL,,,,
2682,6431 N HAMILTON AVE,Chicago,IL,60645,,,170310205001
2683,6428 N HOYNE AVE,Chicago,IL,60645,,,170310205001
2684,NA,Chicago,IL,,,,
2685,NA,Chicago,IL,,,,
2686,NA,Chicago,IL,,,,
2687,NA,Chicago,IL,,,,
2688,NA,Chicago,IL,,,,
2689,NA,Chicago,IL,,,,
2690,2044 W DEVON AVE,Chicago,IL,60659,,,170310205001
2691,NA,Chicago,IL,,,,
2692,NA,Chicago,IL,,,,
2693,NA,Chicago,IL,,,,
2694,NA,Chicago,IL,,,,
2695,NA,Chicago,IL,,,,
2696,NA,Chicago,IL,,,,
2697,NA,Chicago,IL,,,,
2698,NA,Chicago,IL,,,,
2699,NA,Chicago,IL,,,,
2700,NA,Chicago,IL,,,,
2701,NA,Chicago,IL,,,,
2702,NA,Chicago,IL,,,,
2703,NA,Chicago,IL,,,,
2704,NA,Chicago,IL,,,,
2705,NA,Chicago,IL,,,,
2706,6504 N WINCHESTER AVE,Chicago,IL,60626,,,170310205001
2707,NA,Chicago,IL,,,,
2708,NA,Chicago,IL,,,,
2709,NA,Chicago,IL,,,,
2710,NA,Chicago,IL,,,,
2711,NA,Chicago,IL,,,,
2712,NA,Chicago,IL,,,,
2713,NA,Chicago,IL,,,,
2714,NA,Chicago,IL,,,,
2715,NA,Chicago,IL,,,,
2716,NA,Chicago,IL,,,,
2717,NA,Chicago,IL,,,,
2718,NA,Chicago,IL,,,,
2719,NA,Chicago,IL,,,,
2720,NA,Chicago,IL,,,,
2721,NA,Chicago,IL,,,,
2722,NA,Chicago,IL,,,,
2723,NA,Chicago,IL,,,,
2724,NA,Chicago,IL,,,,
2725,NA,Chicago,IL,,,,
2726,NA,Chicago,IL,,,,
2727,NA,Chicago,IL,,,,
2728,NA,Chicago,IL,,,,
2729,NA,Chicago,IL,,,,
2730,NA,Chicago,IL,,,,
2731,NA,Chicago,IL,,,,
2732,1740 W COLUMBIA AVE,Chicago,IL,60626,,,170318306004
2733,6755 N RAVENSWOOD AVE,Chicago,IL,60626,,,170318306004
2734,NA,Chicago,IL,,,,
2735,NA,Chicago,IL,,,,
2736,NA,Chicago,IL,,,,
2737,NA,Chicago,IL,,,,
2738,NA,Chicago,IL,,,,
2739,NA,Chicago,IL,,,,
2740,NA,Chicago,IL,,,,
2741,NA,Chicago,IL,,,,
2742,NA,Chicago,IL,,,,
2743,NA,Chicago,IL,,,,
2744,NA,Chicago,IL,,,,
2745,NA,Chicago,IL,,,,
2746,NA,Chicago,IL,,,,
2747,NA,Chicago,IL,,,,
2748,NA,Chicago,IL,,,,
2749,NA,Chicago,IL,,,,
2750,NA,Chicago,IL,,,,
2751,NA,Chicago,IL,,,,
2752,NA,Chicago,IL,,,,
2753,NA,Chicago,IL,,,,
2754,NA,Chicago,IL,,,,
2755,NA,Chicago,IL,,,,
2756,NA,Chicago,IL,,,,
2757,NA,Chicago,IL,,,,
2758,NA,Chicago,IL,,,,
2759,NA,Chicago,IL,,,,
2760,NA,Chicago,IL,,,,
2761,NA,Chicago,IL,,,,
2762,NA,Chicago,IL,,,,
2763,NA,Chicago,IL,,,,
2764,NA,Chicago,IL,,,,
2765,6722 N ASHLAND AVE,Chicago,IL,60626,,,170318306002
2766,NA,Chicago,IL,,,,
2767,NA,Chicago,IL,,,,
2768,NA,Chicago,IL,,,,
2769,NA,Chicago,IL,,,,
2770,NA,Chicago,IL,,,,
2771,NA,Chicago,IL,,,,
2772,NA,Chicago,IL,,,,
2773,NA,Chicago,IL,,,,
2774,1759 W NORTH SHORE AVE,Chicago,IL,60626,,,170318306004
2775,1732 W WALLEN AVE,Chicago,IL,60626,,,170318306004
2776,1718 W WALLEN AVE,Chicago,IL,60626,,,170318306004
2777,NA,Chicago,IL,,,,
2778,NA,Chicago,IL,,,,
2779,NA,Chicago,IL,,,,
2780,NA,Chicago,IL,,,,
2781,NA,Chicago,IL,,,,
2782,NA,Chicago,IL,,,,
2783,NA,Chicago,IL,,,,
2784,NA,Chicago,IL,,,,
2785,NA,Chicago,IL,,,,
2786,NA,Chicago,IL,,,,
2787,NA,Chicago,IL,,,,
2788,NA,Chicago,IL,,,,
2789,1630 W ALBION AVE,Chicago,IL,60626,,,170318306002
2790,NA,Chicago,IL,,,,
2791,NA,Chicago,IL,,,,
2792,NA,Chicago,IL,,,,
2793,NA,Chicago,IL,,,,
2794,NA,Chicago,IL,,,,
2795,NA,Chicago,IL,,,,
2796,NA,Chicago,IL,,,,
2797,NA,Chicago,IL,,,,
2798,NA,Chicago,IL,,,,
2799,NA,Chicago,IL,,,,
2800,NA,Chicago,IL,,,,
2801,NA,Chicago,IL,,,,
2802,NA,Chicago,IL,,,,
2803,NA,Chicago,IL,,,,
2804,NA,Chicago,IL,,,,
2805,1709 W ALBION AVE,Chicago,IL,60626,,,170318306003
2806,1752 W ARTHUR AVE,Chicago,IL,60626,,,170318306003
2807,NA,Chicago,IL,,,,
2808,NA,Chicago,IL,,,,
2809,NA,Chicago,IL,,,,
2810,6526 N ASHLAND AVE,Chicago,IL,60626,,,170318306003
2811,1773 W ARTHUR AVE,Chicago,IL,60626,,,170318306003
2812,NA,Chicago,IL,,,,
2813,6427 N HERMITAGE AVE,Chicago,IL,60626,,,170318306003
2814,NA,Chicago,IL,,,,
2815,1612 W DEVON AVE,Chicago,IL,60660,,,170318306003
2816,7132 N GREENVIEW AVE,Chicago,IL,60626,,,170310106002
2817,1542 W ESTES AVE,Chicago,IL,60626,,,170310106002
2818,1526 W ESTES AVE,Chicago,IL,60626,,,170310106002
2819,NA,Chicago,IL,,,,
2820,NA,Chicago,IL,,,,
2821,NA,Chicago,IL,,,,
2822,NA,Chicago,IL,,,,
2823,NA,Chicago,IL,,,,
2824,1428 W ESTES AVE,Chicago,IL,60626,,,170310106002
2825,1423 W TOUHY AVE,Chicago,IL,60626,,,170310106002
2826,1407 W TOUHY AVE,Chicago,IL,60626,,,170310106002
2827,NA,Chicago,IL,,,,
2828,NA,Chicago,IL,,,,
2829,NA,Chicago,IL,,,,
2830,NA,Chicago,IL,,,,
2831,NA,Chicago,IL,,,,
2832,NA,Chicago,IL,,,,
2833,NA,Chicago,IL,,,,
2834,NA,Chicago,IL,,,,
2835,NA,Chicago,IL,,,,
2836,NA,Chicago,IL,,,,
2837,NA,Chicago,IL,,,,
2838,NA,Chicago,IL,,,,
2839,NA,Chicago,IL,,,,
2840,NA,Chicago,IL,,,,
2841,NA,Chicago,IL,,,,
2842,NA,Chicago,IL,,,,
2843,NA,Chicago,IL,,,,
2844,NA,Chicago,IL,,,,
2845,NA,Chicago,IL,,,,
2846,NA,Chicago,IL,,,,
2847,NA,Chicago,IL,,,,
2848,NA,Chicago,IL,,,,
2849,NA,Chicago,IL,,,,
2850,NA,Chicago,IL,,,,
2851,NA,Chicago,IL,,,,
2852,NA,Chicago,IL,,,,
2853,NA,Chicago,IL,,,,
2854,NA,Chicago,IL,,,,
2855,NA,Chicago,IL,,,,
2856,NA,Chicago,IL,,,,
2857,NA,Chicago,IL,,,,
2858,NA,Chicago,IL,,,,
2859,NA,Chicago,IL,,,,
2860,NA,Chicago,IL,,,,
2861,NA,Chicago,IL,,,,
2862,NA,Chicago,IL,,,,
2863,NA,Chicago,IL,,,,
2864,NA,Chicago,IL,,,,
2865,NA,Chicago,IL,,,,
2866,NA,Chicago,IL,,,,
2867,NA,Chicago,IL,,,,
2868,NA,Chicago,IL,,,,
2869,NA,Chicago,IL,,,,
2870,NA,Chicago,IL,,,,
2871,NA,Chicago,IL,,,,
2872,NA,Chicago,IL,,,,
2873,NA,Chicago,IL,,,,
2874,NA,Chicago,IL,,,,
2875,NA,Chicago,IL,,,,
2876,NA,Chicago,IL,,,,
2877,NA,Chicago,IL,,,,
2878,NA,Chicago,IL,,,,
2879,NA,Chicago,IL,,,,
2880,NA,Chicago,IL,,,,
2881,NA,Chicago,IL,,,,
2882,1415 W ESTES AVE,Chicago,IL,60626,,,170310106002
2883,7061 N GREENVIEW AVE,Chicago,IL,60626,,,170310106002
2884,1424 W GREENLEAF AVE,Chicago,IL,60626,,,170310106002
2885,NA,Chicago,IL,,,,
2886,NA,Chicago,IL,,,,
2887,NA,Chicago,IL,,,,
2888,NA,Chicago,IL,,,,
2889,NA,Chicago,IL,,,,
2890,NA,Chicago,IL,,,,
2891,NA,Chicago,IL,,,,
2892,NA,Chicago,IL,,,,
2893,NA,Chicago,IL,,,,
2894,NA,Chicago,IL,,,,
2895,NA,Chicago,IL,,,,
2896,NA,Chicago,IL,,,,
2897,NA,Chicago,IL,,,,
2898,NA,Chicago,IL,,,,
2899,NA,Chicago,IL,,,,
2900,NA,Chicago,IL,,,,
2901,NA,Chicago,IL,,,,
2902,NA,Chicago,IL,,,,
2903,NA,Chicago,IL,,,,
2904,NA,Chicago,IL,,,,
2905,NA,Chicago,IL,,,,
2906,NA,Chicago,IL,,,,
2907,7020 N GREENVIEW AVE,Chicago,IL,60626,,,170310106004
2908,1508 W LUNT AVE,Chicago,IL,60626,,,170310106004
2909,NA,Chicago,IL,,,,
2910,NA,Chicago,IL,,,,
2911,NA,Chicago,IL,,,,
2912,NA,Chicago,IL,,,,
2913,NA,Chicago,IL,,,,
2914,NA,Chicago,IL,,,,
2915,NA,Chicago,IL,,,,
2916,NA,Chicago,IL,,,,
2917,NA,Chicago,IL,,,,
2918,NA,Chicago,IL,,,,
2919,NA,Chicago,IL,,,,
2920,NA,Chicago,IL,,,,
2921,NA,Chicago,IL,,,,
2922,NA,Chicago,IL,,,,
2923,NA,Chicago,IL,,,,
2924,NA,Chicago,IL,,,,
2925,NA,Chicago,IL,,,,
2926,NA,Chicago,IL,,,,
2927,NA,Chicago,IL,,,,
2928,NA,Chicago,IL,,,,
2929,NA,Chicago,IL,,,,
2930,NA,Chicago,IL,,,,
2931,NA,Chicago,IL,,,,
2932,NA,Chicago,IL,,,,
2933,NA,Chicago,IL,,,,
2934,NA,Chicago,IL,,,,
2935,NA,Chicago,IL,,,,
2936,NA,Chicago,IL,,,,
2937,NA,Chicago,IL,,,,
2938,NA,Chicago,IL,,,,
2939,NA,Chicago,IL,,,,
2940,1328 W LUNT AVE,Chicago,IL,60626,,,170310105011
2941,1240 W LUNT AVE,Chicago,IL,60626,,,170310105011
2942,1228 W LUNT AVE,Chicago,IL,60626,,,170310105011
2943,1224 W LUNT AVE,Chicago,IL,60626,,,170310105011
2944,NA,Chicago,IL,,,,
2945,NA,Chicago,IL,,,,
2946,NA,Chicago,IL,,,,
2947,NA,Chicago,IL,,,,
2948,NA,Chicago,IL,,,,
2949,NA,Chicago,IL,,,,
2950,NA,Chicago,IL,,,,
2951,NA,Chicago,IL,,,,
2952,NA,Chicago,IL,,,,
2953,NA,Chicago,IL,,,,
2954,NA,Chicago,IL,,,,
2955,NA,Chicago,IL,,,,
2956,NA,Chicago,IL,,,,
2957,NA,Chicago,IL,,,,
2958,NA,Chicago,IL,,,,
2959,NA,Chicago,IL,,,,
2960,NA,Chicago,IL,,,,
2961,NA,Chicago,IL,,,,
2962,NA,Chicago,IL,,,,
2963,NA,Chicago,IL,,,,
2964,NA,Chicago,IL,,,,
2965,6931 N ASHLAND AVE,Chicago,IL,0,,,170310106001
2966,NA,Chicago,IL,,,,
2967,NA,Chicago,IL,,,,
2968,NA,Chicago,IL,,,,
2969,NA,Chicago,IL,,,,
2970,NA,Chicago,IL,,,,
2971,NA,Chicago,IL,,,,
2972,NA,Chicago,IL,,,,
2973,NA,Chicago,IL,,,,
2974,NA,Chicago,IL,,,,
2975,NA,Chicago,IL,,,,
2976,NA,Chicago,IL,,,,
2977,NA,Chicago,IL,,,,
2978,NA,Chicago,IL,,,,
2979,NA,Chicago,IL,,,,
2980,NA,Chicago,IL,,,,
2981,NA,Chicago,IL,,,,
2982,NA,Chicago,IL,,,,
2983,NA,Chicago,IL,,,,
2984,NA,Chicago,IL,,,,
2985,NA,Chicago,IL,,,,
2986,NA,Chicago,IL,,,,
2987,NA,Chicago,IL,,,,
2988,NA,Chicago,IL,,,,
2989,NA,Chicago,IL,,,,
2990,NA,Chicago,IL,,,,
2991,NA,Chicago,IL,,,,
2992,NA,Chicago,IL,,,,
2993,NA,Chicago,IL,,,,
2994,NA,Chicago,IL,,,,
2995,NA,Chicago,IL,,,,
2996,NA,Chicago,IL,,,,
2997,NA,Chicago,IL,,,,
2998,NA,Chicago,IL,,,,
2999,NA,Chicago,IL,,,,
3000,NA,Chicago,IL,,,,
3001,NA,Chicago,IL,,,,
3002,NA,Chicago,IL,,,,
3003,NA,Chicago,IL,,,,
3004,NA,Chicago,IL,,,,
3005,NA,Chicago,IL,,,,
3006,NA,Chicago,IL,,,,
3007,NA,Chicago,IL,,,,
3008,NA,Chicago,IL,,,,
3009,NA,Chicago,IL,,,,
3010,NA,Chicago,IL,,,,
3011,NA,Chicago,IL,,,,
3012,1442 W FARWELL AVE,Chicago,IL,60626,,,170310106001
3013,NA,Chicago,IL,,,,
3014,NA,Chicago,IL,,,,
3015,NA,Chicago,IL,,,,
3016,NA,Chicago,IL,,,,
3017,NA,Chicago,IL,,,,
3018,NA,Chicago,IL,,,,
3019,NA,Chicago,IL,,,,
3020,NA,Chicago,IL,,,,
3021,NA,Chicago,IL,,,,
3022,NA,Chicago,IL,,,,
3023,NA,Chicago,IL,,,,
3024,NA,Chicago,IL,,,,
3025,NA,Chicago,IL,,,,
3026,NA,Chicago,IL,,,,
3027,NA,Chicago,IL,,,,
3028,NA,Chicago,IL,,,,
3029,NA,Chicago,IL,,,,
3030,NA,Chicago,IL,,,,
3031,NA,Chicago,IL,,,,
3032,1524 W PRATT BLVD,Chicago,IL,60626,,,170310106001
3033,NA,Chicago,IL,,,,
3034,NA,Chicago,IL,,,,
3035,NA,Chicago,IL,,,,
3036,NA,Chicago,IL,,,,
3037,NA,Chicago,IL,,,,
3038,NA,Chicago,IL,,,,
3039,NA,Chicago,IL,,,,
3040,NA,Chicago,IL,,,,
3041,NA,Chicago,IL,,,,
3042,NA,Chicago,IL,,,,
3043,NA,Chicago,IL,,,,
3044,NA,Chicago,IL,,,,
3045,NA,Chicago,IL,,,,
3046,NA,Chicago,IL,,,,
3047,NA,Chicago,IL,,,,
3048,NA,Chicago,IL,,,,
3049,NA,Chicago,IL,,,,
3050,NA,Chicago,IL,,,,
3051,NA,Chicago,IL,,,,
3052,NA,Chicago,IL,,,,
3053,NA,Chicago,IL,,,,
3054,NA,Chicago,IL,,,,
3055,NA,Chicago,IL,,,,
3056,NA,Chicago,IL,,,,
3057,NA,Chicago,IL,,,,
3058,NA,Chicago,IL,,,,
3059,NA,Chicago,IL,,,,
3060,NA,Chicago,IL,,,,
3061,NA,Chicago,IL,,,,
3062,NA,Chicago,IL,,,,
3063,NA,Chicago,IL,,,,
3064,NA,Chicago,IL,,,,
3065,NA,Chicago,IL,,,,
3066,NA,Chicago,IL,,,,
3067,NA,Chicago,IL,,,,
3068,1302 W PRATT BLVD,Chicago,IL,60626,,,170310105022
3069,NA,Chicago,IL,,,,
3070,NA,Chicago,IL,,,,
3071,NA,Chicago,IL,,,,
3072,NA,Chicago,IL,,,,
3073,NA,Chicago,IL,,,,
3074,NA,Chicago,IL,,,,
3075,NA,Chicago,IL,,,,
3076,NA,Chicago,IL,,,,
3077,NA,Chicago,IL,,,,
3078,NA,Chicago,IL,,,,
3079,NA,Chicago,IL,,,,
3080,NA,Chicago,IL,,,,
3081,NA,Chicago,IL,,,,
3082,NA,Chicago,IL,,,,
3083,NA,Chicago,IL,,,,
3084,NA,Chicago,IL,,,,
3085,NA,Chicago,IL,,,,
3086,NA,Chicago,IL,,,,
3087,NA,Chicago,IL,,,,
3088,NA,Chicago,IL,,,,
3089,NA,Chicago,IL,,,,
3090,NA,Chicago,IL,,,,
3091,NA,Chicago,IL,,,,
3092,NA,Chicago,IL,,,,
3093,NA,Chicago,IL,,,,
3094,NA,Chicago,IL,,,,
3095,NA,Chicago,IL,,,,
3096,NA,Chicago,IL,,,,
3097,NA,Chicago,IL,,,,
3098,NA,Chicago,IL,,,,
3099,1126 W MORSE AVE,Chicago,IL,60626,,,170310104002
3100,NA,Chicago,IL,,,,
3101,NA,Chicago,IL,,,,
3102,NA,Chicago,IL,,,,
3103,NA,Chicago,IL,,,,
3104,NA,Chicago,IL,,,,
3105,NA,Chicago,IL,,,,
3106,NA,Chicago,IL,,,,
3107,NA,Chicago,IL,,,,
3108,NA,Chicago,IL,,,,
3109,NA,Chicago,IL,,,,
3110,NA,Chicago,IL,,,,
3111,1137 W MORSE AVE,Chicago,IL,60626,,,170310104001
3112,1131 W MORSE AVE,Chicago,IL,60626,,,170310104001
3113,NA,Chicago,IL,,,,
3114,NA,Chicago,IL,,,,
3115,NA,Chicago,IL,,,,
3116,NA,Chicago,IL,,,,
3117,NA,Chicago,IL,,,,
3118,NA,Chicago,IL,,,,
3119,NA,Chicago,IL,,,,
3120,NA,Chicago,IL,,,,
3121,NA,Chicago,IL,,,,
3122,NA,Chicago,IL,,,,
3123,NA,Chicago,IL,,,,
3124,NA,Chicago,IL,,,,
3125,NA,Chicago,IL,,,,
3126,NA,Chicago,IL,,,,
3127,NA,Chicago,IL,,,,
3128,NA,Chicago,IL,,,,
3129,NA,Chicago,IL,,,,
3130,NA,Chicago,IL,,,,
3131,NA,Chicago,IL,,,,
3132,NA,Chicago,IL,,,,
3133,NA,Chicago,IL,,,,
3134,NA,Chicago,IL,,,,
3135,NA,Chicago,IL,,,,
3136,NA,Chicago,IL,,,,
3137,NA,Chicago,IL,,,,
3138,1563 W PRATT BLVD,Chicago,IL,60626,,,170310106001
3139,6723 N ASHLAND AVE,Chicago,IL,60626,,,170310106001
3140,6732 N BOSWORTH AVE,Chicago,IL,60626,,,170310106001
3141,6728 N BOSWORTH AVE,Chicago,IL,60626,,,170310106001
3142,NA,Chicago,IL,,,,
3143,6709 N BOSWORTH AVE,Chicago,IL,60626,,,170310106001
3144,NA,Chicago,IL,,,,
3145,NA,Chicago,IL,,,,
3146,NA,Chicago,IL,,,,
3147,NA,Chicago,IL,,,,
3148,NA,Chicago,IL,,,,
3149,NA,Chicago,IL,,,,
3150,NA,Chicago,IL,,,,
3151,NA,Chicago,IL,,,,
3152,NA,Chicago,IL,,,,
3153,6732 N NEWGARD AVE,Chicago,IL,60626,,,170310106001
3154,6742 N NEWGARD AVE,Chicago,IL,60626,,,170310106001
3155,6742 N NEWGARD AVE,Chicago,IL,60626,,,170310106001
3156,NA,Chicago,IL,,,,
3157,NA,Chicago,IL,,,,
3158,NA,Chicago,IL,,,,
3159,NA,Chicago,IL,,,,
3160,NA,Chicago,IL,,,,
3161,NA,Chicago,IL,,,,
3162,NA,Chicago,IL,,,,
3163,NA,Chicago,IL,,,,
3164,1310 W COLUMBIA AVE,Chicago,IL,60626,,,170310105022
3165,NA,Chicago,IL,,,,
3166,NA,Chicago,IL,,,,
3167,NA,Chicago,IL,,,,
3168,NA,Chicago,IL,,,,
3169,NA,Chicago,IL,,,,
3170,NA,Chicago,IL,,,,
3171,NA,Chicago,IL,,,,
3172,1307 W COLUMBIA AVE,Chicago,IL,60626,,,170310105021
3173,NA,Chicago,IL,,,,
3174,NA,Chicago,IL,,,,
3175,NA,Chicago,IL,,,,
3176,1254 W NORTH SHORE AVE,Chicago,IL,60626,,,170310105021
3177,1234 W NORTH SHORE AVE,Chicago,IL,60626,,,170310105021
3178,NA,Chicago,IL,,,,
3179,NA,Chicago,IL,,,,
3180,NA,Chicago,IL,,,,
3181,NA,Chicago,IL,,,,
3182,NA,Chicago,IL,,,,
3183,NA,Chicago,IL,,,,
3184,NA,Chicago,IL,,,,
3185,NA,Chicago,IL,,,,
3186,6613 N ASHLAND AVE,Chicago,IL,60626,,,170318306001
3187,6611 N ASHLAND AVE,Chicago,IL,60626,,,170318306001
3188,6609 N ASHLAND AVE,Chicago,IL,60626,,,170318306001
3189,6601 N ASHLAND AVE,Chicago,IL,60626,,,170318306001
3190,6654 N BOSWORTH AVE,Chicago,IL,60626,,,170318306001
3191,6618 N BOSWORTH AVE,Chicago,IL,60626,,,170318306001
3192,6604 N BOSWORTH AVE,Chicago,IL,60626,,,170318306001
3193,6613 N GREENVIEW AVE,Chicago,IL,60626,,,170310106003
3194,6642 N NEWGARD AVE,Chicago,IL,60626,,,170310106003
3195,6624 N NEWGARD AVE,Chicago,IL,60626,,,170310106003
3196,NA,Chicago,IL,,,,
3197,NA,Chicago,IL,,,,
3198,6640 N GLENWOOD AVE,Chicago,IL,60626,,,170310106003
3199,NA,Chicago,IL,,,,
3200,NA,Chicago,IL,,,,
3201,NA,Chicago,IL,,,,
3202,NA,Chicago,IL,,,,
3203,NA,Chicago,IL,,,,
3204,NA,Chicago,IL,,,,
3205,NA,Chicago,IL,,,,
3206,NA,Chicago,IL,,,,
3207,NA,Chicago,IL,,,,
3208,NA,Chicago,IL,,,,
3209,NA,Chicago,IL,,,,
3210,NA,Chicago,IL,,,,
3211,NA,Chicago,IL,,,,
3212,1238 W ALBION AVE,Chicago,IL,60626,,,170310105021
3213,1234 W ALBION AVE,Chicago,IL,60626,,,170310105021
3214,NA,Chicago,IL,,,,
3215,NA,Chicago,IL,,,,
3216,NA,Chicago,IL,,,,
3217,NA,Chicago,IL,,,,
3218,NA,Chicago,IL,,,,
3219,NA,Chicago,IL,,,,
3220,NA,Chicago,IL,,,,
3221,NA,Chicago,IL,,,,
3222,NA,Chicago,IL,,,,
3223,6534 N BOSWORTH AVE,Chicago,IL,60626,,,170318306001
3224,NA,Chicago,IL,,,,
3225,NA,Chicago,IL,,,,
3226,6521 N BOSWORTH AVE,Chicago,IL,60626,,,170318306001
3227,6522 N GREENVIEW AVE,Chicago,IL,60626,,,170318306001
3228,NA,Chicago,IL,,,,
3229,NA,Chicago,IL,,,,
3230,NA,Chicago,IL,,,,
3231,NA,Chicago,IL,,,,
3232,NA,Chicago,IL,,,,
3233,NA,Chicago,IL,,,,
3234,NA,Chicago,IL,,,,
3235,NA,Chicago,IL,,,,
3236,NA,Chicago,IL,,,,
3237,NA,Chicago,IL,,,,
3238,NA,Chicago,IL,,,,
3239,NA,Chicago,IL,,,,
3240,6527 N NEWGARD AVE,Chicago,IL,60626,,,170310106003
3241,NA,Chicago,IL,,,,
3242,NA,Chicago,IL,,,,
3243,NA,Chicago,IL,,,,
3244,NA,Chicago,IL,,,,
3245,NA,Chicago,IL,,,,
3246,NA,Chicago,IL,,,,
3247,NA,Chicago,IL,,,,
3248,NA,Chicago,IL,,,,
3249,NA,Chicago,IL,,,,
3250,NA,Chicago,IL,,,,
3251,1240 W ARTHUR AVE,Chicago,IL,60626,,,170310105032
3252,1234 W ARTHUR AVE,Chicago,IL,60626,,,170310105032
3253,6442 N BOSWORTH AVE,Chicago,IL,60626,,,170318306001
3254,6434 N BOSWORTH AVE,Chicago,IL,60626,,,170318306001
3255,NA,Chicago,IL,,,,
3256,NA,Chicago,IL,,,,
3257,NA,Chicago,IL,,,,
3258,NA,Chicago,IL,,,,
3259,NA,Chicago,IL,,,,
3260,NA,Chicago,IL,,,,
3261,NA,Chicago,IL,,,,
3262,NA,Chicago,IL,,,,
3263,NA,Chicago,IL,,,,
3264,NA,Chicago,IL,,,,
3265,6433 N GREENVIEW AVE,Chicago,IL,60626,,,170310106003
3266,6426 N NEWGARD AVE,Chicago,IL,60626,,,170310106003
3267,NA,Chicago,IL,,,,
3268,NA,Chicago,IL,,,,
3269,NA,Chicago,IL,,,,
3270,NA,Chicago,IL,,,,
3271,NA,Chicago,IL,,,,
3272,NA,Chicago,IL,,,,
3273,NA,Chicago,IL,,,,
3274,NA,Chicago,IL,,,,
3275,NA,Chicago,IL,,,,
3276,NA,Chicago,IL,,,,
3277,NA,Chicago,IL,,,,
3278,NA,Chicago,IL,,,,
3279,NA,Chicago,IL,,,,
3280,NA,Chicago,IL,,,,
3281,NA,Chicago,IL,,,,
3282,6442 N GLENWOOD AVE,Chicago,IL,60626,,,170310106003
3283,NA,Chicago,IL,,,,
3284,NA,Chicago,IL,,,,
3285,NA,Chicago,IL,,,,
3286,NA,Chicago,IL,,,,
3287,NA,Chicago,IL,,,,
3288,NA,Chicago,IL,,,,
3289,NA,Chicago,IL,,,,
3290,NA,Chicago,IL,,,,
3291,1345 W ARTHUR AVE,Chicago,IL,60626,,,170310105031
3292,6447 N GLENWOOD AVE,Chicago,IL,60626,,,170310105031
3293,6445 N GLENWOOD AVE,Chicago,IL,60626,,,170310105031
3294,6438 N WAYNE AVE,Chicago,IL,60626,,,170310105031
3295,6430 N WAYNE AVE,Chicago,IL,60626,,,170310105031
3296,6414 N WAYNE AVE,Chicago,IL,60626,,,170310105031
3297,1311 W ARTHUR AVE,Chicago,IL,60626,,,170310105031
3298,6419 N WAYNE AVE,Chicago,IL,60626,,,170310105031
3299,1237 W ARTHUR AVE,Chicago,IL,60626,,,170310105031
3300,6445 N LAKEWOOD AVE,Chicago,IL,60626,,,170310105031
3301,6442 N MAGNOLIA AVE,Chicago,IL,60626,,,170310105031
3302,6459 N MAGNOLIA AVE,Chicago,IL,60626,,,170310105031
3303,6441 N MAGNOLIA AVE,Chicago,IL,60626,,,170310105031
3304,6435 N MAGNOLIA AVE,Chicago,IL,60626,,,170310105031
3305,NA,Chicago,IL,,,,
3306,NA,Chicago,IL,,,,
3307,NA,Chicago,IL,,,,
3308,NA,Chicago,IL,,,,
3309,NA,Chicago,IL,,,,
3310,NA,Chicago,IL,,,,
3311,NA,Chicago,IL,,,,
3312,NA,Chicago,IL,,,,
3313,NA,Chicago,IL,,,,
3314,NA,Chicago,IL,,,,
3315,NA,Chicago,IL,,,,
3316,NA,Chicago,IL,,,,
3317,NA,Chicago,IL,,,,
3318,NA,Chicago,IL,,,,
3319,NA,Chicago,IL,,,,
3320,1121 W COLUMBIA AVE,Chicago,IL,60626,,,170310104003
3321,NA,Chicago,IL,,,,
3322,NA,Chicago,IL,,,,
3323,NA,Chicago,IL,,,,
3324,NA,Chicago,IL,,,,
3325,NA,Chicago,IL,,,,
3326,NA,Chicago,IL,,,,
3327,NA,Chicago,IL,,,,
3328,NA,Chicago,IL,,,,
3329,1111 W NORTH SHORE AVE,Chicago,IL,60626,,,170310104003
3330,1052 W ALBION AVE,Chicago,IL,60626,,,170310104003
3331,1034 W ALBION AVE,Chicago,IL,60626,,,170310104003
3332,NA,Chicago,IL,,,,
3333,NA,Chicago,IL,,,,
3334,NA,Chicago,IL,,,,
3335,NA,Chicago,IL,,,,
3336,NA,Chicago,IL,,,,
3337,6577 N WINTHROP AVE,Chicago,IL,60626,,,170310104003
3338,1051 W ALBION AVE,Chicago,IL,60626,,,170310104003
3339,NA,Chicago,IL,,,,
3340,NA,Chicago,IL,,,,
3341,6321 N CANFIELD AVE,Chicago,IL,60631,,,170311004001
3342,6313 N CANFIELD AVE,Chicago,IL,60631,,,170311004001
3343,7743 W HORTENSE AVE,Chicago,IL,60631,,,170311004001
3344,7737 W HORTENSE AVE,Chicago,IL,60631,,,170311004001
3345,6243 N CANFIELD AVE,Chicago,IL,60631,,,170311004001
3346,7755 W PALATINE AVE,Chicago,IL,60631,,,170311004001
3347,6222 N OZANAM AVE,Chicago,IL,60631,,,170311004001
3348,6205 N OZANAM AVE,Chicago,IL,60631,,,170311004001
3349,7736 W HORTENSE AVE,Chicago,IL,60631,,,170311004001
3350,7723 W DEVON AVE,Chicago,IL,60631,,,170311004001
3351,7712 W HORTENSE AVE,Chicago,IL,60631,,,170311004001
3352,7631 W DEVON AVE,Chicago,IL,60631,,,170311004001
3353,7632 W HORTENSE AVE,Chicago,IL,60631,,,170311004001
3354,7626 W HORTENSE AVE,Chicago,IL,60631,,,170311004001
3355,7730 W PALATINE AVE,Chicago,IL,60631,,,170311004001
3356,7708 W PALATINE AVE,Chicago,IL,60631,,,170311004001
3357,6304 N OVERHILL AVE,Chicago,IL,60631,,,170311004001
3358,7642 W PALATINE AVE,Chicago,IL,60631,,,170311004001
3359,7626 W PALATINE AVE,Chicago,IL,60631,,,170311004001
3360,7618 W PALATINE AVE,Chicago,IL,60631,,,170311004001
3361,7721 W PALATINE AVE,Chicago,IL,60631,,,170311004001
3362,7711 W PALATINE AVE,Chicago,IL,60631,,,170311004001
3363,7700 W CLARENCE AVE,Chicago,IL,60631,,,170311004001
3364,7607 W PALATINE AVE,Chicago,IL,60631,,,170311004001
3365,7623 W PALATINE AVE,Chicago,IL,60631,,,170311004001
3366,7614 W CLARENCE AVE,Chicago,IL,60631,,,170311004001
3367,7649 W CLARENCE AVE,Chicago,IL,60631,,,170311004001
3368,7618 W MYRTLE AVE,Chicago,IL,60631,,,170311004001
3369,6170 N OVERHILL AVE,Chicago,IL,60631,,,170311004001
3370,7712 W TALCOTT AVE,Chicago,IL,60631,,,170311004001
3371,7726 W TALCOTT AVE,Chicago,IL,60631,,,170311004001
3372,7633 W MYRTLE AVE,Chicago,IL,60631,,,170311004001
3373,6167 N OVERHILL AVE,Chicago,IL,60631,,,170311004001
3374,7633 W EVERELL AVE,Chicago,IL,60631,,,170311004001
3375,7621 W MYRTLE AVE,Chicago,IL,60631,,,170311004001
3376,7617 W MYRTLE AVE,Chicago,IL,60631,,,170311004001
3377,7611 W MYRTLE AVE,Chicago,IL,60631,,,170311004001
3378,6112 N ORIOLE AVE,Chicago,IL,60631,,,170311004001
3379,7639 W EVERELL AVE,Chicago,IL,60631,,,170311004001
3380,6167 N CANFIELD AVE,Chicago,IL,60631,,,170311004002
3381,6133 N CANFIELD AVE,Chicago,IL,60631,,,170311004002
3382,6107 N CANFIELD AVE,Chicago,IL,60631,,,170311004002
3383,6159 N OZANAM AVE,Chicago,IL,60631,,,170311004002
3384,7752 W HOOD AVE,Chicago,IL,60631,,,170311004002
3385,7739 W HOOD AVE,Chicago,IL,60631,,,170311004002
3386,6110 N OZARK AVE,Chicago,IL,60631,,,170311004002
3387,6153 N OZARK AVE,Chicago,IL,60631,,,170311004002
3388,7743 W GLENLAKE AVE,Chicago,IL,60631,,,170311004002
3389,7717 W TALCOTT AVE,Chicago,IL,60631,,,170311004002
3390,6116 N OVERHILL AVE,Chicago,IL,60631,,,170311004002
3391,6100 N OVERHILL AVE,Chicago,IL,60631,,,170311004002
3392,6038 N OVERHILL AVE,Chicago,IL,60631,,,170311004002
3393,7716 W PETERSON AVE,Chicago,IL,60631,,,170311004002
3394,7662 W PETERSON AVE,Chicago,IL,60631,,,170311004002
3395,6115 N OTTAWA AVE,Chicago,IL,60631,,,170311004002
3396,6057 N OTTAWA AVE,Chicago,IL,60631,,,170311004002
3397,7634 W NORWOOD ST,Chicago,IL,60631,,,170311004002
3398,6107 N OVERHILL AVE,Chicago,IL,60631,,,170311004002
3399,6069 N OVERHILL AVE,Chicago,IL,60631,,,170311004002
3400,6062 N OTTAWA AVE,Chicago,IL,60631,,,170311004002
3401,6051 N OLYMPIA AVE,Chicago,IL,60631,,,170311004002
3402,6043 N OLYMPIA AVE,Chicago,IL,60631,,,170311004002
3403,6025 N OLYMPIA AVE,Chicago,IL,60631,,,170311004002
3404,6056 N ORIOLE AVE,Chicago,IL,60631,,,170311004002
3405,6042 N ORIOLE AVE,Chicago,IL,60631,,,170311004002
3406,6036 N ORIOLE AVE,Chicago,IL,60631,,,170311004002
3407,6014 N ORIOLE AVE,Chicago,IL,60631,,,170311004002
3408,6030 N OZANAM AVE,Chicago,IL,60631,,,170311004002
3409,7744 W NORWOOD ST,Chicago,IL,60631,,,170311004002
3410,7730 W NORWOOD ST,Chicago,IL,60631,,,170311004002
3411,7733 W NORWOOD ST,Chicago,IL,60631,,,170311004002
3412,7735 W NORWOOD ST,Chicago,IL,60631,,,170311004002
3413,7745 W NORWOOD ST,Chicago,IL,60631,,,170311004002
3414,6017 N OZANAM AVE,Chicago,IL,60631,,,170311004002
3415,7539 W DEVON AVE,Chicago,IL,60631,,,170311003005
3416,7561 W HORTENSE AVE,Chicago,IL,60631,,,170311003005
3417,6310 N OKETO AVE,Chicago,IL,60631,,,170311003005
3418,6325 N OLCOTT AVE,Chicago,IL,60631,,,170311003005
3419,6352 N ODELL AVE,Chicago,IL,60631,,,170311003005
3420,6336 N ODELL AVE,Chicago,IL,60631,,,170311003005
3421,6318 N ODELL AVE,Chicago,IL,60631,,,170311003005
3422,6333 N ODELL AVE,Chicago,IL,60631,,,170310903001
3423,7276 W PALATINE AVE,Chicago,IL,60631,,,170310903001
3424,7240 W PALATINE AVE,Chicago,IL,60631,,,170310903001
3425,NA,Chicago,IL,,,,
3426,NA,Chicago,IL,,,,
3427,NA,Chicago,IL,,,,
3428,7519 W PALATINE AVE,Chicago,IL,60631,,,170311003005
3429,7544 W CLARENCE AVE,Chicago,IL,60631,,,170311003005
3430,7522 W CLARENCE AVE,Chicago,IL,60631,,,170311003005
3431,7571 W PALATINE AVE,Chicago,IL,60631,,,170311003005
3432,7333 W PALATINE AVE,Chicago,IL,60631,,,170311003005
3433,7332 W CLARENCE AVE,Chicago,IL,60631,,,170311003005
3434,7300 W CLARENCE AVE,Chicago,IL,60631,,,170311003005
3435,7429 W PALATINE AVE,Chicago,IL,60631,,,170311003005
3436,7231 W PALATINE AVE,Chicago,IL,60631,,,170311003005
3437,7282 W CLARENCE AVE,Chicago,IL,60631,,,170311003005
3438,NA,Chicago,IL,,,,
3439,7409 W CLARENCE AVE,Chicago,IL,60631,,,170311003005
3440,7330 W MYRTLE AVE,Chicago,IL,60631,,,170311003005
3441,7304 W MYRTLE AVE,Chicago,IL,60631,,,170311003005
3442,7300 W MYRTLE AVE,Chicago,IL,60631,,,170311003005
3443,7307 W CLARENCE AVE,Chicago,IL,60631,,,170311003005
3444,7335 W CLARENCE AVE,Chicago,IL,60631,,,170311003005
3445,7242 W MYRTLE AVE,Chicago,IL,60631,,,170311003005
3446,7240 W MYRTLE AVE,Chicago,IL,60631,,,170311003005
3447,7230 W MYRTLE AVE,Chicago,IL,60631,,,170311003005
3448,6152 N OLCOTT AVE,Chicago,IL,60631,,,170311003006
3449,6134 N OLCOTT AVE,Chicago,IL,60631,,,170311003006
3450,7536 W EVERELL AVE,Chicago,IL,60631,,,170311003006
3451,6148 N ODELL AVE,Chicago,IL,60631,,,170311003006
3452,7319 W MYRTLE AVE,Chicago,IL,60631,,,170311003006
3453,7404 W EVERELL AVE,Chicago,IL,60631,,,170311003006
3454,7424 W EVERELL AVE,Chicago,IL,60631,,,170311003006
3455,6139 N OLCOTT AVE,Chicago,IL,60631,,,170311003006
3456,7415 W MYRTLE AVE,Chicago,IL,60631,,,170311003006
3457,7275 W MYRTLE AVE,Chicago,IL,60631,,,170311003006
3458,7244 W EVERELL AVE,Chicago,IL,60631,,,170311003006
3459,7241 W EVERELL AVE,Chicago,IL,60631,,,170311003006
3460,7228 W HOOD AVE,Chicago,IL,60631,,,170311003006
3461,7220 W HOOD AVE,Chicago,IL,60631,,,170311003006
3462,6052 N OCONTO AVE,Chicago,IL,60631,,,170311003006
3463,6002 N OCONTO AVE,Chicago,IL,60631,,,170311003006
3464,6066 N HARLEM AVE,Chicago,IL,60631,,,170311003006
3465,6048 N HARLEM AVE,Chicago,IL,60631,,,170311003006
3466,5955 N CANFIELD AVE,Chicago,IL,60631,,,170311004002
3467,5954 N OZANAM AVE,Chicago,IL,60631,,,170311004002
3468,5942 N OZANAM AVE,Chicago,IL,60631,,,170311004002
3469,5947 N OZANAM AVE,Chicago,IL,60631,,,170311004002
3470,5943 N OZANAM AVE,Chicago,IL,60631,,,170311004002
3471,7743 W ROSEDALE AVE,Chicago,IL,60631,,,170311004003
3472,7741 W ROSEDALE AVE,Chicago,IL,60631,,,170311004003
3473,7816 W THORNDALE AVE,Chicago,IL,60631,,,170311004003
3474,7766 W THORNDALE AVE,Chicago,IL,60631,,,170311004003
3475,7752 W THORNDALE AVE,Chicago,IL,60631,,,170311004003
3476,7827 W THORNDALE AVE,Chicago,IL,60631,,,170311004003
3477,7751 W THORNDALE AVE,Chicago,IL,60631,,,170311004003
3478,7739 W THORNDALE AVE,Chicago,IL,60631,,,170311004003
3479,7762 W ARDMORE AVE,Chicago,IL,60631,,,170311004003
3480,7744 W ARDMORE AVE,Chicago,IL,60631,,,170311004003
3481,5815 N CANFIELD AVE,Chicago,IL,60631,,,170311004003
3482,5805 N CANFIELD AVE,Chicago,IL,60631,,,170311004003
3483,7743 W ARDMORE AVE,Chicago,IL,60631,,,170311004003
3484,7766 W VICTORIA ST,Chicago,IL,60631,,,170311004003
3485,7738 W VICTORIA ST,Chicago,IL,60631,,,170311004003
3486,7734 W VICTORIA ST,Chicago,IL,60631,,,170311004003
3487,5710 N OZARK AVE,Chicago,IL,60631,,,170311004003
3488,5700 N OZARK AVE,Chicago,IL,60631,,,170311004003
3489,7800 W HIGGINS RD,Chicago,IL,60631,,,
3490,7766 W HIGGINS RD,Chicago,IL,60631,,,
3491,766 W HIGGINS RD,Chicago,IL,0,,,
3492,7762 W HIGGINS RD,Chicago,IL,60631,,,
3493,7762 W HIGGINS RD,Chicago,IL,60631,,,
3494,7754 W HIGGINS RD,Chicago,IL,60631,,,
3495,NA,Chicago,IL,,,,
3496,NA,Chicago,IL,,,,
3497,5939 N OZARK AVE,Chicago,IL,60631,,,170311004002
3498,7718 W ROSEDALE AVE,Chicago,IL,60631,,,170311004002
3499,7662 W ROSEDALE AVE,Chicago,IL,60631,,,170311004002
3500,5935 N OTTAWA AVE,Chicago,IL,60631,,,170311004003
3501,5927 N OTTAWA AVE,Chicago,IL,60631,,,170311004003
3502,5952 N ORIOLE AVE,Chicago,IL,60631,,,170311004003
3503,5852 N ORIOLE AVE,Chicago,IL,60631,,,170311004003
3504,5844 N ORIOLE AVE,Chicago,IL,60631,,,170311004003
3505,5832 N ORIOLE AVE,Chicago,IL,60631,,,170311004003
3506,5824 N ORIOLE AVE,Chicago,IL,60631,,,170311004003
3507,5733 N OTTAWA AVE,Chicago,IL,60631,,,170311004003
3508,5715 N OTTAWA AVE,Chicago,IL,60631,,,170311004003
3509,5734 N ORIOLE AVE,Chicago,IL,60631,,,170311004003
3510,5744 N ORIOLE AVE,Chicago,IL,60631,,,170311004003
3511,5701 N ORANGE AVE,Chicago,IL,60631,,,170318104003
3512,5715 N OSAGE AVE,Chicago,IL,60631,,,170318104003
3513,5639 N OSAGE AVE,Chicago,IL,60631,,,170318104003
3514,5647 N OSAGE AVE,Chicago,IL,60631,,,170318104003
3515,5715 N ORANGE AVE,Chicago,IL,60631,,,170318104003
3516,5657 N CANFIELD AVE,Chicago,IL,60631,,,170311005004
3517,5615 N CANFIELD AVE,Chicago,IL,60631,,,170311005004
3518,5605 N CANFIELD AVE,Chicago,IL,60631,,,170311005004
3519,5653 N OZANAM AVE,Chicago,IL,60631,,,170311005004
3520,5645 N OZANAM AVE,Chicago,IL,60631,,,170311005004
3521,5608 N OZARK AVE,Chicago,IL,60631,,,170311005004
3522,7754 W BRYN MAWR AVE,Chicago,IL,60631,,,170311005004
3523,5647 N OZARK AVE,Chicago,IL,60631,,,170311005004
3524,5643 N OZARK AVE,Chicago,IL,60631,,,170311005004
3525,5622 N OVERHILL AVE,Chicago,IL,60631,,,170311005004
3526,5617 N OTTAWA AVE,Chicago,IL,60631,,,170311005004
3527,5600 N ORIOLE AVE,Chicago,IL,60631,,,170311005004
3528,5613 N OTTAWA AVE,Chicago,IL,60631,,,170311005004
3529,7647 W ROSEDALE AVE,Chicago,IL,60631,,,170311004003
3530,5814 N OTTAWA AVE,Chicago,IL,60631,,,170311004003
3531,7707 W THORNDALE AVE,Chicago,IL,60631,,,170311004003
3532,5807 N OZARK AVE,Chicago,IL,60631,,,170311004003
3533,7652 W VICTORIA ST,Chicago,IL,60631,,,170311004003
3534,NA,Chicago,IL,,,,
3535,NA,Chicago,IL,,,,
3536,NA,Chicago,IL,,,,
3537,NA,Chicago,IL,,,,
3538,NA,Chicago,IL,,,,
3539,NA,Chicago,IL,,,,
3540,NA,Chicago,IL,,,,
3541,NA,Chicago,IL,,,,
3542,NA,Chicago,IL,,,,
3543,NA,Chicago,IL,,,,
3544,NA,Chicago,IL,,,,
3545,NA,Chicago,IL,,,,
3546,NA,Chicago,IL,,,,
3547,NA,Chicago,IL,,,,
3548,NA,Chicago,IL,,,,
3549,NA,Chicago,IL,,,,
3550,5958 N OCONTO AVE,Chicago,IL,60631,,,170311003002
3551,5948 N OCONTO AVE,Chicago,IL,60631,,,170311003002
3552,7256 W THORNDALE AVE,Chicago,IL,60631,,,170311003002
3553,5970 N OCONTO AVE,Chicago,IL,60631,,,170311003002
3554,NA,Chicago,IL,,,,
3555,NA,Chicago,IL,,,,
3556,NA,Chicago,IL,,,,
3557,NA,Chicago,IL,,,,
3558,NA,Chicago,IL,,,,
3559,NA,Chicago,IL,,,,
3560,NA,Chicago,IL,,,,
3561,NA,Chicago,IL,,,,
3562,5818 N OCONTO AVE,Chicago,IL,60631,,,170311003002
3563,5935 N OCONTO AVE,Chicago,IL,60631,,,170311003002
3564,5923 N OCONTO AVE,Chicago,IL,60631,,,170311003002
3565,5907 N OCONTO AVE,Chicago,IL,60631,,,170311003002
3566,5847 N OCONTO AVE,Chicago,IL,60631,,,170311003002
3567,5831 N OCONTO AVE,Chicago,IL,60631,,,170311003002
3568,5878 N HARLEM AVE,Chicago,IL,60631,,,170311003002
3569,5852 N HARLEM AVE,Chicago,IL,60631,,,170311003002
3570,5848 N HARLEM AVE,Chicago,IL,60631,,,170311003002
3571,5938 N HARLEM AVE,Chicago,IL,60631,,,170311003002
3572,5804 N ODELL AVE,Chicago,IL,60631,,,170311003002
3573,7351 W TALCOTT AVE,Chicago,IL,60631,,,170311003002
3574,5815 N OKETO AVE,Chicago,IL,60631,,,170311003002
3575,5901 N OKETO AVE,Chicago,IL,60631,,,170311003002
3576,5839 N OKETO AVE,Chicago,IL,60631,,,170311003002
3577,5837 N OKETO AVE,Chicago,IL,60631,,,170311003002
3578,5829 N ODELL AVE,Chicago,IL,60631,,,170311003002
3579,7244 W SEMINOLE ST,Chicago,IL,60631,,,170311003002
3580,5801 N OCTAVIA AVE,Chicago,IL,60631,,,170311003002
3581,5807 N OCTAVIA AVE,Chicago,IL,60631,,,170311003002
3582,5701 N OKETO AVE,Chicago,IL,60631,,,170311003002
3583,5740 N ODELL AVE,Chicago,IL,60631,,,170311003002
3584,5741 N OKETO AVE,Chicago,IL,60631,,,170311003002
3585,5755 N OKETO AVE,Chicago,IL,60631,,,170311003002
3586,5737 N ODELL AVE,Chicago,IL,60631,,,170311003002
3587,5733 N ODELL AVE,Chicago,IL,60631,,,170311003002
3588,7320 W OLIVE AVE,Chicago,IL,60631,,,170311003002
3589,7208 W OLIVE AVE,Chicago,IL,60631,,,170311003002
3590,7228 W OLIVE AVE,Chicago,IL,60631,,,170311003002
3591,7232 W OLIVE AVE,Chicago,IL,60631,,,170311003002
3592,5756 N OCTAVIA AVE,Chicago,IL,60631,,,170311003002
3593,5627 N OKETO AVE,Chicago,IL,60631,,,170311003002
3594,5624 N ODELL AVE,Chicago,IL,60631,,,170311003002
3595,5614 N ODELL AVE,Chicago,IL,60631,,,170311003002
3596,7304 W BRYN MAWR AVE,Chicago,IL,60631,,,170311003002
3597,7243 W OLIVE AVE,Chicago,IL,60631,,,170311003002
3598,7248 W BRYN MAWR AVE,Chicago,IL,60631,,,170311003002
3599,7240 W BRYN MAWR AVE,Chicago,IL,60631,,,170311003002
3600,7251 W OLIVE AVE,Chicago,IL,60631,,,170311003002
3601,7522 W BRYN MAWR AVE,Chicago,IL,60631,,,170311005001
3602,7531 W HIGGINS RD,Chicago,IL,60631,,,170311005001
3603,7506 W SEMINOLE ST,Chicago,IL,60631,,,170311004003
3604,7470 W SEMINOLE ST,Chicago,IL,60631,,,170311004003
3605,5707 N ORIOLE AVE,Chicago,IL,60631,,,170311004003
3606,7514 W SEMINOLE ST,Chicago,IL,60631,,,170311004003
3607,5735 N OLEANDER AVE,Chicago,IL,60631,,,170311004003
3608,5723 N OLEANDER AVE,Chicago,IL,60631,,,170311004003
3609,5645 N OLCOTT AVE,Chicago,IL,60631,,,170311004003
3610,7459 W SEMINOLE ST,Chicago,IL,60631,,,170311004003
3611,5636 N OSCEOLA AVE,Chicago,IL,60631,,,170311004003
3612,5707 N OSCEOLA AVE,Chicago,IL,60631,,,170311004003
3613,7401 W ARDMORE AVE,Chicago,IL,60631,,,170311004003
3614,5722 N OKETO AVE,Chicago,IL,60631,,,170311004003
3615,5602 N OKETO AVE,Chicago,IL,60631,,,170311004003
3616,7520 W ROSEDALE AVE,Chicago,IL,60631,,,170311004003
3617,7464 W ROSEDALE AVE,Chicago,IL,60631,,,170311004003
3618,7456 W ROSEDALE AVE,Chicago,IL,60631,,,170311004003
3619,7432 W ROSEDALE AVE,Chicago,IL,60631,,,170311004003
3620,5747 N ORIOLE AVE,Chicago,IL,60631,,,170311004003
3621,5737 N ORIOLE AVE,Chicago,IL,60631,,,170311004003
3622,7443 W ROSEDALE AVE,Chicago,IL,60631,,,170311004003
3623,7524 W ARDMORE AVE,Chicago,IL,60631,,,170311004003
3624,7501 W ARDMORE AVE,Chicago,IL,60631,,,170311004003
3625,7457 W ARDMORE AVE,Chicago,IL,60631,,,170311004003
3626,8503 W BERWYN AVE,Chicago,IL,60656,,,170317608033
3627,8435 W BERWYN AVE,Chicago,IL,60656,,,170317608033
3628,NA,Chicago,IL,,,,
3629,NA,Chicago,IL,,,,
3630,NA,Chicago,IL,,,,
3631,NA,Chicago,IL,,,,
3632,NA,Chicago,IL,,,,
3633,NA,Chicago,IL,,,,
3634,8639 W CATHERINE AVE,Chicago,IL,60656,,,170317608031
3635,8653 W CATHERINE AVE,Chicago,IL,60656,,,170317608031
3636,NA,Chicago,IL,,,,
3637,NA,Chicago,IL,,,,
3638,NA,Chicago,IL,,,,
3639,NA,Chicago,IL,,,,
3640,NA,Chicago,IL,,,,
3641,NA,Chicago,IL,,,,
3642,NA,Chicago,IL,,,,
3643,NA,Chicago,IL,,,,
3644,NA,Chicago,IL,,,,
3645,NA,Chicago,IL,,,,
3646,NA,Chicago,IL,,,,
3647,NA,Chicago,IL,,,,
3648,NA,Chicago,IL,,,,
3649,NA,Chicago,IL,,,,
3650,NA,Chicago,IL,,,,
3651,NA,Chicago,IL,,,,
3652,NA,Chicago,IL,,,,
3653,NA,Chicago,IL,,,,
3654,8718 W EVELYN LN,Chicago,IL,60656,,,170317608031
3655,8718 W CATHERINE LN,Chicago,IL,60656,,,170317608031
3656,8718 W CATHERINE AVE,Chicago,IL,60656,,,170317608031
3657,8718 W CATHERINE AVE,Chicago,IL,60656,,,170317608031
3658,8538 W CATALPA AVE,Chicago,IL,60656,,,170317608012
3659,8530 W CATALPA AVE,Chicago,IL,60656,,,170317608012
3660,8518 W CATALPA AVE,Chicago,IL,60656,,,170317608012
3661,NA,Chicago,IL,,,,
3662,NA,Chicago,IL,,,,
3663,NA,Chicago,IL,,,,
3664,NA,Chicago,IL,,,,
3665,NA,Chicago,IL,,,,
3666,NA,Chicago,IL,,,,
3667,NA,Chicago,IL,,,,
3668,NA,Chicago,IL,,,,
3669,NA,Chicago,IL,,,,
3670,NA,Chicago,IL,,,,
3671,NA,Chicago,IL,,,,
3672,NA,Chicago,IL,,,,
3673,NA,Chicago,IL,,,,
3674,NA,Chicago,IL,,,,
3675,NA,Chicago,IL,,,,
3676,NA,Chicago,IL,,,,
3677,NA,Chicago,IL,,,,
3678,NA,Chicago,IL,,,,
3679,NA,Chicago,IL,,,,
3680,NA,Chicago,IL,,,,
3681,NA,Chicago,IL,,,,
3682,NA,Chicago,IL,,,,
3683,NA,Chicago,IL,,,,
3684,NA,Chicago,IL,,,,
3685,NA,Chicago,IL,,,,
3686,NA,Chicago,IL,,,,
3687,NA,Chicago,IL,,,,
3688,NA,Chicago,IL,,,,
3689,NA,Chicago,IL,,,,
3690,NA,Chicago,IL,,,,
3691,NA,Chicago,IL,,,,
3692,NA,Chicago,IL,,,,
3693,NA,Chicago,IL,,,,
3694,NA,Chicago,IL,,,,
3695,NA,Chicago,IL,,,,
3696,NA,Chicago,IL,,,,
3697,NA,Chicago,IL,,,,
3698,8536 W BERWYN AVE,Chicago,IL,60656,,,170317608033
3699,8406 W BERWYN AVE,Chicago,IL,60656,,,170317608033
3700,8414 W BERWYN AVE,Chicago,IL,60656,,,170317608033
3701,NA,Chicago,IL,,,,
3702,NA,Chicago,IL,,,,
3703,NA,Chicago,IL,,,,
3704,5215 N EAST RIVER RD,Chicago,IL,60656,,,170317608032
3705,5201 N EAST RIVER RD,Chicago,IL,60656,,,170317608032
3706,NA,Chicago,IL,,,,
3707,NA,Chicago,IL,,,,
3708,NA,Chicago,IL,,,,
3709,5219 N RESERVE AVE,Chicago,IL,60656,,,170317608032
3710,5214 N OAKVIEW ST,Chicago,IL,60656,,,170317608032
3711,5226 N OAKVIEW ST,Chicago,IL,60656,,,170317608032
3712,NA,Chicago,IL,,,,
3713,NA,Chicago,IL,,,,
3714,NA,Chicago,IL,,,,
3715,NA,Chicago,IL,,,,
3716,NA,Chicago,IL,,,,
3717,NA,Chicago,IL,,,,
3718,NA,Chicago,IL,,,,
3719,NA,Chicago,IL,,,,
3720,NA,Chicago,IL,,,,
3721,5227 N OAKVIEW ST,Chicago,IL,60656,,,170317608032
3722,5201 N OAKVIEW ST,Chicago,IL,60656,,,170317608032
3723,5210 N POTAWATOMIE ST,Chicago,IL,60656,,,170317608031
3724,NA,Chicago,IL,,,,
3725,NA,Chicago,IL,,,,
3726,NA,Chicago,IL,,,,
3727,NA,Chicago,IL,,,,
3728,NA,Chicago,IL,,,,
3729,NA,Chicago,IL,,,,
3730,NA,Chicago,IL,,,,
3731,NA,Chicago,IL,,,,
3732,NA,Chicago,IL,,,,
3733,NA,Chicago,IL,,,,
3734,NA,Chicago,IL,,,,
3735,NA,Chicago,IL,,,,
3736,NA,Chicago,IL,,,,
3737,NA,Chicago,IL,,,,
3738,NA,Chicago,IL,,,,
3739,NA,Chicago,IL,,,,
3740,NA,Chicago,IL,,,,
3741,NA,Chicago,IL,,,,
3742,NA,Chicago,IL,,,,
3743,NA,Chicago,IL,,,,
3744,NA,Chicago,IL,,,,
3745,NA,Chicago,IL,,,,
3746,NA,Chicago,IL,,,,
3747,NA,Chicago,IL,,,,
3748,NA,Chicago,IL,,,,
3749,NA,Chicago,IL,,,,
3750,NA,Chicago,IL,,,,
3751,NA,Chicago,IL,,,,
3752,NA,Chicago,IL,,,,
3753,NA,Chicago,IL,,,,
3754,NA,Chicago,IL,,,,
3755,NA,Chicago,IL,,,,
3756,NA,Chicago,IL,,,,
3757,NA,Chicago,IL,,,,
3758,8601 W SUMMERDALE AVE,Chicago,IL,60656,,,170317608031
3759,8637 W SUMMERDALE AVE,Chicago,IL,60656,,,170317608031
3760,8639 W SUMMERDALE AVE,Chicago,IL,60656,,,170317608031
3761,8651 W SUMMERDALE AVE,Chicago,IL,60656,,,170317608031
3762,NA,Chicago,IL,,,,
3763,NA,Chicago,IL,,,,
3764,NA,Chicago,IL,,,,
3765,NA,Chicago,IL,,,,
3766,NA,Chicago,IL,,,,
3767,NA,Chicago,IL,,,,
3768,NA,Chicago,IL,,,,
3769,NA,Chicago,IL,,,,
3770,NA,Chicago,IL,,,,
3771,NA,Chicago,IL,,,,
3772,NA,Chicago,IL,,,,
3773,NA,Chicago,IL,,,,
3774,NA,Chicago,IL,,,,
3775,NA,Chicago,IL,,,,
3776,NA,Chicago,IL,,,,
3777,NA,Chicago,IL,,,,
3778,NA,Chicago,IL,,,,
3779,NA,Chicago,IL,,,,
3780,NA,Chicago,IL,,,,
3781,NA,Chicago,IL,,,,
3782,NA,Chicago,IL,,,,
3783,NA,Chicago,IL,,,,
3784,NA,Chicago,IL,,,,
3785,NA,Chicago,IL,,,,
3786,NA,Chicago,IL,,,,
3787,NA,Chicago,IL,,,,
3788,NA,Chicago,IL,,,,
3789,NA,Chicago,IL,,,,
3790,NA,Chicago,IL,,,,
3791,NA,Chicago,IL,,,,
3792,NA,Chicago,IL,,,,
3793,NA,Chicago,IL,,,,
3794,NA,Chicago,IL,,,,
3795,NA,Chicago,IL,,,,
3796,NA,Chicago,IL,,,,
3797,NA,Chicago,IL,,,,
3798,NA,Chicago,IL,,,,
3799,NA,Chicago,IL,,,,
3800,NA,Chicago,IL,,,,
3801,NA,Chicago,IL,,,,
3802,NA,Chicago,IL,,,,
3803,NA,Chicago,IL,,,,
3804,NA,Chicago,IL,,,,
3805,NA,Chicago,IL,,,,
3806,NA,Chicago,IL,,,,
3807,NA,Chicago,IL,,,,
3808,NA,Chicago,IL,,,,
3809,NA,Chicago,IL,,,,
3810,NA,Chicago,IL,,,,
3811,NA,Chicago,IL,,,,
3812,NA,Chicago,IL,,,,
3813,NA,Chicago,IL,,,,
3814,NA,Chicago,IL,,,,
3815,NA,Chicago,IL,,,,
3816,NA,Chicago,IL,,,,
3817,NA,Chicago,IL,,,,
3818,NA,Chicago,IL,,,,
3819,NA,Chicago,IL,,,,
3820,NA,Chicago,IL,,,,
3821,NA,Chicago,IL,,,,
3822,NA,Chicago,IL,,,,
3823,NA,Chicago,IL,,,,
3824,NA,Chicago,IL,,,,
3825,NA,Chicago,IL,,,,
3826,NA,Chicago,IL,,,,
3827,NA,Chicago,IL,,,,
3828,NA,Chicago,IL,,,,
3829,NA,Chicago,IL,,,,
3830,NA,Chicago,IL,,,,
3831,NA,Chicago,IL,,,,
3832,NA,Chicago,IL,,,,
3833,NA,Chicago,IL,,,,
3834,8533 W CATALPA AVE,Chicago,IL,60656,,,170317608012
3835,NA,Chicago,IL,,,,
3836,NA,Chicago,IL,,,,
3837,NA,Chicago,IL,,,,
3838,NA,Chicago,IL,,,,
3839,NA,Chicago,IL,,,,
3840,NA,Chicago,IL,,,,
3841,NA,Chicago,IL,,,,
3842,NA,Chicago,IL,,,,
3843,NA,Chicago,IL,,,,
3844,NA,Chicago,IL,,,,
3845,NA,Chicago,IL,,,,
3846,NA,Chicago,IL,,,,
3847,NA,Chicago,IL,,,,
3848,NA,Chicago,IL,,,,
3849,NA,Chicago,IL,,,,
3850,NA,Chicago,IL,,,,
3851,NA,Chicago,IL,,,,
3852,NA,Chicago,IL,,,,
3853,NA,Chicago,IL,,,,
3854,NA,Chicago,IL,,,,
3855,NA,Chicago,IL,,,,
3856,NA,Chicago,IL,,,,
3857,NA,Chicago,IL,,,,
3858,NA,Chicago,IL,,,,
3859,NA,Chicago,IL,,,,
3860,NA,Chicago,IL,,,,
3861,NA,Chicago,IL,,,,
3862,NA,Chicago,IL,,,,
3863,NA,Chicago,IL,,,,
3864,NA,Chicago,IL,,,,
3865,NA,Chicago,IL,,,,
3866,NA,Chicago,IL,,,,
3867,NA,Chicago,IL,,,,
3868,NA,Chicago,IL,,,,
3869,NA,Chicago,IL,,,,
3870,NA,Chicago,IL,,,,
3871,NA,Chicago,IL,,,,
3872,NA,Chicago,IL,,,,
3873,NA,Chicago,IL,,,,
3874,NA,Chicago,IL,,,,
3875,NA,Chicago,IL,,,,
3876,NA,Chicago,IL,,,,
3877,NA,Chicago,IL,,,,
3878,NA,Chicago,IL,,,,
3879,NA,Chicago,IL,,,,
3880,NA,Chicago,IL,,,,
3881,NA,Chicago,IL,,,,
3882,NA,Chicago,IL,,,,
3883,NA,Chicago,IL,,,,
3884,NA,Chicago,IL,,,,
3885,NA,Chicago,IL,,,,
3886,NA,Chicago,IL,,,,
3887,NA,Chicago,IL,,,,
3888,NA,Chicago,IL,,,,
3889,NA,Chicago,IL,,,,
3890,NA,Chicago,IL,,,,
3891,NA,Chicago,IL,,,,
3892,NA,Chicago,IL,,,,
3893,NA,Chicago,IL,,,,
3894,8301 W BERWYN AVE,Chicago,IL,60656,,,170311005005
3895,8305 W BERWYN AVE,Chicago,IL,60656,,,170311005005
3896,8309 W BERWYN AVE,Chicago,IL,60656,,,170311005005
3897,8325 W BERWYN AVE,Chicago,IL,60656,,,170311005005
3898,8353 W BERWYN AVE,Chicago,IL,60656,,,170311005005
3899,8219 W CATHERINE AVE,Chicago,IL,60656,,,170311005005
3900,8212 W BERWYN AVE,Chicago,IL,60656,,,170311005005
3901,8201 W BERWYN AVE,Chicago,IL,60656,,,170311005005
3902,8141 W BERWYN AVE,Chicago,IL,60656,,,170311005005
3903,8053 W BERWYN AVE,Chicago,IL,60656,,,170311005005
3904,8130 W BALMORAL AVE,Chicago,IL,60656,,,170311005005
3905,8120 W BALMORAL AVE,Chicago,IL,60656,,,170311005005
3906,5525 N PARIS AVE,Chicago,IL,60656,,,170311005005
3907,5521 N PARIS AVE,Chicago,IL,60656,,,170311005005
3908,5515 N PITTSBURGH AVE,Chicago,IL,60656,,,170311005005
3909,5404 N PITTSBURGH AVE,Chicago,IL,60656,,,170311005005
3910,5424 N PITTSBURGH AVE,Chicago,IL,60656,,,170311005005
3911,8350 W BALMORAL AVE,Chicago,IL,60656,,,170311005005
3912,8232 W CATHERINE AVE,Chicago,IL,60656,,,170311005005
3913,8332 W CATHERINE AVE,Chicago,IL,60656,,,170311005005
3914,8348 W CATHERINE AVE,Chicago,IL,60656,,,170311005005
3915,8355 W BALMORAL AVE,Chicago,IL,60656,,,170311005005
3916,8358 W CATHERINE AVE,Chicago,IL,60656,,,170311005005
3917,8352 W CATHERINE AVE,Chicago,IL,60656,,,170311005005
3918,8649 W FOSTER AVE,Chicago,IL,60656,,,170317608034
3919,8651 W FOSTER AVE,Chicago,IL,60656,,,170317608034
3920,NA,Chicago,IL,,,,
3921,NA,Chicago,IL,,,,
3922,NA,Chicago,IL,,,,
3923,NA,Chicago,IL,,,,
3924,NA,Chicago,IL,,,,
3925,NA,Chicago,IL,,,,
3926,NA,Chicago,IL,,,,
3927,NA,Chicago,IL,,,,
3928,NA,Chicago,IL,,,,
3929,NA,Chicago,IL,,,,
3930,NA,Chicago,IL,,,,
3931,NA,Chicago,IL,,,,
3932,NA,Chicago,IL,,,,
3933,NA,Chicago,IL,,,,
3934,NA,Chicago,IL,,,,
3935,NA,Chicago,IL,,,,
3936,NA,Chicago,IL,,,,
3937,NA,Chicago,IL,,,,
3938,NA,Chicago,IL,,,,
3939,NA,Chicago,IL,,,,
3940,NA,Chicago,IL,,,,
3941,NA,Chicago,IL,,,,
3942,NA,Chicago,IL,,,,
3943,NA,Chicago,IL,,,,
3944,NA,Chicago,IL,,,,
3945,NA,Chicago,IL,,,,
3946,NA,Chicago,IL,,,,
3947,NA,Chicago,IL,,,,
3948,NA,Chicago,IL,,,,
3949,NA,Chicago,IL,,,,
3950,NA,Chicago,IL,,,,
3951,NA,Chicago,IL,,,,
3952,NA,Chicago,IL,,,,
3953,NA,Chicago,IL,,,,
3954,NA,Chicago,IL,,,,
3955,NA,Chicago,IL,,,,
3956,NA,Chicago,IL,,,,
3957,NA,Chicago,IL,,,,
3958,NA,Chicago,IL,,,,
3959,NA,Chicago,IL,,,,
3960,NA,Chicago,IL,,,,
3961,NA,Chicago,IL,,,,
3962,NA,Chicago,IL,,,,
3963,NA,Chicago,IL,,,,
3964,NA,Chicago,IL,,,,
3965,NA,Chicago,IL,,,,
3966,NA,Chicago,IL,,,,
3967,NA,Chicago,IL,,,,
3968,NA,Chicago,IL,,,,
3969,NA,Chicago,IL,,,,
3970,8552 W SAINT JOSEPH AVE,Chicago,IL,60656,,,170317608034
3971,8512 W SAINT JOSEPH AVE,Chicago,IL,60656,,,170317608034
3972,8501 W SAINT JOSEPH AVE,Chicago,IL,60656,,,170317608034
3973,8540 W WINONA ST,Chicago,IL,60656,,,170317608034
3974,8527 W WINONA ST,Chicago,IL,60656,,,170317608034
3975,8507 W WINONA ST,Chicago,IL,60656,,,170317608034
3976,8537 W CARMEN AVE,Chicago,IL,60656,,,170317608034
3977,8522 W WINNEMAC AVE,Chicago,IL,60656,,,170317608034
3978,8537 W WINNEMAC AVE,Chicago,IL,60656,,,170317608034
3979,8512 W ARGYLE ST,Chicago,IL,60656,,,170317608034
3980,8133 W MEMORY LN,Chicago,IL,60656,,,170311005005
3981,8120 W MEMORY LN,Chicago,IL,60656,,,170311005005
3982,8108 W MEMORY LN,Chicago,IL,60656,,,170311005005
3983,7818 W GREGORY ST,Chicago,IL,60656,,,170311005004
3984,7810 W GREGORY ST,Chicago,IL,60656,,,170311005004
3985,7758 W GREGORY ST,Chicago,IL,60656,,,170311005004
3986,7706 W GREGORY ST,Chicago,IL,60656,,,170311005004
3987,7624 W GREGORY ST,Chicago,IL,60656,,,170311005003
3988,7612 W GREGORY ST,Chicago,IL,60656,,,170311005003
3989,7825 W GREGORY ST,Chicago,IL,60656,,,170311005004
3990,7755 W GREGORY ST,Chicago,IL,60656,,,170311005004
3991,7756 W CATALPA AVE,Chicago,IL,60656,,,170311005004
3992,7621 W GREGORY ST,Chicago,IL,60656,,,170311005003
3993,7648 W CATALPA AVE,Chicago,IL,60656,,,170311005003
3994,7817 W CATALPA AVE,Chicago,IL,60656,,,170311005004
3995,7754 W RASCHER AVE,Chicago,IL,60656,,,170311005004
3996,7750 W RASCHER AVE,Chicago,IL,60656,,,170311005004
3997,7726 W RASCHER AVE,Chicago,IL,60656,,,170311005004
3998,7759 W CATALPA AVE,Chicago,IL,60656,,,170311005004
3999,7615 W CATALPA AVE,Chicago,IL,60656,,,170311005003
4000,7616 W RASCHER AVE,Chicago,IL,60656,,,170311005003
4001,5448 N ORIOLE AVE,Chicago,IL,60656,,,170311005003
4002,7649 W CATALPA AVE,Chicago,IL,60656,,,170311005003
4003,7836 W BALMORAL AVE,Chicago,IL,60656,,,170311005004
4004,7830 W BALMORAL AVE,Chicago,IL,60656,,,170311005004
4005,7812 W BALMORAL AVE,Chicago,IL,60656,,,170311005004
4006,7800 W BALMORAL AVE,Chicago,IL,60656,,,170311005004
4007,7751 W RASCHER AVE,Chicago,IL,60656,,,170311005004
4008,7747 W RASCHER AVE,Chicago,IL,60656,,,170311005004
4009,7730 W BALMORAL AVE,Chicago,IL,60656,,,170311005004
4010,7718 W BALMORAL AVE,Chicago,IL,60656,,,170311005004
4011,7719 W RASCHER AVE,Chicago,IL,60656,,,170311005004
4012,7659 W RASCHER AVE,Chicago,IL,60656,,,170311005003
4013,7649 W RASCHER AVE,Chicago,IL,60656,,,170311005003
4014,7628 W BALMORAL AVE,Chicago,IL,60656,,,170311005003
4015,7827 W BALMORAL AVE,Chicago,IL,60656,,,170311005004
4016,7821 W BALMORAL AVE,Chicago,IL,60656,,,170311005004
4017,7805 W BALMORAL AVE,Chicago,IL,60656,,,170311005004
4018,7830 W SUMMERDALE AVE,Chicago,IL,60656,,,170311005004
4019,7822 W SUMMERDALE AVE,Chicago,IL,60656,,,170311005004
4020,7743 W BALMORAL AVE,Chicago,IL,60656,,,170311005004
4021,7725 W BALMORAL AVE,Chicago,IL,60656,,,170311005004
4022,7617 W BALMORAL AVE,Chicago,IL,60656,,,170311005003
4023,7615 W BALMORAL AVE,Chicago,IL,60656,,,170311005003
4024,7650 W SUMMERDALE AVE,Chicago,IL,60656,,,170311005003
4025,7831 W SUMMERDALE AVE,Chicago,IL,60656,,,170311005004
4026,7829 W SUMMERDALE AVE,Chicago,IL,60656,,,170311005004
4027,7813 W SUMMERDALE AVE,Chicago,IL,60656,,,170311005004
4028,7826 W BERWYN AVE,Chicago,IL,60656,,,170311005004
4029,7818 W BERWYN AVE,Chicago,IL,60656,,,170311005004
4030,7753 W SUMMERDALE AVE,Chicago,IL,60656,,,170311005004
4031,7743 W SUMMERDALE AVE,Chicago,IL,60656,,,170311005004
4032,7737 W SUMMERDALE AVE,Chicago,IL,60656,,,170311005004
4033,7730 W BERWYN AVE,Chicago,IL,60656,,,170311005004
4034,7714 W BERWYN AVE,Chicago,IL,60656,,,170311005004
4035,7710 W BERWYN AVE,Chicago,IL,60656,,,170311005004
4036,7637 W SUMMERDALE AVE,Chicago,IL,60656,,,170311005003
4037,7631 W SUMMERDALE AVE,Chicago,IL,60656,,,170311005003
4038,7614 W BERWYN AVE,Chicago,IL,60656,,,170311005003
4039,7835 W BERWYN AVE,Chicago,IL,60656,,,170311005005
4040,7800 W FARRAGUT AVE,Chicago,IL,60656,,,170311005005
4041,7707 W BERWYN AVE,Chicago,IL,60656,,,170311005005
4042,7710 W FARRAGUT AVE,Chicago,IL,60656,,,170311005005
4043,7650 W FARRAGUT AVE,Chicago,IL,60656,,,170311005005
4044,7618 W FARRAGUT AVE,Chicago,IL,60656,,,170311005005
4045,5252 N ORIOLE AVE,Chicago,IL,60656,,,170311005005
4046,7845 W FARRAGUT AVE,Chicago,IL,60656,,,170311005005
4047,7734 W FOSTER AVE,Chicago,IL,60656,,,170311005005
4048,7643 W FARRAGUT AVE,Chicago,IL,60656,,,170311005005
4049,7635 W FARRAGUT AVE,Chicago,IL,60656,,,170311005005
4050,7618 W FOSTER AVE,Chicago,IL,60656,,,170311005005
4051,7920 W BERWYN AVE,Chicago,IL,60656,,,170311005005
4052,7551 W BRYN MAWR AVE,Chicago,IL,60631,,,170311005003
4053,5468 N OCTAVIA AVE,Chicago,IL,60656,,,170311005001
4054,7258 W CATALPA AVE,Chicago,IL,60656,,,170311005001
4055,5512 N OCTAVIA AVE,Chicago,IL,60656,,,170311005001
4056,NA,Chicago,IL,,,,
4057,NA,Chicago,IL,,,,
4058,NA,Chicago,IL,,,,
4059,NA,Chicago,IL,,,,
4060,NA,Chicago,IL,,,,
4061,NA,Chicago,IL,,,,
4062,NA,Chicago,IL,,,,
4063,NA,Chicago,IL,,,,
4064,NA,Chicago,IL,,,,
4065,NA,Chicago,IL,,,,
4066,5449 N ORIOLE AVE,Chicago,IL,60656,,,170311005003
4067,5401 N ORIOLE AVE,Chicago,IL,60656,,,170311005003
4068,5411 N ORIOLE AVE,Chicago,IL,60656,,,170311005003
4069,5341 N ORIOLE AVE,Chicago,IL,60656,,,170311005003
4070,5327 N ORIOLE AVE,Chicago,IL,60656,,,170311005003
4071,5330 N OLCOTT AVE,Chicago,IL,60656,,,170311005003
4072,5248 N OLEANDER AVE,Chicago,IL,60656,,,170311005002
4073,5241 N ORIOLE AVE,Chicago,IL,60656,,,170311005002
4074,5225 N ORIOLE AVE,Chicago,IL,60656,,,170311005002
4075,5236 N OLEANDER AVE,Chicago,IL,60656,,,170311005002
4076,5201 N ORIOLE AVE,Chicago,IL,60656,,,170311005002
4077,5254 N OLCOTT AVE,Chicago,IL,60656,,,170311005002
4078,5248 N OLCOTT AVE,Chicago,IL,60656,,,170311005002
4079,5244 N OLCOTT AVE,Chicago,IL,60656,,,170311005002
4080,5237 N OLEANDER AVE,Chicago,IL,60656,,,170311005002
4081,7508 W FOSTER AVE,Chicago,IL,60656,,,170311005002
4082,7229 W BALMORAL AVE,Chicago,IL,60656,,,170311005002
4083,7223 W BALMORAL AVE,Chicago,IL,60656,,,170311005002
4084,7211 W BALMORAL AVE,Chicago,IL,60656,,,170311005002
4085,7222 W SUMMERDALE AVE,Chicago,IL,60656,,,170311005002
4086,7214 W SUMMERDALE AVE,Chicago,IL,60656,,,170311005002
4087,7239 W SUMMERDALE AVE,Chicago,IL,60656,,,170311005002
4088,7219 W SUMMERDALE AVE,Chicago,IL,60656,,,170311005002
4089,7211 W SUMMERDALE AVE,Chicago,IL,60656,,,170311005002
4090,7207 W SUMMERDALE AVE,Chicago,IL,60656,,,170311005002
4091,7203 W SUMMERDALE AVE,Chicago,IL,60656,,,170311005002
4092,5309 N OCONTO AVE,Chicago,IL,60656,,,170311005002
4093,7222 W BERWYN AVE,Chicago,IL,60656,,,170311005002
4094,5327 N OCONTO AVE,Chicago,IL,60656,,,170311005002
4095,7259 W RASCHER AVE,Chicago,IL,60656,,,170311005002
4096,7241 W RASCHER AVE,Chicago,IL,60656,,,170311005002
4097,7209 W RASCHER AVE,Chicago,IL,60656,,,170311005002
4098,7240 W BALMORAL AVE,Chicago,IL,60656,,,170311005002
4099,7230 W BALMORAL AVE,Chicago,IL,60656,,,170311005002
4100,7218 W BALMORAL AVE,Chicago,IL,60656,,,170311005002
4101,5341 N OLCOTT AVE,Chicago,IL,60656,,,170311005003
4102,5352 N OSCEOLA AVE,Chicago,IL,60656,,,170311005003
4103,5340 N OSCEOLA AVE,Chicago,IL,60656,,,170311005003
4104,5353 N OSCEOLA AVE,Chicago,IL,60656,,,170311005003
4105,5349 N OSCEOLA AVE,Chicago,IL,60656,,,170311005003
4106,5321 N OSCEOLA AVE,Chicago,IL,60656,,,170311005003
4107,5309 N OSCEOLA AVE,Chicago,IL,60656,,,170311005003
4108,5253 N OLCOTT AVE,Chicago,IL,60656,,,170311005002
4109,5233 N OLCOTT AVE,Chicago,IL,60656,,,170311005002
4110,5201 N OLCOTT AVE,Chicago,IL,60656,,,170311005002
4111,5204 N OSCEOLA AVE,Chicago,IL,60656,,,170311005002
4112,5229 N OSCEOLA AVE,Chicago,IL,60656,,,170311005002
4113,5209 N OSCEOLA AVE,Chicago,IL,60656,,,170311005002
4114,5205 N OSCEOLA AVE,Chicago,IL,60656,,,170311005002
4115,7456 W GREGORY ST,Chicago,IL,60656,,,170311005001
4116,7331 W HIGGINS AVE,Chicago,IL,60656,,,170311005001
4117,5536 N OLCOTT AVE,Chicago,IL,60656,,,170311005003
4118,5528 N OLCOTT AVE,Chicago,IL,60656,,,170311005003
4119,5553 N OLCOTT AVE,Chicago,IL,60656,,,170311005001
4120,5501 N OLCOTT AVE,Chicago,IL,60656,,,170311005001
4121,5510 N OSCEOLA AVE,Chicago,IL,60656,,,170311005001
4122,5555 N OSCEOLA AVE,Chicago,IL,60656,,,170311005001
4123,5515 N OSCEOLA AVE,Chicago,IL,60656,,,170311005001
4124,5510 N OKETO AVE,Chicago,IL,60656,,,170311005001
4125,7431 W CATALPA AVE,Chicago,IL,60656,,,170311005003
4126,7358 W RASCHER AVE,Chicago,IL,60656,,,170311005001
4127,7328 W RASCHER AVE,Chicago,IL,60656,,,170311005001
4128,5551 N ODELL AVE,Chicago,IL,60656,,,170311005001
4129,5519 N ODELL AVE,Chicago,IL,60656,,,170311005001
4130,5519 N OCTAVIA AVE,Chicago,IL,60656,,,170311005001
4131,7264 W GREGORY ST,Chicago,IL,60656,,,170311005001
4132,5483 N OCONTO AVE,Chicago,IL,60656,,,170311005001
4133,5471 N OCONTO AVE,Chicago,IL,60656,,,170311005001
4134,5431 N OCONTO AVE,Chicago,IL,60656,,,170311005001
4135,5427 N OCONTO AVE,Chicago,IL,60656,,,170311005001
4136,5415 N OCTAVIA AVE,Chicago,IL,60656,,,170311005001
4137,7255 W CATALPA AVE,Chicago,IL,60656,,,170311005001
4138,7230 W RASCHER AVE,Chicago,IL,60656,,,170311005001
4139,7317 W RASCHER AVE,Chicago,IL,60656,,,170311005001
4140,5330 N OCONTO AVE,Chicago,IL,60656,,,170311005002
4141,7318 W SUMMERDALE AVE,Chicago,IL,60656,,,170311005002
4142,7300 W SUMMERDALE AVE,Chicago,IL,60656,,,170311005002
4143,5319 N OKETO AVE,Chicago,IL,60656,,,170311005002
4144,5315 N OKETO AVE,Chicago,IL,60656,,,170311005002
4145,5309 N OKETO AVE,Chicago,IL,60656,,,170311005002
4146,7231 W BERWYN AVE,Chicago,IL,60656,,,170311005002
4147,5535 N OKETO AVE,Chicago,IL,60656,,,170311005001
4148,5542 N ODELL AVE,Chicago,IL,60656,,,170311005001
4149,5524 N ODELL AVE,Chicago,IL,60656,,,170311005001
4150,5520 N ODELL AVE,Chicago,IL,60656,,,170311005001
4151,7661 W FOSTER AVE,Chicago,IL,60656,,,170311005005
4152,5084 N OTTAWA AVE,Chicago,IL,60656,,,170311005005
4153,5043 N OTTAWA AVE,Chicago,IL,60656,,,170311005005
4154,5048 N OLYMPIA AVE,Chicago,IL,60656,,,170311005005
4155,5073 N OLYMPIA AVE,Chicago,IL,60656,,,170311005005
4156,4609 N ANTHON AVE,Chicago,IL,60656,,,170317608021
4157,8461 W LELAND AVE,Chicago,IL,60656,,,170317608021
4158,8460 W WILSON AVE,Chicago,IL,60656,,,170317608021
4159,NA,Chicago,IL,,,,
4160,NA,Chicago,IL,,,,
4161,NA,Chicago,IL,,,,
4162,NA,Chicago,IL,,,,
4163,8465 W CASTLE ISLAND AVE,Chicago,IL,60656,,,170317608021
4164,8421 W CASTLE ISLAND AVE,Chicago,IL,60656,,,170317608021
4165,NA,Chicago,IL,,,,
4166,NA,Chicago,IL,,,,
4167,NA,Chicago,IL,,,,
4168,NA,Chicago,IL,,,,
4169,NA,Chicago,IL,,,,
4170,8478 W SUNNYSIDE AVE,Chicago,IL,60656,,,170317608021
4171,8463 W SUNNYSIDE AVE,Chicago,IL,60656,,,170317608021
4172,8468 W AGATITE AVE,Chicago,IL,60656,,,170317608021
4173,8434 W AGATITE AVE,Chicago,IL,60656,,,170317608021
4174,8521 W AGATITE AVE,Chicago,IL,60656,,,170317608021
4175,8515 W AGATITE AVE,Chicago,IL,60656,,,170317608021
4176,8457 W AGATITE AVE,Chicago,IL,60656,,,170317608021
4177,8419 W AGATITE AVE,Chicago,IL,60656,,,170317608021
4178,8411 W AGATITE AVE,Chicago,IL,60656,,,170317608021
4179,8410 W BRODMAN AVE,Chicago,IL,60656,,,170317608021
4180,4433 N FORESTVIEW AVE,Chicago,IL,60656,,,170317608021
4181,4462 N RESERVE AVE,Chicago,IL,60656,,,170317608021
4182,4500 N RESERVE AVE,Chicago,IL,60656,,,170317608021
4183,8653 W BRODMAN AVE,Chicago,IL,60656,,,170317608021
4184,8635 W BRODMAN AVE,Chicago,IL,60656,,,170317608021
4185,8609 W BRODMAN AVE,Chicago,IL,60656,,,170317608021
4186,4526 N FORESTVIEW AVE,Chicago,IL,60656,,,170317608021
4187,4508 N FORESTVIEW AVE,Chicago,IL,60656,,,170317608021
4188,4424 N FORESTVIEW AVE,Chicago,IL,60656,,,170317608021
4189,8600 W BRODMAN AVE,Chicago,IL,60656,,,170317608021
4190,NA,Chicago,IL,,,,
4191,NA,Chicago,IL,,,,
4192,NA,Chicago,IL,,,,
4193,NA,Chicago,IL,,,,
4194,NA,Chicago,IL,,,,
4195,NA,Chicago,IL,,,,
4196,NA,Chicago,IL,,,,
4197,NA,Chicago,IL,,,,
4198,NA,Chicago,IL,,,,
4199,NA,Chicago,IL,,,,
4200,NA,Chicago,IL,,,,
4201,NA,Chicago,IL,,,,
4202,NA,Chicago,IL,,,,
4203,NA,Chicago,IL,,,,
4204,NA,Chicago,IL,,,,
4205,NA,Chicago,IL,,,,
4206,NA,Chicago,IL,,,,
4207,NA,Chicago,IL,,,,
4208,NA,Chicago,IL,,,,
4209,NA,Chicago,IL,,,,
4210,NA,Chicago,IL,,,,
4211,NA,Chicago,IL,,,,
4212,NA,Chicago,IL,,,,
4213,NA,Chicago,IL,,,,
4214,NA,Chicago,IL,,,,
4215,NA,Chicago,IL,,,,
4216,NA,Chicago,IL,,,,
4217,NA,Chicago,IL,,,,
4218,NA,Chicago,IL,,,,
4219,NA,Chicago,IL,,,,
4220,NA,Chicago,IL,,,,
4221,NA,Chicago,IL,,,,
4222,NA,Chicago,IL,,,,
4223,NA,Chicago,IL,,,,
4224,NA,Chicago,IL,,,,
4225,NA,Chicago,IL,,,,
4226,NA,Chicago,IL,,,,
4227,NA,Chicago,IL,,,,
4228,NA,Chicago,IL,,,,
4229,NA,Chicago,IL,,,,
4230,NA,Chicago,IL,,,,
4231,NA,Chicago,IL,,,,
4232,NA,Chicago,IL,,,,
4233,NA,Chicago,IL,,,,
4234,4527 N RESERVE AVE,Chicago,IL,60656,,,170317608021
4235,4550 N POTAWATOMIE ST,Chicago,IL,60656,,,170317608021
4236,4543 N OAKVIEW ST,Chicago,IL,60656,,,170317608021
4237,4507 N POTAWATOMIE ST,Chicago,IL,60656,,,170317608021
4238,4525 N POTAWATOMIE ST,Chicago,IL,60656,,,170317608021
4239,4548 N DELPHIA AVE,Chicago,IL,60656,,,170317608021
4240,4520 N DELPHIA AVE,Chicago,IL,60656,,,170317608021
4241,4514 N DELPHIA AVE,Chicago,IL,60656,,,170317608021
4242,4664 N FORESTVIEW AVE,Chicago,IL,60656,,,170317608021
4243,4612 N FORESTVIEW AVE,Chicago,IL,60656,,,170317608021
4244,4623 N FORESTVIEW AVE,Chicago,IL,60656,,,170317608021
4245,4647 N FORESTVIEW AVE,Chicago,IL,60656,,,170317608021
4246,4628 N POTAWATOMIE ST,Chicago,IL,60656,,,170317608021
4247,4614 N POTAWATOMIE ST,Chicago,IL,60656,,,170317608021
4248,4641 N POTAWATOMIE ST,Chicago,IL,60656,,,170317608021
4249,8600 W WILSON AVE,Chicago,IL,60656,,,170317608021
4250,4626 N DELPHIA AVE,Chicago,IL,60656,,,170317608021
4251,4638 N ANTHON AVE,Chicago,IL,60656,,,170317608021
4252,8530 W WILSON AVE,Chicago,IL,60656,,,170317608021
4253,4535 N DELPHIA AVE,Chicago,IL,60656,,,170317608021
4254,8455 W WILSON AVE,Chicago,IL,60656,,,170317608021
4255,8467 W WILSON AVE,Chicago,IL,60656,,,170317608021
4256,8505 W WILSON AVE,Chicago,IL,60656,,,170317608021
4257,4544 N ANTHON AVE,Chicago,IL,60656,,,170317608021
4258,4573 N ANTHON AVE,Chicago,IL,60656,,,170317608021
4259,8454 W WINDSOR AVE,Chicago,IL,60656,,,170317608021
4260,8470 W WINDSOR AVE,Chicago,IL,60656,,,170317608021
4261,4739 N DELPHIA AVE,Chicago,IL,60656,,,170317608021
4262,4724 N ANTHON AVE,Chicago,IL,60656,,,170317608021
4263,4720 N ANTHON AVE,Chicago,IL,60656,,,170317608021
4264,4721 N OAKVIEW ST,Chicago,IL,60656,,,170317608021
4265,4732 N POTAWATOMIE ST,Chicago,IL,60656,,,170317608021
4266,4718 N POTAWATOMIE ST,Chicago,IL,60656,,,170317608021
4267,8465 W BRODMAN AVE,Chicago,IL,60656,,,170317608021
4268,8419 W BRODMAN AVE,Chicago,IL,60656,,,170317608021
4269,4718 N CHESTER AVE,Chicago,IL,60656,,,170317608021
4270,8423 W WINDSOR AVE,Chicago,IL,60656,,,170317608021
4271,8444 W CASTLE ISLAND AVE,Chicago,IL,60656,,,170317608021
4272,4143 N CUMBERLAND AVE,Chicago,IL,60634,,,170311705002
4273,4141 N CUMBERLAND AVE,Chicago,IL,60634,,,170311705002
4274,4121 N CUMBERLAND AVE,Chicago,IL,60634,,,170311705002
4275,4148 N PONTIAC AVE,Chicago,IL,60634,,,170311705002
4276,4146 N PONTIAC AVE,Chicago,IL,60634,,,170311705002
4277,4110 N PONTIAC AVE,Chicago,IL,60634,,,170311705002
4278,4104 N PONTIAC AVE,Chicago,IL,60634,,,170311705002
4279,4131 N PONTIAC AVE,Chicago,IL,60634,,,170311705002
4280,4158 N PLAINFIELD AVE,Chicago,IL,60634,,,170311705002
4281,4152 N PLAINFIELD AVE,Chicago,IL,60634,,,170311705002
4282,4136 N PLAINFIELD AVE,Chicago,IL,60634,,,170311705002
4283,4114 N PLAINFIELD AVE,Chicago,IL,60634,,,170311705002
4284,4107 N PLAINFIELD AVE,Chicago,IL,60634,,,170311705002
4285,4101 N PLAINFIELD AVE,Chicago,IL,60634,,,170311705002
4286,4111 N PLAINFIELD AVE,Chicago,IL,60634,,,170311705002
4287,4100 N PITTSBURGH AVE,Chicago,IL,60634,,,170311705002
4288,4140 N PITTSBURGH AVE,Chicago,IL,60634,,,170311705002
4289,4128 N PIONEER AVE,Chicago,IL,60634,,,170311705002
4290,4136 N THATCHER AVE,Chicago,IL,0,,,
4291,4114 N PIONEER AVE,Chicago,IL,60634,,,170311705002
4292,4104 N THATCHER AVE,Chicago,IL,0,,,
4293,4115 N PITTSBURGH AVE,Chicago,IL,60634,,,170311705002
4294,4159 N PITTSBURGH AVE,Chicago,IL,60634,,,170311705002
4295,4152 N PIONEER AVE,Chicago,IL,60634,,,170311705002
4296,4053 N CUMBERLAND AVE,Chicago,IL,60634,,,170311705002
4297,NA,Chicago,IL,,,,
4298,NA,Chicago,IL,,,,
4299,4047 N PONTIAC AVE,Chicago,IL,60634,,,170311705002
4300,4043 N PONTIAC AVE,Chicago,IL,60634,,,170311705002
4301,4056 N PLAINFIELD AVE,Chicago,IL,60634,,,170311705002
4302,4018 N PLAINFIELD AVE,Chicago,IL,60634,,,170311705002
4303,4017 N PLAINFIELD AVE,Chicago,IL,60634,,,170311705002
4304,4056 N PIONEER AVE,Chicago,IL,60634,,,170311705002
4305,4044 N PIONEER AVE,Chicago,IL,60634,,,170311705002
4306,4036 N PIONEER AVE,Chicago,IL,60634,,,170311705002
4307,8214 W IRVING PARK RD,Chicago,IL,60634,,,170311705002
4308,3909 N CUMBERLAND AVE,Chicago,IL,60634,,,170311705003
4309,3938 N PONTIAC AVE,Chicago,IL,60634,,,170311705003
4310,3920 N PONTIAC AVE,Chicago,IL,60634,,,170311705003
4311,3909 N PONTIAC AVE,Chicago,IL,60634,,,170311705003
4312,3926 N PLAINFIELD AVE,Chicago,IL,60634,,,170311705003
4313,3922 N PLAINFIELD AVE,Chicago,IL,60634,,,170311705003
4314,3941 N PLAINFIELD AVE,Chicago,IL,60634,,,170311705003
4315,3933 N PLAINFIELD AVE,Chicago,IL,60634,,,170311705003
4316,3929 N PLAINFIELD AVE,Chicago,IL,60634,,,170311705003
4317,3920 N PITTSBURGH AVE,Chicago,IL,60634,,,170311705003
4318,3904 N PITTSBURGH AVE,Chicago,IL,60634,,,170311705003
4319,3909 N PITTSBURGH AVE,Chicago,IL,60634,,,170311705003
4320,NA,Chicago,IL,,,,
4321,NA,Chicago,IL,,,,
4322,3933 N PIONEER AVE,Chicago,IL,60634,,,170311705003
4323,8155 W IRVING PARK RD,Chicago,IL,60634,,,170311705003
4324,3917 N PARIS AVE,Chicago,IL,60634,,,170311705003
4325,3911 N PARIS AVE,Chicago,IL,60634,,,170311705003
4326,3934 N PANAMA AVE,Chicago,IL,60634,,,170311705003
4327,3932 N PANAMA AVE,Chicago,IL,60634,,,170311705003
4328,3922 N PANAMA AVE,Chicago,IL,60634,,,170311705003
4329,3909 N PANAMA AVE,Chicago,IL,60634,,,170311705003
4330,3934 N PAGE AVE,Chicago,IL,60634,,,170311705003
4331,3905 N PAGE AVE,Chicago,IL,60634,,,170311705001
4332,3919 N PAGE AVE,Chicago,IL,60634,,,170311705001
4333,3917 N PAGE AVE,Chicago,IL,60634,,,170311705001
4334,3938 N PACIFIC AVE,Chicago,IL,60634,,,170311705001
4335,3900 N PACIFIC AVE,Chicago,IL,60634,,,170311705001
4336,3842 N PONTIAC AVE,Chicago,IL,60634,,,170311705003
4337,3853 N PONTIAC AVE,Chicago,IL,60634,,,170311705003
4338,3847 N PONTIAC AVE,Chicago,IL,60634,,,170311705003
4339,3831 N PONTIAC AVE,Chicago,IL,60634,,,170311705003
4340,3852 N PLAINFIELD AVE,Chicago,IL,60634,,,170311705003
4341,3828 N PLAINFIELD AVE,Chicago,IL,60634,,,170311705003
4342,3818 N PLAINFIELD AVE,Chicago,IL,60634,,,170311705003
4343,3810 N PLAINFIELD AVE,Chicago,IL,60634,,,170311705003
4344,3817 N PONTIAC AVE,Chicago,IL,60634,,,170311705003
4345,3853 N PLAINFIELD AVE,Chicago,IL,60634,,,170311705003
4346,3833 N PLAINFIELD AVE,Chicago,IL,60634,,,170311705003
4347,3809 N PLAINFIELD AVE,Chicago,IL,60634,,,170311705003
4348,3854 N PITTSBURGH AVE,Chicago,IL,60634,,,170311705003
4349,8236 W GRACE ST,Chicago,IL,60634,,,170311705003
4350,3857 N PITTSBURGH AVE,Chicago,IL,60634,,,170311705003
4351,3800 N PIONEER AVE,Chicago,IL,60634,,,170311705003
4352,3825 N PIONEER AVE,Chicago,IL,60634,,,170311705003
4353,3811 N PIONEER AVE,Chicago,IL,60634,,,170311705003
4354,3854 N PARIS AVE,Chicago,IL,60634,,,170311705003
4355,3848 N PARIS AVE,Chicago,IL,60634,,,170311705003
4356,3842 N PARIS AVE,Chicago,IL,60634,,,170311705003
4357,3832 N PARIS AVE,Chicago,IL,60634,,,170311705003
4358,3824 N PARIS AVE,Chicago,IL,60634,,,170311705003
4359,3837 N PIONEER AVE,Chicago,IL,60634,,,170311705003
4360,3831 N PARIS AVE,Chicago,IL,60634,,,170311705003
4361,3805 N PARIS AVE,Chicago,IL,60634,,,170311705003
4362,3846 N PANAMA AVE,Chicago,IL,60634,,,170311705003
4363,3830 N PANAMA AVE,Chicago,IL,60634,,,170311705003
4364,3859 N PANAMA AVE,Chicago,IL,60634,,,170311705003
4365,3853 N PANAMA AVE,Chicago,IL,60634,,,170311705003
4366,3835 N PANAMA AVE,Chicago,IL,60634,,,170311705003
4367,3803 N PANAMA AVE,Chicago,IL,60634,,,170311705003
4368,3826 N PAGE AVE,Chicago,IL,60634,,,170311705003
4369,3808 N PAGE AVE,Chicago,IL,60634,,,170311705003
4370,3859 N PAGE AVE,Chicago,IL,60634,,,170311705001
4371,3723 N CUMBERLAND AVE,Chicago,IL,60634,,,170311705004
4372,3758 N PONTIAC AVE,Chicago,IL,60634,,,170311705004
4373,3718 N PONTIAC AVE,Chicago,IL,60634,,,170311705004
4374,3700 N PONTIAC AVE,Chicago,IL,60634,,,170311705004
4375,3745 N PONTIAC AVE,Chicago,IL,60634,,,170311705004
4376,3705 N PONTIAC AVE,Chicago,IL,60634,,,170311705004
4377,3701 N PONTIAC AVE,Chicago,IL,60634,,,170311705004
4378,3736 N PLAINFIELD AVE,Chicago,IL,60634,,,170311705004
4379,3714 N PLAINFIELD AVE,Chicago,IL,60634,,,170311705004
4380,3705 N PLAINFIELD AVE,Chicago,IL,60634,,,170311705004
4381,3754 N PITTSBURGH AVE,Chicago,IL,60634,,,170311705004
4382,3746 N PITTSBURGH AVE,Chicago,IL,60634,,,170311705004
4383,3747 N PITTSBURGH AVE,Chicago,IL,60634,,,170311705004
4384,3754 N PIONEER AVE,Chicago,IL,60634,,,170311705004
4385,3701 N PIONEER AVE,Chicago,IL,60634,,,170311705004
4386,3712 N PARIS AVE,Chicago,IL,60634,,,170311705004
4387,3728 N PARIS AVE,Chicago,IL,60634,,,170311705004
4388,3739 N PIONEER AVE,Chicago,IL,60634,,,170311705004
4389,3729 N PANAMA AVE,Chicago,IL,60634,,,170311705004
4390,3711 N PANAMA AVE,Chicago,IL,60634,,,170311705004
4391,3716 N PAGE AVE,Chicago,IL,60634,,,170311705004
4392,3725 N PAGE AVE,Chicago,IL,60634,,,170311705001
4393,3707 N PAGE AVE,Chicago,IL,60634,,,170311705001
4394,3717 N PAGE AVE,Chicago,IL,60634,,,170311705001
4395,3643 N CUMBERLAND AVE,Chicago,IL,60634,,,170311705004
4396,3615 N CUMBERLAND AVE,Chicago,IL,60634,,,170311705004
4397,3628 N PONTIAC AVE,Chicago,IL,60634,,,170311705004
4398,3618 N PONTIAC AVE,Chicago,IL,60634,,,170311705004
4399,NA,Chicago,IL,,,,
4400,NA,Chicago,IL,,,,
4401,NA,Chicago,IL,,,,
4402,NA,Chicago,IL,,,,
4403,NA,Chicago,IL,,,,
4404,3641 N PONTIAC AVE,Chicago,IL,60634,,,170311705004
4405,3619 N PONTIAC AVE,Chicago,IL,60634,,,170311705004
4406,3615 N PONTIAC AVE,Chicago,IL,60634,,,170311705004
4407,3645 N PLAINFIELD AVE,Chicago,IL,60634,,,170311705004
4408,3633 N PLAINFIELD AVE,Chicago,IL,60634,,,170311705004
4409,3625 N PLAINFIELD AVE,Chicago,IL,60634,,,170311705004
4410,3632 N PITTSBURGH AVE,Chicago,IL,60634,,,170311705004
4411,3628 N PITTSBURGH AVE,Chicago,IL,60634,,,170311705004
4412,3649 N PITTSBURGH AVE,Chicago,IL,60634,,,170311705004
4413,3625 N PITTSBURGH AVE,Chicago,IL,60634,,,170311705004
4414,3619 N PITTSBURGH AVE,Chicago,IL,60634,,,170311705004
4415,3617 N PITTSBURGH AVE,Chicago,IL,60634,,,170311705004
4416,3641 N PIONEER AVE,Chicago,IL,60634,,,170311705004
4417,3616 N PARIS AVE,Chicago,IL,60634,,,170311705004
4418,3614 N PARIS AVE,Chicago,IL,60634,,,170311705004
4419,8146 W ADDISON ST,Chicago,IL,60634,,,170311705004
4420,3647 N PARIS AVE,Chicago,IL,60634,,,170311705004
4421,3650 N PANAMA AVE,Chicago,IL,60634,,,170311705004
4422,3648 N PANAMA AVE,Chicago,IL,60634,,,170311705004
4423,3630 N PANAMA AVE,Chicago,IL,60634,,,170311705004
4424,3624 N PANAMA AVE,Chicago,IL,60634,,,170311705004
4425,3614 N PANAMA AVE,Chicago,IL,60634,,,170311705004
4426,3618 N PAGE AVE,Chicago,IL,60634,,,170311705004
4427,3614 N PAGE AVE,Chicago,IL,60634,,,170311705004
4428,3639 N PAGE AVE,Chicago,IL,60634,,,170311705001
4429,3617 N PAGE AVE,Chicago,IL,60634,,,170311705001
4430,3654 N PACIFIC AVE,Chicago,IL,60634,,,170311705001
4431,8006 W ADDISON ST,Chicago,IL,60634,,,170311705001
4432,NA,Chicago,IL,,,,
4433,NA,Chicago,IL,,,,
4434,NA,Chicago,IL,,,,
4435,NA,Chicago,IL,,,,
4436,NA,Chicago,IL,,,,
4437,NA,Chicago,IL,,,,
4438,NA,Chicago,IL,,,,
4439,NA,Chicago,IL,,,,
4440,NA,Chicago,IL,,,,
4441,NA,Chicago,IL,,,,
4442,3505 N PONTIAC AVE,Chicago,IL,60634,,,170311706002
4443,3504 N PLAINFIELD AVE,Chicago,IL,60634,,,170311706002
4444,8309 W ADDISON ST,Chicago,IL,60634,,,170311706002
4445,3523 N PLAINFIELD AVE,Chicago,IL,60634,,,170311706002
4446,3536 N PITTSBURGH AVE,Chicago,IL,60634,,,170311706002
4447,8238 W CORNELIA AVE,Chicago,IL,60634,,,170311706002
4448,3532 N PITTSBURGH AVE,Chicago,IL,60634,,,170311706002
4449,3531 N PITTSBURGH AVE,Chicago,IL,60634,,,170311706002
4450,3511 N PITTSBURGH AVE,Chicago,IL,60634,,,170311706002
4451,8201 W ADDISON ST,Chicago,IL,60634,,,170311706002
4452,8217 W ADDISON ST,Chicago,IL,60634,,,170311706002
4453,3543 N PIONEER AVE,Chicago,IL,60634,,,170311706002
4454,3525 N PIONEER AVE,Chicago,IL,60634,,,170311706002
4455,NA,Chicago,IL,,,,
4456,3547 N PARIS AVE,Chicago,IL,60634,,,170311706001
4457,3541 N PARIS AVE,Chicago,IL,60634,,,170311706001
4458,3546 N PANAMA AVE,Chicago,IL,60634,,,170311706001
4459,3530 N PANAMA AVE,Chicago,IL,60634,,,170311706001
4460,8104  FOREST  PRESERVE BLVD,Chicago,IL,60634,,,
4461,3467 N PONTIAC AVE,Chicago,IL,60634,,,170311706002
4462,3463 N PONTIAC AVE,Chicago,IL,60634,,,170311706002
4463,3461 N PONTIAC AVE,Chicago,IL,60634,,,170311706002
4464,3453 N PONTIAC AVE,Chicago,IL,60634,,,170311706002
4465,8308  FOREST  PRESERVE BLVD,Chicago,IL,60634,,,
4466,3433 N PLAINFIELD AVE,Chicago,IL,60634,,,170311706002
4467,3431 N PLAINFIELD AVE,Chicago,IL,60634,,,170311706002
4468,3423 N PITTSBURGH AVE,Chicago,IL,60634,,,170311706002
4469,3401 N PIONEER AVE,Chicago,IL,60634,,,170311706002
4470,3441 N PANAMA AVE,Chicago,IL,60634,,,170311706001
4471,3415 N PANAMA AVE,Chicago,IL,60634,,,170311706001
4472,3458 N PAGE AVE,Chicago,IL,60634,,,170311706001
4473,3424 N PAGE AVE,Chicago,IL,60634,,,170311706001
4474,3400 N PAGE AVE,Chicago,IL,60634,,,170311706001
4475,3455 N PAGE AVE,Chicago,IL,60634,,,170311706001
4476,3449 N PAGE AVE,Chicago,IL,60634,,,170311706001
4477,3442 N PACIFIC AVE,Chicago,IL,60634,,,170311706001
4478,3406 N PACIFIC AVE,Chicago,IL,60634,,,170311706001
4479,3423 N PAGE AVE,Chicago,IL,60634,,,170311706001
4480,8309  FOREST  PRESERVE BLVD,Chicago,IL,60634,,,
4481,3331 N PONTIAC AVE,Chicago,IL,60634,,,170311706002
4482,3325 N PONTIAC AVE,Chicago,IL,60634,,,170311706002
4483,3317 N PONTIAC AVE,Chicago,IL,60634,,,170311706002
4484,3301 N PONTIAC AVE,Chicago,IL,60634,,,170311706002
4485,3323 N PLAINFIELD AVE,Chicago,IL,60634,,,170311706002
4486,3337 N PLAINFIELD AVE,Chicago,IL,60634,,,170311706002
4487,3356 N PITTSBURGH AVE,Chicago,IL,60634,,,170311706002
4488,8247  FOREST  PRESERVE BLVD,Chicago,IL,60634,,,
4489,3349 N PITTSBURGH AVE,Chicago,IL,60634,,,170311706002
4490,3335 N PITTSBURGH AVE,Chicago,IL,60634,,,170311706002
4491,3306 N PIONEER AVE,Chicago,IL,60634,,,170311706002
4492,3305 N PITTSBURGH AVE,Chicago,IL,60634,,,170311706002
4493,3331 N PIONEER AVE,Chicago,IL,60634,,,170311706002
4494,3316 N PARIS AVE,Chicago,IL,60634,,,170311706002
4495,3312 N PARIS AVE,Chicago,IL,60634,,,170311706002
4496,3310 N PARIS AVE,Chicago,IL,60634,,,170311706002
4497,3306 N PARIS AVE,Chicago,IL,60634,,,170311706002
4498,3311 N PARIS AVE,Chicago,IL,60634,,,170311706001
4499,3350 N PANAMA AVE,Chicago,IL,60634,,,170311706001
4500,3316 N PANAMA AVE,Chicago,IL,60634,,,170311706001
4501,3312 N PANAMA AVE,Chicago,IL,60634,,,170311706001
4502,3304 N PANAMA AVE,Chicago,IL,60634,,,170311706001
4503,3300 N PANAMA AVE,Chicago,IL,60634,,,170311706001
4504,3347 N PANAMA AVE,Chicago,IL,60634,,,170311706001
4505,3325 N PANAMA AVE,Chicago,IL,60634,,,170311706001
4506,3312 N PAGE AVE,Chicago,IL,60634,,,170311706001
4507,3351 N PAGE AVE,Chicago,IL,60634,,,170311706001
4508,3349 N PAGE AVE,Chicago,IL,60634,,,170311706001
4509,3307 N PAGE AVE,Chicago,IL,60634,,,170311706001
4510,3340 N PACIFIC AVE,Chicago,IL,60634,,,170311706001
4511,3314 N PACIFIC AVE,Chicago,IL,60634,,,170311706001
4512,3300 N PACIFIC AVE,Chicago,IL,60634,,,170311706001
4513,3248 N PLAINFIELD AVE,Chicago,IL,60634,,,170311706002
4514,3244 N PLAINFIELD AVE,Chicago,IL,60634,,,170311706002
4515,3240 N PLAINFIELD AVE,Chicago,IL,60634,,,170311706002
4516,NA,Chicago,IL,,,,
4517,3228 N PITTSBURGH AVE,Chicago,IL,60634,,,170311706002
4518,3217 N PLAINFIELD AVE,Chicago,IL,60634,,,170311706002
4519,3229 N PLAINFIELD AVE,Chicago,IL,60634,,,170311706002
4520,3251 N PLAINFIELD AVE,Chicago,IL,60634,,,170311706002
4521,3247 N PLAINFIELD AVE,Chicago,IL,60634,,,170311706002
4522,3239 N PITTSBURGH AVE,Chicago,IL,60634,,,170311706002
4523,3235 N PITTSBURGH AVE,Chicago,IL,60634,,,170311706002
4524,3233 N PITTSBURGH AVE,Chicago,IL,60634,,,170311706002
4525,3215 N PITTSBURGH AVE,Chicago,IL,60634,,,170311706002
4526,3232 N PIONEER AVE,Chicago,IL,60634,,,170311706002
4527,3222 N PIONEER AVE,Chicago,IL,60634,,,170311706002
4528,3216 N PIONEER AVE,Chicago,IL,60634,,,170311706002
4529,3237 N PARIS AVE,Chicago,IL,60634,,,170311706001
4530,3246 N PANAMA AVE,Chicago,IL,60634,,,170311706001
4531,3239 N PAGE AVE,Chicago,IL,60634,,,170311706001
4532,3943 N PACIFIC AVE,Chicago,IL,60634,,,170311705001
4533,3935 N PACIFIC AVE,Chicago,IL,60634,,,170311705001
4534,3905 N PACIFIC AVE,Chicago,IL,60634,,,170311705001
4535,3847 N PACIFIC AVE,Chicago,IL,60634,,,170311705001
4536,3829 N PACIFIC AVE,Chicago,IL,60634,,,170311705001
4537,3811 N PACIFIC AVE,Chicago,IL,60634,,,170311705001
4538,3743 N PACIFIC AVE,Chicago,IL,60634,,,170311705001
4539,3725 N PACIFIC AVE,Chicago,IL,60634,,,170311705001
4540,3717 N PACIFIC AVE,Chicago,IL,60634,,,170311705001
4541,3713 N PACIFIC AVE,Chicago,IL,60634,,,170311705001
4542,3707 N PACIFIC AVE,Chicago,IL,60634,,,170311705001
4543,7958 W ADDISON ST,Chicago,IL,60634,,,170311705001
4544,7954 W ADDISON ST,Chicago,IL,60634,,,170311705001
4545,7946 W ADDISON ST,Chicago,IL,60634,,,170311705001
4546,7934 W ADDISON ST,Chicago,IL,60634,,,170311705001
4547,7926 W ADDISON ST,Chicago,IL,60634,,,170311705001
4548,3621 N PACIFIC AVE,Chicago,IL,60634,,,170311705001
4549,NA,Chicago,IL,,,,
4550,NA,Chicago,IL,,,,
4551,NA,Chicago,IL,,,,
4552,NA,Chicago,IL,,,,
4553,NA,Chicago,IL,,,,
4554,NA,Chicago,IL,,,,
4555,NA,Chicago,IL,,,,
4556,3876 N OTTAWA AVE,Chicago,IL,60634,,,170311705001
4557,3824 N OTTAWA AVE,Chicago,IL,60634,,,170311705001
4558,3939 N OTTAWA AVE,Chicago,IL,60634,,,170311704004
4559,3936 N ORIOLE AVE,Chicago,IL,60634,,,170311704004
4560,3934 N ORIOLE AVE,Chicago,IL,60634,,,170311704004
4561,3856 N ORIOLE AVE,Chicago,IL,60634,,,170311704004
4562,3871 N OTTAWA AVE,Chicago,IL,60634,,,170311704004
4563,NA,Chicago,IL,,,,
4564,NA,Chicago,IL,,,,
4565,3822 N ORIOLE AVE,Chicago,IL,60634,,,170311704004
4566,7624  FOREST  PRESERVE BLVD,Chicago,IL,60634,,,
4567,7606 W FOREST PRESERVE AVE,Chicago,IL,60634,,,170311704004
4568,7849  FOREST  PRESERVE BLVD,Chicago,IL,60634,,,
4569,7843  FOREST  PRESERVE BLVD,Chicago,IL,60634,,,
4570,7825  FOREST  PRESERVE BLVD,Chicago,IL,60634,,,
4571,7805  FOREST  PRESERVE BLVD,Chicago,IL,60634,,,
4572,3614 N OZANAM AVE,Chicago,IL,60634,,,170311705001
4573,7800 W ADDISON ST,Chicago,IL,60634,,,170311705001
4574,7820 W ADDISON ST,Chicago,IL,60634,,,170311705001
4575,7743  FOREST  PRESERVE BLVD,Chicago,IL,60634,,,
4576,7739  FOREST  PRESERVE BLVD,Chicago,IL,60634,,,
4577,7716 W PATTERSON AVE,Chicago,IL,60634,,,170311705001
4578,3642 N OVERHILL AVE,Chicago,IL,60634,,,170311705001
4579,7731 W PATTERSON AVE,Chicago,IL,60634,,,170311705001
4580,7700 W ADDISON ST,Chicago,IL,60634,,,170311705001
4581,7730 W ADDISON ST,Chicago,IL,60634,,,170311705001
4582,NA,Chicago,IL,,,,
4583,3732 N OTTAWA AVE,Chicago,IL,60634,,,170311705001
4584,3710 N OTTAWA AVE,Chicago,IL,60634,,,170311705001
4585,3636 N OTTAWA AVE,Chicago,IL,60634,,,170311705001
4586,7640 W ADDISON ST,Chicago,IL,60634,,,170311705001
4587,7664 W ADDISON ST,Chicago,IL,60634,,,170311705001
4588,3735 N OTTAWA AVE,Chicago,IL,60634,,,170311704003
4589,3721 N OTTAWA AVE,Chicago,IL,60634,,,170311704003
4590,3719 N OTTAWA AVE,Chicago,IL,60634,,,170311704003
4591,3707 N OTTAWA AVE,Chicago,IL,60634,,,170311704003
4592,3752 N ORIOLE AVE,Chicago,IL,60634,,,170311704003
4593,3734 N ORIOLE AVE,Chicago,IL,60634,,,170311704003
4594,3730 N ORIOLE AVE,Chicago,IL,60634,,,170311704003
4595,3724 N ORIOLE AVE,Chicago,IL,60634,,,170311704003
4596,3644 N OSAGE AVE,Chicago,IL,60634,,,170311705001
4597,3628 N OSAGE AVE,Chicago,IL,60634,,,170311705001
4598,3909 N ORIOLE AVE,Chicago,IL,60634,,,170311704004
4599,3869 N ORIOLE AVE,Chicago,IL,60634,,,170311704004
4600,3863 N ORIOLE AVE,Chicago,IL,60634,,,170311704004
4601,3938 N OLEANDER AVE,Chicago,IL,60634,,,170311704004
4602,7550  FOREST  PRESERVE BLVD,Chicago,IL,60634,,,
4603,7548 W FOREST PRESERVE AVE,Chicago,IL,60634,,,170311704004
4604,3963 N OLEANDER AVE,Chicago,IL,60634,,,170311704004
4605,7508  FOREST  PRESERVE BLVD,Chicago,IL,60634,,,
4606,NA,Chicago,IL,,,,
4607,3939 N OLCOTT AVE,Chicago,IL,60634,,,170311704004
4608,3922 N OSCEOLA AVE,Chicago,IL,60634,,,170311704004
4609,NA,Chicago,IL,,,,
4610,NA,Chicago,IL,,,,
4611,7419 W IRVING PARK RD,Chicago,IL,60634,,,170311704004
4612,3925 N OKETO AVE,Chicago,IL,60634,,,170311704001
4613,3934 N ODELL AVE,Chicago,IL,60634,,,170311704001
4614,3922 N ODELL AVE,Chicago,IL,60634,,,170311704001
4615,3916 N ODELL AVE,Chicago,IL,60634,,,170311704001
4616,3917 N ODELL AVE,Chicago,IL,60634,,,170311704001
4617,3918 N OCONTO AVE,Chicago,IL,60634,,,170311704001
4618,3912 N OCONTO AVE,Chicago,IL,60634,,,170311704001
4619,7543  FOREST  PRESERVE BLVD,Chicago,IL,60634,,,
4620,3809 N OLEANDER AVE,Chicago,IL,60634,,,170311704004
4621,3804 N OLCOTT AVE,Chicago,IL,60634,,,170311704004
4622,7463  FOREST  PRESERVE BLVD,Chicago,IL,60634,,,
4623,3801 N OLCOTT AVE,Chicago,IL,60634,,,170311704004
4624,3828 N OSCEOLA AVE,Chicago,IL,60634,,,170311704004
4625,3822 N OSCEOLA AVE,Chicago,IL,60634,,,170311704004
4626,7413  FOREST  PRESERVE BLVD,Chicago,IL,60634,,,
4627,3835 N OSCEOLA AVE,Chicago,IL,60634,,,170311704004
4628,3831 N OSCEOLA AVE,Chicago,IL,60634,,,170311704004
4629,3825 N OSCEOLA AVE,Chicago,IL,60634,,,170311704004
4630,3850 N OKETO AVE,Chicago,IL,60634,,,170311704004
4631,3820 N OKETO AVE,Chicago,IL,60634,,,170311704004
4632,3814 N OKETO AVE,Chicago,IL,60634,,,170311704004
4633,3857 N OKETO AVE,Chicago,IL,60634,,,170311704001
4634,3853 N OKETO AVE,Chicago,IL,60634,,,170311704001
4635,3816 N ODELL AVE,Chicago,IL,60634,,,170311704001
4636,3812 N ODELL AVE,Chicago,IL,60634,,,170311704001
4637,3800 N ODELL AVE,Chicago,IL,60634,,,170311704001
4638,3837 N ODELL AVE,Chicago,IL,60634,,,170311704001
4639,3821 N ODELL AVE,Chicago,IL,60634,,,170311704001
4640,3803 N ODELL AVE,Chicago,IL,60634,,,170311704001
4641,3856 N OCTAVIA AVE,Chicago,IL,60634,,,170311704001
4642,3816 N OCTAVIA AVE,Chicago,IL,60634,,,170311704001
4643,3806 N OCTAVIA AVE,Chicago,IL,60634,,,170311704001
4644,3849 N ODELL AVE,Chicago,IL,60634,,,170311704001
4645,3851 N OCTAVIA AVE,Chicago,IL,60634,,,170311704001
4646,3811 N OCTAVIA AVE,Chicago,IL,60634,,,170311704001
4647,3858 N OCONTO AVE,Chicago,IL,60634,,,170311704001
4648,3852 N OCONTO AVE,Chicago,IL,60634,,,170311704001
4649,3842 N OCONTO AVE,Chicago,IL,60634,,,170311704001
4650,3840 N OCONTO AVE,Chicago,IL,60634,,,170311704001
4651,3832 N OCONTO AVE,Chicago,IL,60634,,,170311704001
4652,3828 N OCONTO AVE,Chicago,IL,60634,,,170311704001
4653,3855 N OCONTO AVE,Chicago,IL,60634,,,170311704001
4654,3819 N OCONTO AVE,Chicago,IL,60634,,,170311704001
4655,3801 N OCONTO AVE,Chicago,IL,60634,,,170311704001
4656,NA,Chicago,IL,,,,
4657,NA,Chicago,IL,,,,
4658,3737 N ORIOLE AVE,Chicago,IL,60634,,,170311704003
4659,3768 N OLEANDER AVE,Chicago,IL,60634,,,170311704003
4660,3756 N OLEANDER AVE,Chicago,IL,60634,,,170311704003
4661,3728 N OLEANDER AVE,Chicago,IL,60634,,,170311704003
4662,3724 N OLEANDER AVE,Chicago,IL,60634,,,170311704003
4663,3764 N OLCOTT AVE,Chicago,IL,60634,,,170311704003
4664,3710 N OLCOTT AVE,Chicago,IL,60634,,,170311704003
4665,3761 N OLCOTT AVE,Chicago,IL,60634,,,170311704003
4666,3709 N OLCOTT AVE,Chicago,IL,60634,,,170311704003
4667,3762 N OSCEOLA AVE,Chicago,IL,60634,,,170311704003
4668,3756 N OSCEOLA AVE,Chicago,IL,60634,,,170311704003
4669,3742 N OSCEOLA AVE,Chicago,IL,60634,,,170311704003
4670,3724 N OSCEOLA AVE,Chicago,IL,60634,,,170311704003
4671,3720 N OSCEOLA AVE,Chicago,IL,60634,,,170311704003
4672,3725 N OSCEOLA AVE,Chicago,IL,60634,,,170311704003
4673,3709 N OSCEOLA AVE,Chicago,IL,60634,,,170311704003
4674,3718 N OKETO AVE,Chicago,IL,60634,,,170311704003
4675,3708 N OKETO AVE,Chicago,IL,60634,,,170311704003
4676,3700 N OKETO AVE,Chicago,IL,60634,,,170311704003
4677,3764 N OKETO AVE,Chicago,IL,60634,,,170311704003
4678,3760 N OKETO AVE,Chicago,IL,60634,,,170311704003
4679,3761 N OKETO AVE,Chicago,IL,60634,,,170311704002
4680,3703 N OKETO AVE,Chicago,IL,60634,,,170311704002
4681,3701 N OKETO AVE,Chicago,IL,60634,,,170311704002
4682,3762 N ODELL AVE,Chicago,IL,60634,,,170311704002
4683,3744 N ODELL AVE,Chicago,IL,60634,,,170311704002
4684,3720 N ODELL AVE,Chicago,IL,60634,,,170311704002
4685,3718 N ODELL AVE,Chicago,IL,60634,,,170311704002
4686,3761 N ODELL AVE,Chicago,IL,60634,,,170311704002
4687,3743 N ODELL AVE,Chicago,IL,60634,,,170311704002
4688,3760 N OCTAVIA AVE,Chicago,IL,60634,,,170311704002
4689,3756 N OCTAVIA AVE,Chicago,IL,60634,,,170311704002
4690,3754 N OCTAVIA AVE,Chicago,IL,60634,,,170311704002
4691,3748 N OCTAVIA AVE,Chicago,IL,60634,,,170311704002
4692,3744 N OCTAVIA AVE,Chicago,IL,60634,,,170311704002
4693,3738 N OCTAVIA AVE,Chicago,IL,60634,,,170311704002
4694,3716 N OCTAVIA AVE,Chicago,IL,60634,,,170311704002
4695,3761 N OCTAVIA AVE,Chicago,IL,60634,,,170311704002
4696,3745 N OCTAVIA AVE,Chicago,IL,60634,,,170311704002
4697,3739 N OCTAVIA AVE,Chicago,IL,60634,,,170311704002
4698,3737 N OCTAVIA AVE,Chicago,IL,60634,,,170311704002
4699,3764 N OCONTO AVE,Chicago,IL,60634,,,170311704002
4700,3756 N OCONTO AVE,Chicago,IL,60634,,,170311704002
4701,3742 N OCONTO AVE,Chicago,IL,60634,,,170311704002
4702,3720 N OCONTO AVE,Chicago,IL,60634,,,170311704002
4703,3745 N OCONTO AVE,Chicago,IL,60634,,,170311704002
4704,3741 N OCONTO AVE,Chicago,IL,60634,,,170311704002
4705,3731 N OCONTO AVE,Chicago,IL,60634,,,170311704002
4706,3730 N HARLEM AVE,Chicago,IL,60634,,,170311704002
4707,3645 N ORIOLE AVE,Chicago,IL,60634,,,170311704003
4708,3640 N OLEANDER AVE,Chicago,IL,60634,,,170311704003
4709,3638 N OLEANDER AVE,Chicago,IL,60634,,,170311704003
4710,3628 N OLEANDER AVE,Chicago,IL,60634,,,170311704003
4711,3625 N OLEANDER AVE,Chicago,IL,60634,,,170311704003
4712,3619 N OLEANDER AVE,Chicago,IL,60634,,,170311704003
4713,3642 N OLCOTT AVE,Chicago,IL,60634,,,170311704003
4714,3630 N OLCOTT AVE,Chicago,IL,60634,,,170311704003
4715,3626 W ADDISON ST,Chicago,IL,0,,,170311609002
4716,7518 W ADDISON ST,Chicago,IL,60634,,,170311704003
4717,NA,Chicago,IL,,,,
4718,NA,Chicago,IL,,,,
4719,3641 N OLCOTT AVE,Chicago,IL,60634,,,170311704003
4720,3633 N OLCOTT AVE,Chicago,IL,60634,,,170311704003
4721,3627 N OLCOTT AVE,Chicago,IL,60634,,,170311704003
4722,3636 N OSCEOLA AVE,Chicago,IL,60634,,,170311704003
4723,7450 W ADDISON ST,Chicago,IL,60634,,,170311704003
4724,3627 N OSCEOLA AVE,Chicago,IL,60634,,,170311704003
4725,3636 N OKETO AVE,Chicago,IL,60634,,,170311704003
4726,3634 N OKETO AVE,Chicago,IL,60634,,,170311704003
4727,3601 N OSCEOLA AVE,Chicago,IL,60634,,,170311704003
4728,7422 W ADDISON ST,Chicago,IL,60634,,,170311704003
4729,3615 N OKETO AVE,Chicago,IL,60634,,,170311704002
4730,3646 N ODELL AVE,Chicago,IL,60634,,,170311704002
4731,3636 N ODELL AVE,Chicago,IL,60634,,,170311704002
4732,3632 N ODELL AVE,Chicago,IL,60634,,,170311704002
4733,3630 N ODELL AVE,Chicago,IL,60634,,,170311704002
4734,7354 W ADDISON ST,Chicago,IL,60634,,,170311704002
4735,3640 N OCTAVIA AVE,Chicago,IL,60634,,,170311704002
4736,3638 N OCTAVIA AVE,Chicago,IL,60634,,,170311704002
4737,3645 N OCTAVIA AVE,Chicago,IL,60634,,,170311704002
4738,3623 N OCTAVIA AVE,Chicago,IL,60634,,,170311704002
4739,3617 N OCTAVIA AVE,Chicago,IL,60634,,,170311704002
4740,3642 N OCONTO AVE,Chicago,IL,60634,,,170311704002
4741,3638 N OCONTO AVE,Chicago,IL,60634,,,170311704002
4742,3636 N OCONTO AVE,Chicago,IL,60634,,,170311704002
4743,3622 N OCONTO AVE,Chicago,IL,60634,,,170311704002
4744,3631 N OCONTO AVE,Chicago,IL,60634,,,170311704002
4745,3627 N OCONTO AVE,Chicago,IL,60634,,,170311704002
4746,NA,Chicago,IL,,,,
4747,NA,Chicago,IL,,,,
4748,NA,Chicago,IL,,,,
4749,NA,Chicago,IL,,,,
4750,NA,Chicago,IL,,,,
4751,NA,Chicago,IL,,,,
4752,NA,Chicago,IL,,,,
4753,NA,Chicago,IL,,,,
4754,NA,Chicago,IL,,,,
4755,NA,Chicago,IL,,,,
4756,NA,Chicago,IL,,,,
4757,NA,Chicago,IL,,,,
4758,NA,Chicago,IL,,,,
4759,NA,Chicago,IL,,,,
4760,NA,Chicago,IL,,,,
4761,NA,Chicago,IL,,,,
4762,NA,Chicago,IL,,,,
4763,NA,Chicago,IL,,,,
4764,NA,Chicago,IL,,,,
4765,NA,Chicago,IL,,,,
4766,NA,Chicago,IL,,,,
4767,3549 N ORANGE AVE,Chicago,IL,60634,,,170311707003
4768,3515 N ORANGE AVE,Chicago,IL,60634,,,170311707003
4769,3506 N OPAL AVE,Chicago,IL,60634,,,170311707003
4770,3507 N OPAL AVE,Chicago,IL,60634,,,170311707001
4771,3520 N OZANAM AVE,Chicago,IL,60634,,,170311707001
4772,7813 W ADDISON ST,Chicago,IL,60634,,,170311707001
4773,3540 N OZARK AVE,Chicago,IL,60634,,,170311707001
4774,3508 N OZARK AVE,Chicago,IL,60634,,,170311707001
4775,7751 W ADDISON ST,Chicago,IL,60634,,,170311707001
4776,3543 N OZARK AVE,Chicago,IL,60634,,,170311707001
4777,3533 N OZARK AVE,Chicago,IL,60634,,,170311707001
4778,3521 N OZARK AVE,Chicago,IL,60634,,,170311707001
4779,3519 N OZARK AVE,Chicago,IL,60634,,,170311707001
4780,3507 N OZARK AVE,Chicago,IL,60634,,,170311707001
4781,3548 N OVERHILL AVE,Chicago,IL,60634,,,170311707001
4782,3544 N OVERHILL AVE,Chicago,IL,60634,,,170311707001
4783,3530 N OVERHILL AVE,Chicago,IL,60634,,,170311707001
4784,7639 W ADDISON ST,Chicago,IL,60634,,,170311707001
4785,3533 N OVERHILL AVE,Chicago,IL,60634,,,170311707001
4786,3530 N OTTAWA AVE,Chicago,IL,60634,,,170311707001
4787,3526 N OTTAWA AVE,Chicago,IL,60634,,,170311707001
4788,3520 N OTTAWA AVE,Chicago,IL,60634,,,170311707001
4789,7645 W ADDISON ST,Chicago,IL,60634,,,170311707001
4790,NA,Chicago,IL,,,,
4791,3511 N OTTAWA AVE,Chicago,IL,60634,,,170311708003
4792,3540 N ORIOLE AVE,Chicago,IL,60634,,,170311708003
4793,3538 N ORIOLE AVE,Chicago,IL,60634,,,170311708003
4794,3508 N ORIOLE AVE,Chicago,IL,60634,,,170311708003
4795,3427 N PACIFIC AVE,Chicago,IL,60634,,,170311707003
4796,3444 N OSAGE AVE,Chicago,IL,60634,,,170311707003
4797,3433 N OSAGE AVE,Chicago,IL,60634,,,170311707003
4798,3421 N OSAGE AVE,Chicago,IL,60634,,,170311707003
4799,3415 N OSAGE AVE,Chicago,IL,60634,,,170311707003
4800,3409 N OSAGE AVE,Chicago,IL,60634,,,170311707003
4801,3401 N OSAGE AVE,Chicago,IL,60634,,,170311707003
4802,3420 N ORANGE AVE,Chicago,IL,60634,,,170311707003
4803,3416 N ORANGE AVE,Chicago,IL,60634,,,170311707003
4804,3423 N ORANGE AVE,Chicago,IL,60634,,,170311707003
4805,3417 N ORANGE AVE,Chicago,IL,60634,,,170311707003
4806,3415 N ORANGE AVE,Chicago,IL,60634,,,170311707003
4807,3413 N ORANGE AVE,Chicago,IL,60634,,,170311707003
4808,3401 N ORANGE AVE,Chicago,IL,60634,,,170311707003
4809,3448 N OPAL AVE,Chicago,IL,60634,,,170311707003
4810,3459 N OPAL AVE,Chicago,IL,60634,,,170311707001
4811,3445 N OPAL AVE,Chicago,IL,60634,,,170311707001
4812,3405 N OPAL AVE,Chicago,IL,60634,,,170311707001
4813,3460 N OZANAM AVE,Chicago,IL,60634,,,170311707001
4814,3446 N OZANAM AVE,Chicago,IL,60634,,,170311707001
4815,3434 N OZANAM AVE,Chicago,IL,60634,,,170311707001
4816,3432 N OZANAM AVE,Chicago,IL,60634,,,170311707001
4817,3420 N OZANAM AVE,Chicago,IL,60634,,,170311707001
4818,3455 N OZANAM AVE,Chicago,IL,60634,,,170311707001
4819,3420 N OZARK AVE,Chicago,IL,60634,,,170311707001
4820,3455 N OZARK AVE,Chicago,IL,60634,,,170311707001
4821,3453 N OZARK AVE,Chicago,IL,60634,,,170311707001
4822,3437 N OZARK AVE,Chicago,IL,60634,,,170311707001
4823,3429 N OZARK AVE,Chicago,IL,60634,,,170311707001
4824,3439 N OVERHILL AVE,Chicago,IL,60634,,,170311707001
4825,3433 N OVERHILL AVE,Chicago,IL,60634,,,170311707001
4826,3427 N OVERHILL AVE,Chicago,IL,60634,,,170311707001
4827,3450 N OTTAWA AVE,Chicago,IL,60634,,,170311707001
4828,3418 N OTTAWA AVE,Chicago,IL,60634,,,170311707001
4829,3451 N OTTAWA AVE,Chicago,IL,60634,,,170311708003
4830,3439 N OTTAWA AVE,Chicago,IL,60634,,,170311708003
4831,3349 N PACIFIC AVE,Chicago,IL,60634,,,170311707003
4832,3327 N PACIFIC AVE,Chicago,IL,60634,,,170311707003
4833,3311 N PACIFIC AVE,Chicago,IL,60634,,,170311707003
4834,3310 N OSAGE AVE,Chicago,IL,60634,,,170311707003
4835,3329 N OSAGE AVE,Chicago,IL,60634,,,170311707003
4836,3318 N ORANGE AVE,Chicago,IL,60634,,,170311707003
4837,3308 N ORANGE AVE,Chicago,IL,60634,,,170311707003
4838,3351 N ORANGE AVE,Chicago,IL,60634,,,170311707003
4839,3339 N ORANGE AVE,Chicago,IL,60634,,,170311707003
4840,3332 N OPAL AVE,Chicago,IL,60634,,,170311707003
4841,3309 N OPAL AVE,Chicago,IL,60634,,,170311707002
4842,3342 N OZANAM AVE,Chicago,IL,60634,,,170311707002
4843,3332 N OZANAM AVE,Chicago,IL,60634,,,170311707002
4844,3326 N OZANAM AVE,Chicago,IL,60634,,,170311707002
4845,3300 N OZANAM AVE,Chicago,IL,60634,,,170311707002
4846,3331 N OZARK AVE,Chicago,IL,60634,,,170311707002
4847,3321 N OZARK AVE,Chicago,IL,60634,,,170311707002
4848,3342 N OVERHILL AVE,Chicago,IL,60634,,,170311707002
4849,3326 N OVERHILL AVE,Chicago,IL,60634,,,170311707002
4850,3331 N OVERHILL AVE,Chicago,IL,60634,,,170311707002
4851,3343 N OTTAWA AVE,Chicago,IL,60634,,,170311708003
4852,3339 N OTTAWA AVE,Chicago,IL,60634,,,170311708003
4853,3342 N ORIOLE AVE,Chicago,IL,60634,,,170311708003
4854,3338 N ORIOLE AVE,Chicago,IL,60634,,,170311708003
4855,3318 N ORIOLE AVE,Chicago,IL,60634,,,170311708003
4856,3236 N OSAGE AVE,Chicago,IL,60634,,,170311707003
4857,7958 W BELMONT AVE,Chicago,IL,60634,,,170311707003
4858,3215 N OSAGE AVE,Chicago,IL,60634,,,170311707003
4859,3224 N ORANGE AVE,Chicago,IL,60634,,,170311707003
4860,7920 W BELMONT AVE,Chicago,IL,60634,,,170311707003
4861,3221 N ORANGE AVE,Chicago,IL,60634,,,170311707003
4862,3246 N OPAL AVE,Chicago,IL,60634,,,170311707003
4863,3216 N OPAL AVE,Chicago,IL,60634,,,170311707003
4864,3235 N OPAL AVE,Chicago,IL,60634,,,170311707002
4865,3223 N OPAL AVE,Chicago,IL,60634,,,170311707002
4866,3234 N OZANAM AVE,Chicago,IL,60634,,,170311707002
4867,3230 N OZANAM AVE,Chicago,IL,60634,,,170311707002
4868,NA,Chicago,IL,,,,
4869,3239 N OZANAM AVE,Chicago,IL,60634,,,170311707002
4870,3223 N OZANAM AVE,Chicago,IL,60634,,,170311707002
4871,3217 N OZANAM AVE,Chicago,IL,60634,,,170311707002
4872,3246 N OZARK AVE,Chicago,IL,60634,,,170311707002
4873,3234 N OZARK AVE,Chicago,IL,60634,,,170311707002
4874,3226 N OZARK AVE,Chicago,IL,60634,,,170311707002
4875,3247 N OZANAM AVE,Chicago,IL,60634,,,170311707002
4876,7734 W BELMONT AVE,Chicago,IL,60634,,,170311707002
4877,3215 N OZARK AVE,Chicago,IL,60634,,,170311707002
4878,7708 W BELMONT AVE,Chicago,IL,60634,,,170311707002
4879,3235 N OVERHILL AVE,Chicago,IL,60634,,,170311707002
4880,3213 N OVERHILL AVE,Chicago,IL,60634,,,170311707002
4881,3242 N OTTAWA AVE,Chicago,IL,60634,,,170311707002
4882,NA,Chicago,IL,,,,
4883,NA,Chicago,IL,,,,
4884,3239 N OTTAWA AVE,Chicago,IL,60634,,,170311708003
4885,3242 N ORIOLE AVE,Chicago,IL,60634,,,170311708003
4886,3228 N ORIOLE AVE,Chicago,IL,60634,,,170311708003
4887,3243 N OTTAWA AVE,Chicago,IL,60634,,,170311708003
4888,3219 N OTTAWA AVE,Chicago,IL,60634,,,170311708003
4889,3533 N ORIOLE AVE,Chicago,IL,60634,,,170311708003
4890,3529 N ORIOLE AVE,Chicago,IL,60634,,,170311708003
4891,3530 N OLEANDER AVE,Chicago,IL,60634,,,170311708003
4892,3528 N OLEANDER AVE,Chicago,IL,60634,,,170311708003
4893,NA,Chicago,IL,,,,
4894,NA,Chicago,IL,,,,
4895,7517 W ADDISON ST,Chicago,IL,60634,,,170311708003
4896,7511 W ADDISON ST,Chicago,IL,60634,,,170311708003
4897,3523 N OLEANDER AVE,Chicago,IL,60634,,,170311708003
4898,3511 N OLEANDER AVE,Chicago,IL,60634,,,170311708003
4899,3500 N OLCOTT AVE,Chicago,IL,60634,,,170311708003
4900,7453 W ADDISON ST,Chicago,IL,60634,,,170311708002
4901,7441 W ADDISON ST,Chicago,IL,60634,,,170311708002
4902,3541 N OLCOTT AVE,Chicago,IL,60634,,,170311708002
4903,3523 N OLCOTT AVE,Chicago,IL,60634,,,170311708002
4904,3511 N OLCOTT AVE,Chicago,IL,60634,,,170311708002
4905,3507 N OLCOTT AVE,Chicago,IL,60634,,,170311708002
4906,3501 N OLCOTT AVE,Chicago,IL,60634,,,170311708002
4907,3516 N OSCEOLA AVE,Chicago,IL,60634,,,170311708002
4908,3504 N OSCEOLA AVE,Chicago,IL,60634,,,170311708002
4909,3500 N OSCEOLA AVE,Chicago,IL,60634,,,170311708002
4910,7421 W ADDISON ST,Chicago,IL,60634,,,170311708002
4911,3541 N OSCEOLA AVE,Chicago,IL,60634,,,170311708002
4912,3537 N OSCEOLA AVE,Chicago,IL,60634,,,170311708002
4913,3519 N OSCEOLA AVE,Chicago,IL,60634,,,170311708002
4914,7355 W ADDISON ST,Chicago,IL,60634,,,170311708002
4915,7345 W ADDISON ST,Chicago,IL,60634,,,170311708002
4916,3540 N ODELL AVE,Chicago,IL,60634,,,170311708002
4917,7321 W ADDISON ST,Chicago,IL,60634,,,170311708001
4918,3545 N ODELL AVE,Chicago,IL,60634,,,170311708001
4919,3535 N ODELL AVE,Chicago,IL,60634,,,170311708001
4920,3517 N ODELL AVE,Chicago,IL,60634,,,170311708001
4921,3534 N OCTAVIA AVE,Chicago,IL,60634,,,170311708001
4922,3522 N OCTAVIA AVE,Chicago,IL,60634,,,170311708001
4923,3505 N ODELL AVE,Chicago,IL,60634,,,170311708001
4924,3515 N OCTAVIA AVE,Chicago,IL,60634,,,170311708001
4925,NA,Chicago,IL,,,,
4926,3531 N OCONTO AVE,Chicago,IL,60634,,,170311708001
4927,3454 N OLEANDER AVE,Chicago,IL,60634,,,170311708003
4928,3452 N OLEANDER AVE,Chicago,IL,60634,,,170311708003
4929,3434 N OLEANDER AVE,Chicago,IL,60634,,,170311708003
4930,3435 N OSCEOLA AVE,Chicago,IL,60634,,,170311708002
4931,3422 N OKETO AVE,Chicago,IL,60634,,,170311708002
4932,3420 N OKETO AVE,Chicago,IL,60634,,,170311708002
4933,3458 N OKETO AVE,Chicago,IL,60634,,,170311708002
4934,3453 N OSCEOLA AVE,Chicago,IL,60634,,,170311708002
4935,3435 N OKETO AVE,Chicago,IL,60634,,,170311708002
4936,3429 N OKETO AVE,Chicago,IL,60634,,,170311708002
4937,3412 N ODELL AVE,Chicago,IL,60634,,,170311708002
4938,3457 N OKETO AVE,Chicago,IL,60634,,,170311708002
4939,3436 N ODELL AVE,Chicago,IL,60634,,,170311708002
4940,3416 N OCTAVIA AVE,Chicago,IL,60634,,,170311708001
4941,3446 N OCTAVIA AVE,Chicago,IL,60634,,,170311708001
4942,3439 N ODELL AVE,Chicago,IL,60634,,,170311708001
4943,3415 N ODELL AVE,Chicago,IL,60634,,,170311708001
4944,7304 W ROSCOE ST,Chicago,IL,60634,,,170311708001
4945,3440 N OCONTO AVE,Chicago,IL,60634,,,170311708001
4946,3405 N OCTAVIA AVE,Chicago,IL,60634,,,170311708001
4947,3401 N OCTAVIA AVE,Chicago,IL,60634,,,170311708001
4948,3455 N OCONTO AVE,Chicago,IL,60634,,,170311708001
4949,3451 N OCONTO AVE,Chicago,IL,60634,,,170311708001
4950,3405 N OCONTO AVE,Chicago,IL,60634,,,170311708001
4951,NA,Chicago,IL,,,,
4952,NA,Chicago,IL,,,,
4953,NA,Chicago,IL,,,,
4954,3341 N ORIOLE AVE,Chicago,IL,60634,,,170311708003
4955,3336 N OLEANDER AVE,Chicago,IL,60634,,,170311708003
4956,3322 N OLEANDER AVE,Chicago,IL,60634,,,170311708003
4957,3345 N ORIOLE AVE,Chicago,IL,60634,,,170311708003
4958,3340 N OLCOTT AVE,Chicago,IL,60634,,,170311708003
4959,3306 N OLCOTT AVE,Chicago,IL,60634,,,170311708003
4960,7515 W ROSCOE ST,Chicago,IL,60634,,,170311708003
4961,3322 N OLCOTT AVE,Chicago,IL,60634,,,170311708003
4962,3308 N OSCEOLA AVE,Chicago,IL,60634,,,170311708002
4963,3319 N OLCOTT AVE,Chicago,IL,60634,,,170311708002
4964,3311 N OLCOTT AVE,Chicago,IL,60634,,,170311708002
4965,3307 N OLCOTT AVE,Chicago,IL,60634,,,170311708002
4966,3354 N OSCEOLA AVE,Chicago,IL,60634,,,170311708002
4967,3300 N OSCEOLA AVE,Chicago,IL,60634,,,170311708002
4968,3329 N OLCOTT AVE,Chicago,IL,60634,,,170311708002
4969,3329 N OSCEOLA AVE,Chicago,IL,60634,,,170311708002
4970,3325 N OSCEOLA AVE,Chicago,IL,60634,,,170311708002
4971,3310 N OKETO AVE,Chicago,IL,60634,,,170311708002
4972,7414 W SCHOOL ST,Chicago,IL,60634,,,170311708002
4973,3341 N OSCEOLA AVE,Chicago,IL,60634,,,170311708002
4974,3331 N OSCEOLA AVE,Chicago,IL,60634,,,170311708002
4975,3305 N OKETO AVE,Chicago,IL,60634,,,170311708002
4976,3346 N ODELL AVE,Chicago,IL,60634,,,170311708002
4977,3321 N OKETO AVE,Chicago,IL,60634,,,170311708002
4978,3338 N OCTAVIA AVE,Chicago,IL,60634,,,170311708001
4979,3343 N ODELL AVE,Chicago,IL,60634,,,170311708001
4980,3326 N OCTAVIA AVE,Chicago,IL,60634,,,170311708001
4981,7311 W ROSCOE ST,Chicago,IL,60634,,,170311708001
4982,7309 W ROSCOE ST,Chicago,IL,60634,,,170311708001
4983,3335 N ODELL AVE,Chicago,IL,60634,,,170311708001
4984,3355 N OCTAVIA AVE,Chicago,IL,60634,,,170311708001
4985,3346 N OCONTO AVE,Chicago,IL,60634,,,170311708001
4986,3340 N OCONTO AVE,Chicago,IL,60634,,,170311708001
4987,3320 N OCONTO AVE,Chicago,IL,60634,,,170311708001
4988,3301 N OCONTO AVE,Chicago,IL,60634,,,170311708001
4989,3325 N OCONTO AVE,Chicago,IL,60634,,,170311708001
4990,3321 N OCONTO AVE,Chicago,IL,60634,,,170311708001
4991,NA,Chicago,IL,,,,
4992,3253 N ORIOLE AVE,Chicago,IL,60634,,,170311708003
4993,3248 N OLEANDER AVE,Chicago,IL,60634,,,170311708003
4994,3232 N OLEANDER AVE,Chicago,IL,60634,,,170311708003
4995,NA,Chicago,IL,,,,
4996,NA,Chicago,IL,,,,
4997,NA,Chicago,IL,,,,
4998,3233 N OLEANDER AVE,Chicago,IL,60634,,,170311708003
